FIRST,MIDDLE,LAST,SUFFIX,NAME,TITLE,COMPANY,DEPARTMENT,SLUG,ADDRESS2,ADDRESS,CITY,ST,ZIP,COUNTRY
,,,,,,,,,,,,,,
VICTORIA,,GAU,,VICTORIA GAU,,CAPITAL CITY SYMPHONY,,,,C/O ATLAS PERFORMING ARTS CENTER 1333 H STREET NE,WASHINGTON,DC,20002,
,,,,,,,,,,,,,,
DAVID,J.L.,FISK,,DAVID J.L. FISK,,CHARLOTTE SYMPHONY,,,,FIRST CITIZENS BANK PLAZA 128 SOUTH TRYON STREET SUITE 350,CHARLOTTE,NC,28202,
,,,,,,,,,,,,,,
CHRISTOPHER,,WARREN-GREEN,,CHRISTOPHER WARREN-GREEN,,CHARLOTTE SYMPHONY,,,,FIRST CITIZENS BANK PLAZA 128 SOUTH TRYON STREET SUITE 350,CHARLOTTE,NC,28202,
,,,,,,,,,,,,,,
ELAINE,,RINALDI,,ELAINE RINALDI,,ORCHESTRA MIAMI,,,,PO BOX 7598,MIAMI,FL,33255,
,,,,,,,,,,,,,,
KIRSTEN,,MASON,,KIRSTEN MASON,,NEW ZEALAND SYMPHONY ORCHESTRA,,,,P.O. BOX 6640,WELLINGTON,,6141,
,,,,,,,,,,,,,,
BRADLEY,,THACHUK,,BRADLEY THACHUK,,NIAGARA SYMPHONY ORCHESTRA,,,,11 BOND ST #207,ST. CATHARINES ,ON,L2R 4Z4,
,,,,,,,,,,,,,,
BRODY,,SMITH,,BRODY SMITH,,NIAGARA SYMPHONY ORCHESTRA,,,,11 BOND ST #207,ST. CATHARINES ,ON,L2R 4Z4,
,,,,,,,,,,,,,,
GERRY,,CALLAGHAN,,GERRY CALLAGHAN,,NIAGARA SYMPHONY ORCHESTRA,,,,11 BOND ST #207,ST. CATHARINES ,ON,L2R 4Z4,
,,,,,,,,,,,,,,
JEAN,R.,DUPR,,JEAN R. DUPR,,ORCHESTRE METROPOLITAIN,,,,"486 SAINTE-CATHERINE ST. WEST, SUITE 401",MONTREAL ,QC,H3B 1A6,
,,,,,,,,,,,,,,
LAURA,,EATON,,LAURA EATON,,ORCHESTRE METROPOLITAIN,,,,"486 SAINTE-CATHERINE ST. WEST, SUITE 401",MONTREAL ,QC,H3B 1A6,
,,,,,,,,,,,,,,
KRISJANA,,THORSTEINSON,,KRISJANA THORSTEINSON,,ORCHESTRE METROPOLITAIN,,,,"486 SAINTE-CATHERINE ST. WEST, SUITE 401",MONTREAL ,QC,H3B 1A6,
,,,,,,,,,,,,,,
KIM,LAJEUNESSE,MBA,,KIM LAJEUNESSE MBA,,ORCHESTRE METROPOLITAIN,,,,"486 SAINTE-CATHERINE ST. WEST, SUITE 401",MONTREAL ,QC,H3B 1A6,
,,,,,,,,,,,,,,
JENNIFER,,BOURDAGES,,JENNIFER BOURDAGES,,ORCHESTRE METROPOLITAIN,,,,"486 SAINTE-CATHERINE ST. WEST, SUITE 401",MONTREAL ,QC,H3B 1A6,
,,,,,,,,,,,,,,
MADELEINE,,CAREAU,,MADELEINE CAREAU,,ORCHESTRE SYMPHONIQUE DE MONTRAL,,,,"1600, RUE SAINT-URBAIN",MONTREAL ,QC,H2X 0S1,
,,,,,,,,,,,,,,
CAROLINE,,LOUIS,,CAROLINE LOUIS,,ORCHESTRE SYMPHONIQUE DE MONTRAL,,,,"1600, RUE SAINT-URBAIN",MONTREAL ,QC,H2X 0S1,
,,,,,,,,,,,,,,
SBASTIEN,,ALMON,,SBASTIEN ALMON,,ORCHESTRE SYMPHONIQUE DE MONTRAL,,,,"1600, RUE SAINT-URBAIN",MONTREAL ,QC,H2X 0S1,
,,,,,,,,,,,,,,
MARIANNE,,PERRON,,MARIANNE PERRON,,ORCHESTRE SYMPHONIQUE DE MONTRAL,,,,"1600, RUE SAINT-URBAIN",MONTREAL ,QC,H2X 0S1,
,,,,,,,,,,,,,,
LIBOR,,ONDRAS,,LIBOR ONDRAS,,KENT PHILHARMONIC ORCHESTRA,,,,142 RANSOM AVE NE,GRAND RAPIDS ,MI,49503,
,,,,,,,,,,,,,,
GALE,,MAHOOD,,GALE MAHOOD,,AUCKLAND PHILHARMONIA ORCHESTRA,,,,PO BOX 7083 VICTORIA ST WEST,AUCKLAND CENTRAL,,1142,NEW ZEALAND
,,,,,,,,,,,,,,
GRACE,,LEE,,GRACE LEE,,COLLEGE OF ARTS AT KOOKMIN UNIVERSITY,,,,"77 JEONGNEUNG-RO, SEONGBUK-GU",SEOUL,,2707,KOREA
,,,,,,,,,,,,,,
KIMBERLY,,MCMANN,,KIMBERLY MCMANN,,EDMONTON METROPOLITAN ORCHESTRA,,,,#203 11610 100 AVE NW,EDMONTON AB,,T5K 0K1,CANADA
,,,,,,,,,,,,,,
MORGAN,,KUNITZ,,MORGAN KUNITZ,,EDMONTON METROPOLITAN ORCHESTRA,,,,#203 11610 100 AVE NW,EDMONTON AB,,T5K 0K1,CANADA
,,,,,,,,,,,,,,
AMANDA,,BANISTER,,AMANDA BANISTER,,EDMONTON SYMPHONY ORCHESTRA,,,,9720 102 AVENUE NW,EDMONTON AB,,T5J 4B2,CANADA
,,,,,,,,,,,,,,
ROB,,MCALEAR,,ROB MCALEAR,,EDMONTON SYMPHONY ORCHESTRA,,,,9720 102 AVENUE NW,EDMONTON AB,,T5J 4B2,CANADA
,,,,,,,,,,,,,,
TIMOTHY,,TSUKAMOTO,,TIMOTHY TSUKAMOTO,,HONG KONG PHILHARMONIC ORCHESTRA,,,,"LEVEL 8, ADMINISTRATION BUILDING, HONG KONG CULTURAL CENTRE","TSIM SHA TSUI, KOWLOON, HONG KONG",,,CHINA
,,,,,,,,,,,,,,
JOSEPHINE,,MARTENSSON-HEMSTED,,JOSEPHINE MARTENSSON-HEMSTED,,HURONIA SYMPHONY,,,,P.O. BOX 904,BARRIE ON,,L4M 2Y6,CANADA
,,,,,,,,,,,,,,
OLIVER,,BALABURSKI,,OLIVER BALABURSKI,,HURONIA SYMPHONY,,,,P.O. BOX 904,BARRIE ON,,L4M 2Y6,CANADA
,,,,,,,,,,,,,,
PAT,,RUNDELL,,PAT RUNDELL,,KALEIDOSCOPE THEATRE FOR YOUNG PEOPLE,,,,401-3980 SHELBOURNE STREET,VICTORIA BC,,V8N 6J1,CANADA
,,,,,,,,,,,,,,
VICKI,,HEGEDUS,,VICKI HEGEDUS,,LETHBRIDGE SYMPHONY,,,,PO BOX 1101 STN MAIN,LETHBRIDGE AB,,T1J 4A2,CANADA
,,,,,,,,,,,,,,
SOPHIE,,GALAISE,,SOPHIE GALAISE,,MELBOURNE SYMPHONY ORCHESTRA,,,,120-130 SOUTHBANK BOULEVARD,SOUTHBANK VIC,,3006,AUSTRALIA
,,,,,,,,,,,,,,
JOHN,,NOLAN,,JOHN NOLAN,,MELBOURNE SYMPHONY ORCHESTRA,,,,120-130 SOUTHBANK BOULEVARD,SOUTHBANK VIC,,3006,AUSTRALIA
,,,,,,,,,,,,,,
ARNA,,EINARSDOTTIR,,ARNA EINARSDOTTIR,,NATIONAL ARTS CENTRE ORCHESTRA,,,,"P.O. BOX 1534, STATION B",OTTAWA ON,,K1P 5W1,CANADA
,,,,,,,,,,,,,,
ALEXANDER,,SHELLEY,,ALEXANDER SHELLEY,,NATIONAL ARTS CENTRE ORCHESTRA,,,,"P.O. BOX 1534, STATION B",OTTAWA ON,,K1P 5W1,CANADA
,,,,,,,,,,,,,,
GENEVIEVE,,CIMON,,GENEVIEVE CIMON,,NATIONAL ARTS CENTRE ORCHESTRA,,,,"P.O. BOX 1534, STATION B",OTTAWA ON,,K1P 5W1,CANADA
,,,,,,,,,,,,,,
STEFANI,,TRUANT,,STEFANI TRUANT,,NATIONAL ARTS CENTRE ORCHESTRA,,,,"P.O. BOX 1534, STATION B",OTTAWA ON,,K1P 5W1,CANADA
,,,,,,,,,,,,,,
DAPHNE,,BURT,,DAPHNE BURT,,NATIONAL ARTS CENTRE ORCHESTRA,,,,"P.O. BOX 1534, STATION B",OTTAWA ON,,K1P 5W1,CANADA
,,,,,,,,,,,,,,
CRAIG,,WHITEHEAD,,CRAIG WHITEHEAD,,QUEENSLAND SYMPHONY ORCHESTRA,,,,GPO BOX 9994,BRISBANE QLD,,4001,AUSTRALIA
,,,,,,,,,,,,,,
BILL,,CHANDLER,,BILL CHANDLER,,ROYAL SCOTTISH NATIONAL ORCHESTRA,,,,19 KILLERMONT STREET,GLASGOW,,G2 3NX,SCOTLAND
,,,,,,,,,,,,,,
HAK-PENG,,CHNG,,HAK-PENG CHNG,,SINGAPORE SYMPHONY ORCHESTRA,,,,11 EMPRESS PLACE #01-02 VICTORIA CONCERT HALL,SINGAPORE,,179558,SINGAPORE
,,,,,,,,,,,,,,
HANS,,SORENSEN,,HANS SORENSEN,,SINGAPORE SYMPHONY ORCHESTRA,,,,11 EMPRESS PLACE #01-02 VICTORIA CONCERT HALL,SINGAPORE,,179558,SINGAPORE
,,,,,,,,,,,,,,
EMMA,E.,DUNCH,,EMMA E. DUNCH,,SYDNEY SYMPHONY ORCHESTRA,,,,GENERAL POST OFFICE BOX 4338,SYDNEY NSW,,2001,AUSTRALIA
,,,,,,,,,,,,,,
ROBERTA,,SMITH,,ROBERTA SMITH,,TORONTO SYMPHONY ORCHESTRA,,,,500-145 WELLINGTON ST. W.,TORONTO ON,,M5J 1H8,CANADA
,,,,,,,,,,,,,,
LOIE,,FALLIS,,LOIE FALLIS,,TORONTO SYMPHONY ORCHESTRA,,,,500-145 WELLINGTON ST. W.,TORONTO ON,,M5J 1H8,CANADA
,,,,,,,,,,,,,,
DAVID,,DREDLA,,DAVID DREDLA,,TORONTO SYMPHONY ORCHESTRA,,,,500145 WELLINGTON ST. W.,TORONTO ON,,M5J 1H8,CANADA
,,,,,,,,,,,,,,
PIERRE,,RIVARD,,PIERRE RIVARD,,TORONTO SYMPHONY ORCHESTRA,,,,500-145 WELLINGTON ST. W.,TORONTO ON,,M5J 1H8,CANADA
,,,,,,,,,,,,,,
NICOLE,,BALM,,NICOLE BALM,,TORONTO SYMPHONY ORCHESTRA,,,,500-145 WELLINGTON ST. W.,TORONTO ON,,M5J 1H8,CANADA
,,,,,,,,,,,,,,
SABINE,,GRANOUX,,SABINE GRANOUX,,VANCOUVER SYMPHONY ORCHESTRA,,,,500-833 SEYMOUR STREET,VANCOUVER BC,,V6B 0G4,CANADA
,,,,,,,,,,,,,,
YVANNA,,MYCYK,,YVANNA MYCYK,,VANCOUVER SYMPHONY ORCHESTRA,,,,500-833 SEYMOUR STREET,VANCOUVER BC,,V6B 0G4,CANADA
,,,,,,,,,,,,,,
CHRISTOPHER,,SPRAGUE,,CHRISTOPHER SPRAGUE,,VANCOUVER SYMPHONY ORCHESTRA,,,,500-833 SEYMOUR STREET,VANCOUVER BC,,V6B 0G4,CANADA
,,,,,,,,,,,,,,
CHRISTIAN,,KLUXEN,,CHRISTIAN KLUXEN,,VICTORIA SYMPHONY,,,,620 VIEW STREET SUITE 610,VICTORIA BC,,V8W 1J6,CANADA
,,,,,,,,,,,,,,
MATTHEW,,WHITE,,MATTHEW WHITE,,VICTORIA SYMPHONY,,,,620 VIEW STREET SUITE 610,VICTORIA BC,,V8W 1J6,CANADA
,,,,,,,,,,,,,,
MATTHEW,,BAIRD,,MATTHEW BAIRD,,VICTORIA SYMPHONY,,,,620 VIEW STREET SUITE 610,VICTORIA BC,,V8W 1J6,CANADA
,,,,,,,,,,,,,,
ROBERT,J.,FRANZ,,ROBERT J. FRANZ,,WINDSOR SYMPHONY ORCHESTRA,,,,121 UNIVERSITY AVENUE WEST,WINDSOR ON,,N9A 5P4,CANADA
,,,,,,,,,,,,,,
ANGELA,,BIRDSELL,,ANGELA BIRDSELL,,WINNIPEG SYMPHONY ORCHESTRA,,,,2110 ONE LOMBARD PLACE,WINNIPEG MB,,R3B 0X3,CANADA
,,,,,,,,,,,,,,
BRENT,,JOHNSON,,BRENT JOHNSON,,WINNIPEG SYMPHONY ORCHESTRA,,,,2110 ONE LOMBARD PLACE,WINNIPEG MB,,R3B 0X3,CANADA
,,,,,,,,,,,,,,
DANIEL,,RAISKIN,,DANIEL RAISKIN,,WINNIPEG SYMPHONY ORCHESTRA,,,,2110 ONE LOMBARD PLACE,WINNIPEG MB,,R3B 0X3,CANADA
,,,,,,,,,,,,,,
JEAN-FRANCOIS,,PHANEUF,,JEAN-FRANCOIS PHANEUF,,WINNIPEG SYMPHONY ORCHESTRA,,,,2110 ONE LOMBARD PLACE,WINNIPEG MB,,R3B 0X3,CANADA
,,,,,,,,,,,,,,
LUCAS,,WOOD,,LUCAS WOOD,,KNOX-GALESBURG SYMPHONY,,,,95 N SEMINARY ST,GALESBURG,IL,61401-4888,
,,,,,,,,,,,,,,
VLAD,,VIZIREANU,,VLAD VIZIREANU,,KNOX-GALESBURG SYMPHONY,,,,95 N SEMINARY ST,GALESBURG,IL,61401-4888,
,,,,,,,,,,,,,,
KEVIN,ANDREW,SMITH,,KEVIN ANDREW SMITH,,ABILENE PHILHARMONIC,,,,1102 N 3RD ST STE C,ABILENE,TX,79601-5851,
,,,,,,,,,,,,,,
ABBY,,CLEVELAND,,ABBY CLEVELAND,,BINGHAMTON PHILHARMONIC,,,,71 STATE ST LOWR LEVEL,BINGHAMTON,NY,13901-3316,
,,,,,,,,,,,,,,
PAUL,D,CIENNIWA,,PAUL D CIENNIWA,,BINGHAMTON PHILHARMONIC,,,,71 STATE ST LOWR LEVEL,BINGHAMTON,NY,13901-3316,
,,,,,,,,,,,,,,
DAVID,C.,SNEAD,,DAVID C. SNEAD,,HANDEL & HAYDN SOCIETY,,,,9 HARCOURT ST,BOSTON,MA,02116-6496,
,,,,,,,,,,,,,,
HARRY,,CHRISTOPHERS,,HARRY CHRISTOPHERS,,HANDEL & HAYDN SOCIETY,,,,9 HARCOURT ST,BOSTON,MA,02116-6496,
,,,,,,,,,,,,,,
TOM,,VIGNIERI,,TOM VIGNIERI,,HANDEL & HAYDN SOCIETY,,,,9 HARCOURT ST,BOSTON,MA,02116-6496,
,,,,,,,,,,,,,,
IRA,,PEDLIKIN,,IRA PEDLIKIN,,HANDEL & HAYDN SOCIETY,,,,9 HARCOURT ST,BOSTON,MA,02116-6496,
,,,,,,,,,,,,,,
ELEANOR,,MEARS,,ELEANOR MEARS,,HANDEL & HAYDN SOCIETY,,,,9 HARCOURT ST,BOSTON,MA,02116-6496,
,,,,,,,,,,,,,,
DAVE,,MOSS,,DAVE MOSS,,HAWAII SYMPHONY ORCHESTRA,,,,3610 WAIALAE AVE,HONOLULU,HI,96816-3271,
,,,,,,,,,,,,,,
MARCIA,,KAUFMANN,,MARCIA KAUFMANN,,IRIS ORCHESTRA,,,,1801 EXETER RD,GERMANTOWN,TN,38138-2910,
,,,,,,,,,,,,,,
PETER,,ABELL,,PETER ABELL,,MEMPHIS SYMPHONY ORCHESTRA,,,,NEWPORT HALL  UNIV OF MEMPHIS 610 GOODMAN ST.,MEMPHIS,TN,38152-0001,
,,,,,,,,,,,,,,
MEG,,SIPPEY,,MEG SIPPEY,,MEMPHIS SYMPHONY ORCHESTRA,,,,NEWPORT HALL UNIV. OF MEMPHIS 610 GOODMAN STREET,MEMPHIS,TN,38152-0001,
,,,,,,,,,,,,,,
RACHAEL,,PATTON,,RACHAEL PATTON,,MEMPHIS SYMPHONY ORCHESTRA,,,,NEWPORT HALL  UNIV OF MEMPHIS 610 GOODMAN ST.,MEMPHIS,TN,38152-0001,
,,,,,,,,,,,,,,
JOSEPH,,MATTHEWS,,JOSEPH MATTHEWS,,MEMPHIS SYMPHONY ORCHESTRA,,,,NEWPORT HALL  UNIV OF MEMPHIS 610 GOODMAN ST.,MEMPHIS,TN,38152-0001,
,,,,,,,,,,,,,,
MARK,,NIEHAUS,,MARK NIEHAUS,,MILWAUKEE SYMPHONY ORCHESTRA,,,,212 W WISCONSIN AVE,MILWAUKEE,WI,53203-2307,
,,,,,,,,,,,,,,
YANIV,,DINUR,,YANIV DINUR,,MILWAUKEE SYMPHONY ORCHESTRA,,,,212 W WISCONSIN AVE,MILWAUKEE,WI,53203-2307,
,,,,,,,,,,,,,,
REBECCA,,WHITNEY,,REBECCA WHITNEY,,MILWAUKEE SYMPHONY ORCHESTRA,,,,212 W WISCONSIN AVE,MILWAUKEE,WI,53203-2307,
,,,,,,,,,,,,,,
BRET,,DORHOUT,,BRET DORHOUT,,MILWAUKEE SYMPHONY ORCHESTRA,,,,212 W WISCONSIN AVE,MILWAUKEE,WI,53203-2307,
,,,,,,,,,,,,,,
MICHELLE,,PEHLER,,MICHELLE PEHLER,,MILWAUKEE SYMPHONY ORCHESTRA,,,,212 W WISCONSIN AVE,MILWAUKEE,WI,53203-2307,
,,,,,,,,,,,,,,
RICHARD,,SCERBO,,RICHARD SCERBO,,NATIONAL ORCHESTRAL INST,,,,3800 THE CLARICE SMITH PERFORMING ARTS CENTER 8270 ALUMNI DRIVE,COLLEGE PARK,MD,20742-0001,
,,,,,,,,,,,,,,
NIGEL,,BOON,,NIGEL BOON,,NATIONAL SYMPHONY ORCHESTRA,,,,JOHN F KENNEDY CENTER FOR THE PERFORMING ARTS 2700 F ST NW,WASHINGTON,DC,20566-0002,
,,,,,,,,,,,,,,
JOHN,,CAIN,,JOHN CAIN,,NORTHWEST INDIANA SYMPHONY ORCHESTRA,,,,1040 RIDGE RD,MUNSTER,IN,46321-1876,
,,,,,,,,,,,,,,
PHILIP,,BAUMAN,,PHILIP BAUMAN,,NORTHWEST INDIANA SYMPHONY ORCHESTRA,,,,1040 RIDGE RD,MUNSTER,IN,46321-1876,
,,,,,,,,,,,,,,
MICAH,,BORNSTEIN,,MICAH BORNSTEIN,,NORTHWEST INDIANA SYMPHONY ORCHESTRA,,,,1040 RIDGE RD,MUNSTER,IN,46321-1876,
,,,,,,,,,,,,,,
SANDRA,,MIKLAVE,,SANDRA MIKLAVE,,NORWALK SYMPHONY ORCHESTRA,,,,25 VAN ZANT ST STE 143,NORWALK,CT,06855-1713,
,,,,,,,,,,,,,,
LAURIE,,KENAGY,,LAURIE KENAGY,,RIDGEFIELD SYMPHONY ORCHESTRA,,,,77 DANBURY RD,RIDGEFIELD,CT,06877-4029,
,,,,,,,,,,,,,,
SCOTT,,EDDLEMON,,SCOTT EDDLEMON,,SYMPHONY OF THE MOUNTAINS,,,,1200 E CENTER ST STE 311,KINGSPORT,TN,37660-4958,
,,,,,,,,,,,,,,
ENDICOTT,,REINDL,,ENDICOTT REINDL,,WESTMORELAND SYMPHONY ORCHESTRA,,,,951 OLD SALEM RD,GREENSBURG,PA,15601-1386,
,,,,,,,,,,,,,,
MORRIE,A.,BRAND,,MORRIE A. BRAND,,WESTMORELAND SYMPHONY ORCHESTRA,,,,951 OLD SALEM RD,GREENSBURG,PA,15601-1386,
,,,,,,,,,,,,,,
ANNE,CATHERINE,MURRAY,,ANNE CATHERINE MURRAY,,AUGUSTA SYMPHONY,,,,1301 GREENE ST STE 200,AUGUSTA,GA,30901-1031,
,,,,,,,,,,,,,,
JONATHAN,,MARTIN,,JONATHAN MARTIN,,CINCINNATI SYMPHONY ORCHESTRA,,,,1241 ELM ST,CINCINNATI,OH,45202-7531,
,,,,,,,,,,,,,,
CAROL,DARY,DUNEVANT,,CAROL DARY DUNEVANT,,CINCINNATI SYMPHONY ORCHESTRA,,,,1241 ELM ST,CINCINNATI,OH,45202-7531,
,,,,,,,,,,,,,,
MARISSA,CORINNE,GOODMAN,,MARISSA CORINNE GOODMAN,,CINCINNATI SYMPHONY ORCHESTRA,,,,1241 ELM ST,CINCINNATI,OH,45202-7531,
,,,,,,,,,,,,,,
NATE,,BACHHUBER,,NATE BACHHUBER,,CINCINNATI SYMPHONY ORCHESTRA,,,,1241 ELM ST,CINCINNATI,OH,45202-7531,
,,,,,,,,,,,,,,
DWIGHT,,OLTMAN,,DWIGHT OLTMAN,,CLEVELAND CHAMBER SYMPHONY,,,,11125 MAGNOLIA DR,CLEVELAND,OH,44106-1813,
,,,,,,,,,,,,,,
EDWIN,,LONDON,,EDWIN LONDON,,CLEVELAND CHAMBER SYMPHONY,,,,11125 MAGNOLIA DR,CLEVELAND,OH,44106-1813,
,,,,,,,,,,,,,,
RICHARD,,RINEHART,,RICHARD RINEHART,,CLEVELAND CHAMBER SYMPHONY,,,,11125 MAGNOLIA DR,CLEVELAND,OH,44106-1813,
,,,,,,,,,,,,,,
STEVEN,C.,SMITH,,STEVEN C. SMITH,,CLEVELAND CHAMBER SYMPHONY,,,,11125 MAGNOLIA DR,CLEVELAND,OH,44106-1813,
,,,,,,,,,,,,,,
ANTHONY,,PIERCE,,ANTHONY PIERCE,,COLORADO SYMPHONY,,,,1000 14TH ST UNIT 15,DENVER,CO,80202-2333,
,,,,,,,,,,,,,,
JESSEE,,MARTINEZ,,JESSEE MARTINEZ,,COLORADO SYMPHONY,,,,1000 14TH ST UNIT 15,DENVER,CO,80202-2333,
,,,,,,,,,,,,,,
VICTORIA,N.,ALANIZ,,VICTORIA N. ALANIZ,,CORPUS CHRISTI SYMPHONY ORCHESTRA,,,,PO BOX 495,CORP CHRISTI,TX,78403-0495,
,,,,,,,,,,,,,,
NEAL,,GITTLEMAN,,NEAL GITTLEMAN,,DAYTON PHILHARMONIC ORCHESTRA,,,,126 N MAIN ST STE 210,DAYTON,OH,45402-1766,
,,,,,,,,,,,,,,
RUTH,,REVEAL,,RUTH REVEAL,,DAYTON PHILHARMONIC ORCHESTRA,,,,126 N MAIN ST STE 210,DAYTON,OH,45402-1766,
,,,,,,,,,,,,,,
PATRICK,,NUGENT,,PATRICK NUGENT,,DAYTON PHILHARMONIC ORCHESTRA,,,,126 N MAIN ST STE 210,DAYTON,OH,45402-1766,
,,,,,,,,,,,,,,
THOMAS,L.,STEPHENS,,THOMAS L. STEPHENS,,GARDEN STATE PHILHARMONIC,,,1 COLLEGE DRIVE,PO BOX 2001,TOMS RIVER,NJ,08754-2001,
,,,,,,,,,,,,,,
PETER,,ZLOTNICK,,PETER ZLOTNICK,,GREENSBORO SYMPHONY ORCHESTRA,,,,200 N DAVIE ST STE 10,GREENSBORO,NC,27401-2865,
,,,,,,,,,,,,,,
ALAN,D.,VALENTINE,,ALAN D. VALENTINE,,NASHVILLE SYMPHONY,,,,1 SYMPHONY PL,NASHVILLE,TN,37201-2031,
,,,,,,,,,,,,,,
KIMBERLY,KRAFT,MCLEMORE,,KIMBERLY KRAFT MCLEMORE,,NASHVILLE SYMPHONY,,,,1 SYMPHONY PL,NASHVILLE,TN,37201-2031,
,,,,,,,,,,,,,,
KELLEY,,BELL,,KELLEY BELL,,NASHVILLE SYMPHONY,,,,1 SYMPHONY PL,NASHVILLE,TN,37201-2031,
,,,,,,,,,,,,,,
JESSICA,L.,SLAIS,,JESSICA L. SLAIS,,NASHVILLE SYMPHONY,,,,1 SYMPHONY PL,NASHVILLE,TN,37201-2031,
,,,,,,,,,,,,,,
ADAM,,LESNICK,,ADAM LESNICK,,ORCHESTRA 2001,,,,PO BOX 7211,PHILADELPHIA,PA,19101-7211,
,,,,,,,,,,,,,,
MYRON,,MCREYNOLDS,,MYRON MCREYNOLDS,,ORCHESTRA IOWA,,,,119 3RD AVE SE,CEDAR RAPIDS,IA,52401-1403,
,,,,,,,,,,,,,,
ANDREW,,KIPE,,ANDREW KIPE,,PEABODY SYMPHONY ORCHESTRA,,,,1 E MOUNT VERNON PL,BALTIMORE,MD,21202-2308,
,,,,,,,,,,,,,,
SUZANNE,,PERRINO,,SUZANNE PERRINO,,PITTSBURGH SYMPHONY ORCHESTRA,,,,600 PENN AVE STE 1,PITTSBURGH,PA,15222-3209,
,,,,,,,,,,,,,,
ALECIA,,LAWYER,,ALECIA LAWYER,,RIVER OAKS CHAMBER ORCHESTRA,,,,1934 W GRAY ST STE 311,HOUSTON,TX,77019-4806,
,,,,,,,,,,,,,,
MARGO,,STEDMAN,,MARGO STEDMAN,,ROCKFORD SYMPHONY ORCHESTRA,,,,711 N MAIN ST,ROCKFORD,IL,61103-6982,
,,,,,,,,,,,,,,
DANIEL,,BARTHOLOMEW-POYSER,,DANIEL BARTHOLOMEW-POYSER,,SAN FRANCISCO SYMPHONY,,,,201 VAN NESS AVE,SAN FRANCISCO,CA,94102-4585,
,,,,,,,,,,,,,,
RON,,GALLMAN,,RON GALLMAN,,SAN FRANCISCO SYMPHONY,,,,201 VAN NESS AVE,SAN FRANCISCO,CA,94102-4585,
,,,,,,,,,,,,,,
REBECCA,,BLUM,,REBECCA BLUM,,SAN FRANCISCO SYMPHONY,,,,201 VAN NESS AVE,SAN FRANCISCO,CA,94102-4585,
,,,,,,,,,,,,,,
PHILLIPPA,,COLE,,PHILLIPPA COLE,,SAN FRANCISCO SYMPHONY,,,,201 VAN NESS AVE,SAN FRANCISCO,CA,94102-4585,
,,,,,,,,,,,,,,
JEFFREY,,JORDAN,,JEFFREY JORDAN,,SAN FRANCISCO SYMPHONY,,,,201 VAN NESS AVE,SAN FRANCISCO,CA,94102-4585,
,,,,,,,,,,,,,,
STEPHANIE,,CHILDRESS,,STEPHANIE CHILDRESS,,ST. LOUIS SYMPHONY ORCHESTRA,,,,718 N GRAND BLVD,SAINT LOUIS,MO,63103-1011,
,,,,,,,,,,,,,,
JESSICA,VITA,INGRAHAM,,JESSICA VITA INGRAHAM,,ST. LOUIS SYMPHONY ORCHESTRA,,,,718 N GRAND BLVD,SAINT LOUIS,MO,63103-1011,
,,,,,,,,,,,,,,
MAUREEN,,BYRNE,,MAUREEN BYRNE,,ST. LOUIS SYMPHONY ORCHESTRA,,,,718 N GRAND BLVD,SAINT LOUIS,MO,63103-1011,
,,,,,,,,,,,,,,
ERIK,,FINLEY,,ERIK FINLEY,,ST. LOUIS SYMPHONY ORCHESTRA,,,,718 N GRAND BLVD,SAINT LOUIS,MO,63103-1011,
,,,,,,,,,,,,,,
TOM,,STIRLING,,TOM STIRLING,,SYMPHONY OF THE LAKES,,,,2515 E CENTER ST,WARSAW,IN,46580-3819,
,,,,,,,,,,,,,,
JOAN,KATZ,NAPOLI,,JOAN KATZ NAPOLI,,THE CLEVELAND ORCHESTRA,,,,11001 EUCLID AVE,CLEVELAND,OH,44106-1796,
,,,,,,,,,,,,,,
AUSTIN,,LAND,,AUSTIN LAND,,THE CLEVELAND ORCHESTRA,,,,11001 EUCLID AVE,CLEVELAND,OH,44106-1796,
,,,,,,,,,,,,,,
SANDRA,,JONES,,SANDRA JONES,,THE CLEVELAND ORCHESTRA,,,,11001 EUCLID AVE,CLEVELAND,OH,44106-1796,
,,,,,,,,,,,,,,
ILYA,,GIDALEVICH,,ILYA GIDALEVICH,,THE CLEVELAND ORCHESTRA,,,,11001 EUCLID AVE,CLEVELAND,OH,44106-1796,
,,,,,,,,,,,,,,
MARK,,WILLIAMS,,MARK WILLIAMS,,THE CLEVELAND ORCHESTRA,,,,11001 EUCLID AVE,CLEVELAND,OH,44106-1796,
,,,,,,,,,,,,,,
JON,E.,LIMBACHER,,JON E. LIMBACHER,,THE SAINT PAUL CHAMBER ORCHESTRA,,,,408 SAINT PETER ST STE 300,SAINT PAUL,MN,55102-1497,
,,,,,,,,,,,,,,
ERIN,,JUDE,,ERIN JUDE,,THE SAINT PAUL CHAMBER ORCHESTRA,,,,408 SAINT PETER ST STE 300,SAINT PAUL,MN,55102-1497,
,,,,,,,,,,,,,,
PAUL,,FINKELSTEIN,,PAUL FINKELSTEIN,,THE SAINT PAUL CHAMBER ORCHESTRA,,,,408 SAINT PETER ST STE 300,SAINT PAUL,MN,55102-1497,
,,,,,,,,,,,,,,
KYU-YOUNG,,KIM,,KYU-YOUNG KIM,,THE SAINT PAUL CHAMBER ORCHESTRA,,,,408 SAINT PETER ST STE 300,SAINT PAUL,MN,55102-1497,
,,,,,,,,,,,,,,
CHELSIE,,THOMPSON,,CHELSIE THOMPSON,,MANSFIELD SYMPHONY ORCHESTRA,,,,138 PARK AVE W,MANSFIELD,OH,44902-1607,
,,,,,,,,,,,,,,
OCTAVIO,,MS-AROCAS,,OCTAVIO MS-AROCAS,,MANSFIELD SYMPHONY ORCHESTRA,,,,138 PARK AVE W,MANSFIELD,OH,44902-1607,
,,,,,,,,,,,,,,
ANDREW,,HAY,,ANDREW HAY,,AMARILLO SYMPHONY,,,,301 S POLK ST STE 700,AMARILLO,TX,79101-1418,
,,,,,,,,,,,,,,
JILL,,BRADFORD,,JILL BRADFORD,,AMARILLO SYMPHONY,,,,301 S POLK ST STE 700,AMARILLO,TX,79101-1418,
,,,,,,,,,,,,,,
JACOMO,RAFAEL,BAIROS,,JACOMO RAFAEL BAIROS,,AMARILLO SYMPHONY,,,,301 S POLK ST STE 700,AMARILLO,TX,79101-1418,
,,,,,,,,,,,,,,
IRMA-ESTHER,,BORUP,,IRMA-ESTHER BORUP,,AMARILLO SYMPHONY,,,,301 S POLK ST STE 700,AMARILLO,TX,79101-1418,
,,,,,,,,,,,,,,
EMILY,,PARIS-MARTIN,,EMILY PARIS-MARTIN,,BOZEMAN SYMPHONY SOCIETY,,,,402 E MAIN ST STE 202,BOZEMAN,MT,59715-4763,
,,,,,,,,,,,,,,
NORMAN,,HUYNH,,NORMAN HUYNH,,BOZEMAN SYMPHONY SOCIETY,,,,402 E MAIN ST STE 202,BOZEMAN,MT,59715-4763,
,,,,,,,,,,,,,,
TERELL,,JOHNSON,,TERELL JOHNSON,,CHICAGO PHILHARMONIC,,,,226 S WABASH AVE STE 1000,CHICAGO,IL,60604-2386,
,,,,,,,,,,,,,,
NATHANIEL,,DAVIS,,NATHANIEL DAVIS,,CHICAGO PHILHARMONIC,,,,226 S WABASH AVE STE 1000,CHICAGO,IL,60604-2386,
,,,,,,,,,,,,,,
TREVOR,,ORTHMANN,,TREVOR ORTHMANN,,ILLINOIS SYMPHONY ORCHESTRA,,,,501 W ELLIOTT AVE,SPRINGFIELD,IL,62702-3714,
,,,,,,,,,,,,,,
JAMES,,BLACHLY,,JAMES BLACHLY,,JOHNSTOWN SYMPHONY ORCHESTRA,,,,416 MAIN ST STE 202,JOHNSTOWN,PA,15901-1828,
,,,,,,,,,,,,,,
JESSICA,,SATAVA,,JESSICA SATAVA,,JOHNSTOWN SYMPHONY ORCHESTRA,,,,416 MAIN ST STE 202,JOHNSTOWN,PA,15901-1828,
,,,,,,,,,,,,,,
BRIDGET,E.,BRAZEAU,,BRIDGET E. BRAZEAU,,LONGWOOD SYMPHONY ORCHESTRA,,,,35 WEBSTER ST,WEST NEWTON,MA,02465-1856,
,,,,,,,,,,,,,,
DAWN,,HARMS,,DAWN HARMS,,NEW CENTURY CHAMBER ORCHESTRA,,,,22 BATTERY ST STE 500,SAN FRANCISCO,CA,94111-5518,
,,,,,,,,,,,,,,
DAVID,,TAYLOR,,DAVID TAYLOR,,NEW CENTURY CHAMBER ORCHESTRA,,,,22 BATTERY ST STE 500,SAN FRANCISCO,CA,94111-5518,
,,,,,,,,,,,,,,
CAROLYN,,NISHON,,CAROLYN NISHON,,PORTLAND SYMPHONY ORCHESTRA,,,,85 EXCHANGE ST FL 4,PORTLAND,ME,04101-5036,
,,,,,,,,,,,,,,
JOHN,,ELLIOTT,,JOHN ELLIOTT,,PORTLAND SYMPHONY ORCHESTRA,,,,85 EXCHANGE ST FL 4,PORTLAND,ME,04101-5036,
,,,,,,,,,,,,,,
EVA,,TARTAGLIA,,EVA TARTAGLIA,,PORTLAND SYMPHONY ORCHESTRA,,,,85 EXCHANGE ST FL 4,PORTLAND,ME,04101-5036,
,,,,,,,,,,,,,,
MICHELLE,,ROFRANO,,MICHELLE ROFRANO,,PROTESTRA,,,,100 WARREN ST APT 802,JERSEY CITY,NJ,07302-6414,
,,,,,,,,,,,,,,
HEIDI,,STUBNER,,HEIDI STUBNER,,WATERBURY SYMPHONY ORCHESTRA,,,,PO BOX 539,WATERTOWN,CT,06795-0539,
,,,,,,,,,,,,,,
LEIF,,BJALAND,,LEIF BJALAND,,WATERBURY SYMPHONY ORCHESTRA,,,,PO BOX 539,WATERTOWN,CT,06795-0539,
,,,,,,,,,,,,,,
CATHY,,CIRESI,,CATHY CIRESI,,WATERBURY SYMPHONY ORCHESTRA,,,,PO BOX 539,WATERTOWN,CT,06795-0539,
,,,,,,,,,,,,,,
E.,MERRITT,VALE,,E. MERRITT VALE,,WINSTON-SALEM SYMPHONY,,,,301 N MAIN ST STE 1901,WINSTON SALEM,NC,27101-3836,
,,,,,,,,,,,,,,
TIMOTHY,,REDMOND,,TIMOTHY REDMOND,,WINSTON-SALEM SYMPHONY,,,,301 N MAIN ST STE 1901,WINSTON SALEM,NC,27101-3836,
,,,,,,,,,,,,,,
RACHEL,,WATSON,,RACHEL WATSON,,WINSTON-SALEM SYMPHONY,,,,301 N MAIN ST STE 1901,WINSTON SALEM,NC,27101-3836,
,,,,,,,,,,,,,,
CHRISTOPHER,,GILLIAM,,CHRISTOPHER GILLIAM,,WINSTON-SALEM SYMPHONY,,,,301 N MAIN ST STE 1901,WINSTON SALEM,NC,27101-3836,
,,,,,,,,,,,,,,
DANA,P.,BAKER,,DANA P. BAKER,,ACADIANA SYMPHONY ORCHESTRA,,,,412 TRAVIS ST STE A,LAFAYETTE,LA,70503-2432,
,,,,,,,,,,,,,,
MARIUSZ,,SMOLIJ,,MARIUSZ SMOLIJ,,ACADIANA SYMPHONY ORCHESTRA,,,,412 TRAVIS ST STE A,LAFAYETTE,LA,70503-2432,
,,,,,,,,,,,,,,
BRUCE,,KIESLING,,BRUCE KIESLING,,ADRIAN SYMPHONY ORCHESTRA,,,,110 S MADISON ST,ADRIAN,MI,49221-2518,
,,,,,,,,,,,,,,
LIBBY,,WATSON,,LIBBY WATSON,,ADRIAN SYMPHONY ORCHESTRA,,,,110 S MADISON ST,ADRIAN,MI,49221-2518,
,,,,,,,,,,,,,,
DEEDEE,HARDEE,VAUGHTERS,,DEEDEE HARDEE VAUGHTERS,,AIKEN SYMPHONY ORCHESTRA,,,,262 EASTGATE DR PMB 440,AIKEN,SC,29803-7698,
,,,,,,,,,,,,,,
PAUL,,JARRETT,,PAUL JARRETT,,AKRON SYMPHONY ORCHESTRA,,,,92 N MAIN ST,AKRON,OH,44308-1946,
,,,,,,,,,,,,,,
JONATHON,,TURNER,,JONATHON TURNER,,AKRON SYMPHONY ORCHESTRA,,,,92 N MAIN ST,AKRON,OH,44308-1946,
,,,,,,,,,,,,,,
BRENDA,,JUSTICE,,BRENDA JUSTICE,,AKRON SYMPHONY ORCHESTRA,,,,92 N MAIN ST,AKRON,OH,44308-1946,
,,,,,,,,,,,,,,
MARK,,PATRICK,,MARK PATRICK,,ALABAMA SYMPHONY ORCHESTRA,,,,3621 6TH AVE S,BIRMINGHAM,AL,35222-2407,
,,,,,,,,,,,,,,
CARLOS,,IZCARAY,,CARLOS IZCARAY,,ALABAMA SYMPHONY ORCHESTRA,,,,3621 6TH AVE S,BIRMINGHAM,AL,35222-2407,
,,,,,,,,,,,,,,
MARIA,,WILSON,,MARIA WILSON,,ALABAMA SYMPHONY ORCHESTRA,,,,3621 6TH AVE S,BIRMINGHAM,AL,35222-2407,
,,,,,,,,,,,,,,
SETH,,NOBLE,,SETH NOBLE,,ALABAMA SYMPHONY ORCHESTRA,,,,3621 6TH AVE S,BIRMINGHAM,AL,35222-2407,
,,,,,,,,,,,,,,
ANNA,,KUWABARA,,ANNA KUWABARA,,ALBANY SYMPHONY,,,,19 CLINTON AVE STE 1,ALBANY,NY,12207-2211,
,,,,,,,,,,,,,,
DAVID,ALAN,MILLER,,DAVID ALAN MILLER,,ALBANY SYMPHONY,,,,19 CLINTON AVE STE 1,ALBANY,NY,12207-2211,
,,,,,,,,,,,,,,
JENAE,,GAYLE,,JENAE GAYLE,,ALBANY SYMPHONY,,,,19 CLINTON AVE STE 1,ALBANY,NY,12207-2211,
,,,,,,,,,,,,,,
LEEANNA,P.,ANGLIN,,LEEANNA P. ANGLIN,,ALBANY SYMPHONY ORCHESTRA,,,,PO BOX 70065,ALBANY,GA,31708-0065,
,,,,,,,,,,,,,,
CLAIRE,FOX,HILLARD,,CLAIRE FOX HILLARD,,ALBANY SYMPHONY ORCHESTRA,,,,PO BOX 70065,ALBANY,GA,31708-0065,
,,,,,,,,,,,,,,
JAMES,,ROSS,,JAMES ROSS,,ALEXANDRIA SYMPHONY ORCHESTRA,,,,700 N FAIRFAX ST STE 501,ALEXANDRIA,VA,22314-2090,
,,,,,,,,,,,,,,
RYAN,,JORDAN,,RYAN JORDAN,,ALEXANDRIA SYMPHONY ORCHESTRA,,,,700 N FAIRFAX ST STE 501,ALEXANDRIA,VA,22314-2090,
,,,,,,,,,,,,,,
ALFRED,O.,JACOBSEN,,ALFRED O. JACOBSEN,,ALLENTOWN SYMPHONY ORCHESTRA,,,,23 N 6TH ST,ALLENTOWN,PA,18101-1431,
,,,,,,,,,,,,,,
DIANE,,WITTRY,,DIANE WITTRY,,ALLENTOWN SYMPHONY ORCHESTRA,,,,23 N 6TH ST,ALLENTOWN,PA,18101-1431,
,,,,,,,,,,,,,,
NORMA,,NUNEZ-RUCH,,NORMA NUNEZ-RUCH,,ALLENTOWN SYMPHONY ORCHESTRA,,,,23 N 6TH ST,ALLENTOWN,PA,18101-1431,
,,,,,,,,,,,,,,
STEPHANIE,,KOCHER,,STEPHANIE KOCHER,,ALLENTOWN SYMPHONY ORCHESTRA,,,,287 BLENHEIM DR,EASTON,PA,18045-5721,
,,,,,,,,,,,,,,
MELISSA,,NGAN,,MELISSA NGAN,,AMERICAN COMPOSERS ORCHESTRA,,,,494 8TH AVE STE 503,NEW YORK,NY,10001-2519,
,,,,,,,,,,,,,,
KEVIN,,JAMES,,KEVIN JAMES,,AMERICAN COMPOSERS ORCHESTRA,,,,494 8TH AVE STE 503,NEW YORK,NY,10001-2519,
,,,,,,,,,,,,,,
DEREK,,BERMEL,,DEREK BERMEL,,AMERICAN COMPOSERS ORCHESTRA,,,,494 8TH AVE STE 503,NEW YORK,NY,10001-2519,
,,,,,,,,,,,,,,
SHERRI,BURKHART,REDDICK,,SHERRI BURKHART REDDICK,,ANCHORAGE SYMPHONY ORCHESTRA,,,,400 D ST STE 230,ANCHORAGE,AK,99501-2342,
,,,,,,,,,,,,,,
RICHARD,L.,SOWERS,,RICHARD L. SOWERS,,ANDERSON SYMPHONY ORCHESTRA,,,,1124 MERIDIAN ST STE 741741 741,ANDERSON,IN,46016-1713,
,,,,,,,,,,,,,,
TYLER,,RAND,,TYLER RAND,,ANN ARBOR SYMPHONY ORCHESTRA,,,,35 RESEARCH DR STE 100,ANN ARBOR,MI,48103-2981,
,,,,,,,,,,,,,,
MARSHALL,,MENTZ,,MARSHALL MENTZ,,ANNAPOLIS SYMPHONY ORCHESTRA,,,,801 CHASE ST STE 204,ANNAPOLIS,MD,21401-3530,
,,,,,,,,,,,,,,
JOS-LUIS,,NOVO,,JOS-LUIS NOVO,,ANNAPOLIS SYMPHONY ORCHESTRA,,,,801 CHASE ST STE 204,ANNAPOLIS,MD,21401-3530,
,,,,,,,,,,,,,,
CORINNE,,DENNY,,CORINNE DENNY,,ARAPAHOE PHILHARMONIC,,,,5753 S PRINCE ST UNIT 1183,LITTLETON,CO,80120-1927,
,,,,,,,,,,,,,,
DEVIN,PATRICK,HUGHES,,DEVIN PATRICK HUGHES,,ARAPAHOE PHILHARMONIC,,,,5753 S PRINCE ST UNIT 1183,LITTLETON,CO,80120-1927,
,,,,,,,,,,,,,,
KATHERINE,,WILLIAMSON,,KATHERINE WILLIAMSON,,ARKANSAS SYMPHONY ORCHESTRA,,,,2005 S STATE ST,LITTLE ROCK,AR,72206-1322,
,,,,,,,,,,,,,,
CHRISTINA,,LITTLEJOHN,,CHRISTINA LITTLEJOHN,,ARKANSAS SYMPHONY ORCHESTRA,,,,PO BOX 7328,LITTLE ROCK,AR,72217-7328,
,,,,,,,,,,,,,,
BARBARA,,BURROUGHS,,BARBARA BURROUGHS,,ARKANSAS SYMPHONY ORCHESTRA,,,,PO BOX 7328,LITTLE ROCK,AR,72217-7328,
,,,,,,,,,,,,,,
KATHLEEN,M.,VAN BERGEN,,KATHLEEN M. VAN BERGEN,,ARTIS- NAPLES,,,,5833 PELICAN BAY BLVD,NAPLES,FL,34108-2740,
,,,,,,,,,,,,,,
ANDREY,,BOREYKO,,ANDREY BOREYKO,,ARTISNAPLES,,,,5833 PELICAN BAY BLVD,NAPLES,FL,34108-2740,
,,,,,,,,,,,,,,
BONNIE,,THAYER,,BONNIE THAYER,,ARTISNAPLES,,,,5833 PELICAN BAY BLVD,NAPLES,FL,34108-2740,
,,,,,,,,,,,,,,
DAVID,H.,FILNER,,DAVID H. FILNER,,ARTISNAPLES,,,,5833 PELICAN BAY BLVD,NAPLES,FL,34108-2740,
,,,,,,,,,,,,,,
JASON,HOWELL,SMITH,,JASON HOWELL SMITH,,ARTOSPHERE FESTIVAL ORCHESTRA,,,WALTON ARTS CENTER,PO BOX 3547,FAYETTEVILLE,AR,72702-3547,
,,,,,,,,,,,,,,
DANIEL,,CRUPI,,DANIEL CRUPI,,ASHEVILLE SYMPHONY,,,,27 COLLEGE PL STE 100,ASHEVILLE,NC,28801-2784,
,,,,,,,,,,,,,,
EMILY,,SCHAAD,,EMILY SCHAAD,,ASHEVILLE SYMPHONY,,,,27 COLLEGE PL STE 100,ASHEVILLE,NC,28801-2784,
,,,,,,,,,,,,,,
LEIGH,,DIXSON,,LEIGH DIXSON,,ASHEVILLE SYMPHONY,,,,27 COLLEGE PL STE 100,ASHEVILLE,NC,28801-2784,
,,,,,,,,,,,,,,
MARTHA,,BUCKNER,,MARTHA BUCKNER,,ASHLAND SYMPHONY ORCHESTRA,,,,401 COLLEGE AVE,ASHLAND,OH,44805-3702,
,,,,,,,,,,,,,,
ALAN,,FLETCHER,,ALAN FLETCHER,,ASPEN MUSIC FESTIVAL AND SCHOOL,,,,225 MUSIC SCHOOL RD,ASPEN,CO,81611-8501,
,,,,,,,,,,,,,,
KATIE,HONE,WILTGEN,,KATIE HONE WILTGEN,,ASPEN MUSIC FESTIVAL AND SCHOOL,,,,225 MUSIC SCHOOL RD,ASPEN,CO,81611-8501,
,,,,,,,,,,,,,,
ASADOUR,A.,SANTOURIAN,,ASADOUR A. SANTOURIAN,,ASPEN MUSIC FESTIVAL AND SCHOOL,,,,225 MUSIC SCHOOL RD,ASPEN,CO,81611-8501,
,,,,,,,,,,,,,,
CAMERON,,MASSEY,,CAMERON MASSEY,,ASPEN MUSIC FESTIVAL AND SCHOOL,,,,7520 BUNKER CT,BENBROOK,TX,76126-4615,
,,,,,,,,,,,,,,
JENNIFER,B.,BARLAMENT,,JENNIFER B. BARLAMENT,,ATLANTA SYMPHONY ORCHESTRA,,,,1280 PEACHTREE ST NE STE 4074,ATLANTA,GA,30309-3502,
,,,,,,,,,,,,,,
JERRY,,HOU,,JERRY HOU,,ATLANTA SYMPHONY ORCHESTRA,,,,1280 PEACHTREE ST NE STE 4074,ATLANTA,GA,30309-3502,
,,,,,,,,,,,,,,
SARAH,,GRANT,,SARAH GRANT,,ATLANTA SYMPHONY ORCHESTRA,,,,1280 PEACHTREE ST NE STE 4074,ATLANTA,GA,30309-3502,
,,,,,,,,,,,,,,
BRIAN,,STANLEY,,BRIAN STANLEY,,ATLANTIC CLASSICAL ORCHESTRA,,,,415 AVENUE A STE 206,FORT PIERCE,FL,34950-4260,
,,,,,,,,,,,,,,
RACHEL,,PERRY,,RACHEL PERRY,,AUBURN SYMPHONY ORCHESTRA,,,,PO BOX 2186,AUBURN,WA,98071-2186,
,,,,,,,,,,,,,,
WESLEY,,SCHULZ,,WESLEY SCHULZ,,AUBURN SYMPHONY ORCHESTRA,,,,PO BOX 2186,AUBURN,WA,98071-2186,
,,,,,,,,,,,,,,
BARBARA,,GLASER,,BARBARA GLASER,,AUCKLAND PHILHARMONIA ORCHESTRA,,,,P.O. BOX 7083 WELLESLEY STREET,WESTMINSTER,MA,01441-0001,
,,,,,,,,,,,,,,
DAVID,,PRATT,,DAVID PRATT,,AUSTIN SYMPHONY ORCHESTRA,,,,1806 RIO GRANDE ST,AUSTIN,TX,78701-1126,
,,,,,,,,,,,,,,
PETER,,BAY,,PETER BAY,,AUSTIN SYMPHONY ORCHESTRA,,,,1806 RIO GRANDE ST,AUSTIN,TX,78701-1126,
,,,,,,,,,,,,,,
SUSAN,,MIVILLE,,SUSAN MIVILLE,,AUSTIN SYMPHONY ORCHESTRA,,,,1806 RIO GRANDE ST,AUSTIN,TX,78701-1126,
,,,,,,,,,,,,,,
STEPHEN,JOHN,RAMSEY,,STEPHEN JOHN RAMSEY,,AUSTIN SYMPHONY ORCHESTRA,,,,2110 7TH AVE SW,AUSTIN,MN,55912-1529,
,,,,,,,,,,,,,,
MARIO,ALEJANDRO,TORRES,,MARIO ALEJANDRO TORRES,,BAINBRIDGE SYMPHONY ORCHESTRA,,,,710 JOHN NELSON DR NE,BAINBRIDGE IS,WA,98110-2662,
,,,,,,,,,,,,,,
HOLLY,,ARNOLD,,HOLLY ARNOLD,,BAKERSFIELD SYMPHONY ORCHESTRA,,,,PO BOX 751,BAKERSFIELD,CA,93302-0751,
,,,,,,,,,,,,,,
KENDRA,,GREEN,,KENDRA GREEN,,BAKERSFIELD SYMPHONY ORCHESTRA,,,,PO BOX 751,BAKERSFIELD,CA,93302-0751,
,,,,,,,,,,,,,,
LOCKWOOD,,HOEHL,,LOCKWOOD HOEHL,,BALTIMORE CHAMBER ORCHESTRA,,,,11 W MOUNT VERNON PL,BALTIMORE,MD,21201-5103,
,,,,,,,,,,,,,,
MARKAND,,THAKAR,,MARKAND THAKAR,,BALTIMORE CHAMBER ORCHESTRA,,,,11 W MOUNT VERNON PL,BALTIMORE,MD,21201-5103,
,,,,,,,,,,,,,,
MARIA,,VERES,,MARIA VERES,,"BALTIMORE SYMPHONY ORCHESTRA, INC.",,,,1212 CATHEDRAL ST STE 1,BALTIMORE,MD,21201-5556,
,,,,,,,,,,,,,,
BRIAN,,HINRICHS,,BRIAN HINRICHS,,BANGOR SYMPHONY ORCHESTRA,,,,PO BOX 1441,BANGOR,ME,04402-1441,
,,,,,,,,,,,,,,
LUCAS,,RICHMAN,,LUCAS RICHMAN,,BANGOR SYMPHONY ORCHESTRA,,,,PO BOX 1441,BANGOR,ME,04402-1441,
,,,,,,,,,,,,,,
TROND,,SAEVERUD,,TROND SAEVERUD,,BANGOR SYMPHONY ORCHESTRA,,,,PO BOX 1441,BANGOR,ME,04402-1441,
,,,,,,,,,,,,,,
ANGELA,,CARTER,,ANGELA CARTER,,BARTLESVILLE SYMPHONY ORCHESTRA,,,,PO BOX 263,BARTLESVILLE,OK,74005-0263,
,,,,,,,,,,,,,,
LAUREN,,GREEN,,LAUREN GREEN,,BARTLESVILLE SYMPHONY ORCHESTRA,,,,PO BOX 263,BARTLESVILLE,OK,74005-0263,
,,,,,,,,,,,,,,
ERIC,,MARSHALL,,ERIC MARSHALL,,BATON ROUGE SYMPHONY,,,,233 SAINT FERDINAND ST,BATON ROUGE,LA,70802-5818,
,,,,,,,,,,,,,,
JAMES,,PAUL,,JAMES PAUL,,BATON ROUGE SYMPHONY,,,,233 SAINT FERDINAND ST,BATON ROUGE,LA,70802-5818,
,,,,,,,,,,,,,,
TAYLOR,,HOLLYER,,TAYLOR HOLLYER,,BATON ROUGE SYMPHONY,,,,233 SAINT FERDINAND ST,BATON ROUGE,LA,70802-5818,
,,,,,,,,,,,,,,
BRIAN,,MCPEAK,,BRIAN MCPEAK,,BAY ATLANTIC SYMPHONY,,,,1616 PACIFIC AVE STE 308,ATLANTIC CITY,NJ,08401-6916,
,,,,,,,,,,,,,,
JED,,GAYLIN,,JED GAYLIN,,BAY ATLANTIC SYMPHONY,,,,1616 PACIFIC AVE STE 308,ATLANTIC CITY,NJ,08401-6916,
,,,,,,,,,,,,,,
TRAVIS,R.,HATTON,,TRAVIS R. HATTON,,BEAVERTON SYMPHONY ORCHESTRA,,,,PO BOX 1057,BEAVERTON,OR,97075-1057,
,,,,,,,,,,,,,,
GAIL,,RIDENOUR,,GAIL RIDENOUR,,BELLINGHAM SYMPHONY ORCHESTRA,,,,PO BOX 5892,BELLINGHAM,WA,98227-5892,
,,,,,,,,,,,,,,
YANIV,,ATTAR,,YANIV ATTAR,,BELLINGHAM SYMPHONY ORCHESTRA,,,,PO BOX 5892,BELLINGHAM,WA,98227-5892,
,,,,,,,,,,,,,,
JIM,,TIBBS,,JIM TIBBS,,BERKELEY SYMPHONY ORCHESTRA,,,,1919 ADDISON ST STE 104,BERKELEY,CA,94704-1142,
,,,,,,,,,,,,,,
JOSEPH,,YOUNG,,JOSEPH YOUNG,,BERKELEY SYMPHONY ORCHESTRA,,,,1919 ADDISON ST STE 104,BERKELEY,CA,94704-1142,
,,,,,,,,,,,,,,
REN,,MANDEL,,REN MANDEL,,BERKELEY SYMPHONY ORCHESTRA,,,,1919 ADDISON ST STE 104,BERKELEY,CA,94704-1142,
,,,,,,,,,,,,,,
MING,,LUKE,,MING LUKE,,BERKELEY SYMPHONY ORCHESTRA,,,,6350 CHRISTIE AVE APT 425,EMERYVILLE,CA,94608-2289,
,,,,,,,,,,,,,,
ANNE,E.,HARRIGAN,,ANNE E. HARRIGAN,,BILLINGS SYMPHONY ORCHESTRA & CHORALE,,,,2820 2ND AVE N,BILLINGS,MT,59101-2037,
,,,,,,,,,,,,,,
IGNACIO,BARRON,VIELA,,IGNACIO BARRON VIELA,,BILLINGS SYMPHONY ORCHESTRA & CHORALE,,,,2820 2ND AVE N,BILLINGS,MT,59101-2037,
,,,,,,,,,,,,,,
MELON,,WEDICK,,MELON WEDICK,,BLUE RIDGE ORCHESTRA,,,,PO BOX 256,ASHEVILLE,NC,28802-0256,
,,,,,,,,,,,,,,
DEB,,KENNEY,,DEB KENNEY,,BLUE RIDGE ORCHESTRA,,,,PO BOX 256,ASHEVILLE,NC,28802-0256,
,,,,,,,,,,,,,,
MILTON,,CROTTS,,MILTON CROTTS,,BLUE RIDGE ORCHESTRA,,,,PO BOX 256,ASHEVILLE,NC,28802-0256,
,,,,,,,,,,,,,,
LAURA,,REYNOLDS,,LAURA REYNOLDS,,"BOISE PHILHARMONIC ASSOCIATION, INC.",,,,516 S 9TH ST STE C,BOISE,ID,83702-7164,
,,,,,,,,,,,,,,
ERIC,,GARCIA,,ERIC GARCIA,,"BOISE PHILHARMONIC ASSOCIATION, INC.",,,,516 S 9TH ST STE C,BOISE,ID,83702-7164,
,,,,,,,,,,,,,,
MARTIN,,PEARLMAN,,MARTIN PEARLMAN,,BOSTON BAROQUE,,,,177 HUNTINGTON AVE STE 17,BOSTON,MA,02115-3156,
,,,,,,,,,,,,,,
MICHELE,,MORTENSEN,,MICHELE MORTENSEN,,BOSTON CIVIC SYMPHONY,,,,PO BOX 1082,BROOKLINE,MA,02446-0009,
,,,,,,,,,,,,,,
ARTHUR,,RISHI,,ARTHUR RISHI,,BOSTON LANDMARKS ORCHESTRA,,,,PO BOX 441160,W SOMERVILLE,MA,02144-0031,
,,,,,,,,,,,,,,
CHRISTOPHER,,WILKINS,,CHRISTOPHER WILKINS,,BOSTON LANDMARKS ORCHESTRA,,,,PO BOX 441160,W SOMERVILLE,MA,02144-0031,
,,,,,,,,,,,,,,
SISSIE,SIU,COHEN,,SISSIE SIU COHEN,,BOSTON MODERN ORCHESTRA PROJECT,,,,376 WASHINGTON ST STE 101,MALDEN,MA,02148-1371,
,,,,,,,,,,,,,,
ELISABETH,,CHRISTENSEN,,ELISABETH CHRISTENSEN,,BOSTON PHILHARMONIC ORCHESTRA,,,,236 HUNTINGTON AVE STE 209,BOSTON,MA,02115-4701,
,,,,,,,,,,,,,,
BENJAMIN,,ZANDER,,BENJAMIN ZANDER,,BOSTON PHILHARMONIC ORCHESTRA,,,,236 HUNTINGTON AVE STE 209,BOSTON,MA,02115-4701,
,,,,,,,,,,,,,,
LESLIE,WU,FOLEY,,LESLIE WU FOLEY,,BOSTON SYMPHONY ORCHESTRA,,,,301 MASSACHUSETTS AVE SYMPHONY HALL,BOSTON,MA,02115-4557,
,,,,,,,,,,,,,,
JENNIFER,,GOODEARL,,JENNIFER GOODEARL,,BOSTON SYMPHONY ORCHESTRA,,,,301 MASSACHUSETTS AVE SYMPHONY HALL,BOSTON,MA,02115-4557,
,,,,,,,,,,,,,,
ERIC,,VALLIERE,,ERIC VALLIERE,,BOSTON SYMPHONY ORCHESTRA,,,,301 MASSACHUSETTS AVE SYMPHONY HALL,BOSTON,MA,02115-4557,
,,,,,,,,,,,,,,
DENNIS,,ALVES,,DENNIS ALVES,,BOSTON SYMPHONY ORCHESTRA,,,,301 MASSACHUSETTS AVE SYMPHONY HALL,BOSTON,MA,02115-4557,
,,,,,,,,,,,,,,
SARA,,PARKINSON,,SARA PARKINSON,,BOULDER PHILHARMONIC ORCHESTRA,,,,1600 RANGE ST STE 200,BOULDER,CO,80301-2739,
,,,,,,,,,,,,,,
SHELLEY,,SAMPSON,,SHELLEY SAMPSON,,BOULDER PHILHARMONIC ORCHESTRA,,,,3055 CORONA TRL APT 301,BOULDER,CO,80301-1457,
,,,,,,,,,,,,,,
JACQUI,,TAYLOR,,JACQUI TAYLOR,,BRAVO!VAIL MUSIC FESTIVAL,,,,2271 N FRONTAGE RD W STE C,VAIL,CO,81657-3920,
,,,,,,,,,,,,,,
ANNE-MARIE,,MCDERMOTT,,ANNE-MARIE MCDERMOTT,,BRAVO!VAIL MUSIC FESTIVAL,,,,2271 N FRONTAGE RD W STE C,VAIL,CO,81657-3920,
,,,,,,,,,,,,,,
MARCELO,,BUSSIKI,,MARCELO BUSSIKI,,BRAZOS VALLEY SYMPHONY ORCHESTRA,,,,PO BOX 3524,BRYAN,TX,77805-3524,
,,,,,,,,,,,,,,
MARY,,KOENINGER,,MARY KOENINGER,,BRAZOS VALLEY SYMPHONY ORCHESTRA,,,,PO BOX 3524,BRYAN,TX,77805-3524,
,,,,,,,,,,,,,,
ALAN,,FUTTERMAN,,ALAN FUTTERMAN,,BREMERTON WESTSOUND SYMPHONY,,,,PO BOX 996,BREMERTON,WA,98337-0218,
,,,,,,,,,,,,,,
DUSTY,,CAMPBELL,,DUSTY CAMPBELL,,BREVARD PHILHARMONIC,,,,PO BOX 1547,BREVARD,NC,28712-1547,
,,,,,,,,,,,,,,
DAVID,W.,SCHILLHAMMER,,DAVID W. SCHILLHAMMER,,BREVARD SYMPHONY ORCHESTRA,,,,PO BOX 361965,MELBOURNE,FL,32936-1965,
,,,,,,,,,,,,,,
DONNA,,BRIGGS,,DONNA BRIGGS,,BRITT ORCHESTRA,,,216 WEST MAIN STREET,PO BOX 1124,MEDFORD,OR,97501-0083,
,,,,,,,,,,,,,,
MELODY,,ENGLISH,,MELODY ENGLISH,,BROOKLYN METRO CHAMBER ORCHESTRA,,,,8831 16TH AVE,BROOKLYN,NY,11214-5801,
,,,,,,,,,,,,,,
PHILIP,,NUZZO,,PHILIP NUZZO,,BROOKLYN METRO CHAMBER ORCHESTRA,,,,8831 16TH AVE,BROOKLYN,NY,11214-5801,
,,,,,,,,,,,,,,
RACHEL,,SMALLING,,RACHEL SMALLING,,BRYAN SYMPHONY ORCHESTRA,,,,123 W BROAD ST STE 4,COOKEVILLE,TN,38501-2475,
,,,,,,,,,,,,,,
DANIEL,J.,HART,,DANIEL J. HART,,BUFFALO PHILHARMONIC ORCHESTRA,,,,786 DELAWARE AVE,BUFFALO,NY,14209-2006,
,,,,,,,,,,,,,,
JOANN,,FALLETTA,,JOANN FALLETTA,,BUFFALO PHILHARMONIC ORCHESTRA,,,,786 DELAWARE AVE,BUFFALO,NY,14209-2006,
,,,,,,,,,,,,,,
ANSGARIUS,,AYLWARD,,ANSGARIUS AYLWARD,,BUFFALO PHILHARMONIC ORCHESTRA,,,,786 DELAWARE AVE,BUFFALO,NY,14209-2006,
,,,,,,,,,,,,,,
ROBIN,,PARKINSON,,ROBIN PARKINSON,,BUFFALO PHILHARMONIC ORCHESTRA,,,,786 DELAWARE AVE,BUFFALO,NY,14209-2006,
,,,,,,,,,,,,,,
DAVID,,COSGROVE,,DAVID COSGROVE,,BUTLER COUNTY SYMPHONY ASSOCIATION,,,,259 S MAIN ST,BUTLER,PA,16001-5925,
,,,,,,,,,,,,,,
LUIS,,MILLN,,LUIS MILLN,,BUTTE SYMPHONY,,,,PO BOX 725,BUTTE,MT,59703-0725,
,,,,,,,,,,,,,,
VICTOR,,VENER,,VICTOR VENER,,CALIFORNIA PHILHARMONIC ORCHESTRA,,,,22 CENTRAL CT,PASADENA,CA,91105-2060,
,,,,,,,,,,,,,,
LISA,S.,DELL,,LISA S. DELL,,CALIFORNIA SYMPHONY,,,,100 PRINGLE AVE STE 540,WALNUT CREEK,CA,94596-7369,
,,,,,,,,,,,,,,
MICHELLE,MULLALY,CHARLES,,MICHELLE MULLALY CHARLES,,CANTON SYMPHONY ORCHESTRA,,,,2331 17TH ST NW,CANTON,OH,44708-2601,
,,,,,,,,,,,,,,
GERHARDT,,ZIMMERMANN,,GERHARDT ZIMMERMANN,,CANTON SYMPHONY ORCHESTRA,,,,2331 17TH ST NW,CANTON,OH,44708-2601,
,,,,,,,,,,,,,,
HENRY,,BETTS,,HENRY BETTS,,CAPE ANN SYMPHONY ORCHESTRA,,,,8 JEFFREYS NECK RD,IPSWICH,MA,01938-1308,
,,,,,,,,,,,,,,
MICHAEL,,ALBAUGH,,MICHAEL ALBAUGH,,CAPE SYMPHONY,,,,1060 FALMOUTH RD STE A,HYANNIS,MA,02601-2371,
,,,,,,,,,,,,,,
JUNG-HO,,PAK,,JUNG-HO PAK,,CAPE SYMPHONY,,,,1060 FALMOUTH RD STE A,HYANNIS,MA,02601-2371,
,,,,,,,,,,,,,,
ANDREA,,MEAGHER,,ANDREA MEAGHER,,CAPE SYMPHONY,,,,1060 FALMOUTH RD STE A,HYANNIS,MA,02601-2371,
,,,,,,,,,,,,,,
CARA,,PITTENGER,,CARA PITTENGER,,CARMEL SYMPHONY ORCHESTRA,,,,760 3RD AVE SW STE 102,CARMEL,IN,46032-2070,
,,,,,,,,,,,,,,
JANNA,,HYMES,,JANNA HYMES,,CARMEL SYMPHONY ORCHESTRA,,,,760 3RD AVE SW STE 102,CARMEL,IN,46032-2070,
,,,,,,,,,,,,,,
CASSANDRA,,MILLER,,CASSANDRA MILLER,,CATSKILL SYMPHONY ORCHESTRA,,,,PO BOX 14,ONEONTA,NY,13820-0014,
,,,,,,,,,,,,,,
MACIEJ,,ZOLTOWSKI,,MACIEJ ZOLTOWSKI,,CATSKILL SYMPHONY ORCHESTRA,,,,PO BOX 14,ONEONTA,NY,13820-0014,
,,,,,,,,,,,,,,
CORNELIA,LAEMMLI,ORTH,,CORNELIA LAEMMLI ORTH,,CAYUGA CHAMBER ORCHESTRA,,,,110 N TIOGA ST STE 302,ITHACA,NY,14850-4320,
,,,,,,,,,,,,,,
BRAD,,LAMBRECHT,,BRAD LAMBRECHT,,CENTRAL LAKES SYMPHONY ORCHESTRA,,,,1210 BROADWAY ST STE 240 PMB 105,ALEXANDRIA,MN,56308-2664,
,,,,,,,,,,,,,,
JAIME,,MORALES-MATOS,,JAIME MORALES-MATOS,,CENTRAL OHIO SYMPHONY,,,,PO BOX 619,DELAWARE,OH,43015-0619,
,,,,,,,,,,,,,,
WARREN,,HYER,,WARREN HYER,,CENTRAL OHIO SYMPHONY,,,,PO BOX 619,DELAWARE,OH,43015-0619,
,,,,,,,,,,,,,,
MICHAEL,,GESME,,MICHAEL GESME,,CENTRAL OREGON SYMPHONY,,,,15 SW COLORADO AVE STE 320,BEND,OR,97702-1149,
,,,,,,,,,,,,,,
MARA,,PRAUSA,,MARA PRAUSA,,CENTRAL WISCONSIN SYMPHONY ORCHESTRA,,,,PO BOX 65,STEVENS POINT,WI,54481-0065,
,,,,,,,,,,,,,,
SALVATORE,,DI VITTORIO,,SALVATORE DI VITTORIO,,CHAMBER ORCHESTRA OF NEW YORK,,,,450 LEXINGTON AVE # 1514,NEW YORK,NY,10163-9596,
,,,,,,,,,,,,,,
ROBERT,,VODNOY,,ROBERT VODNOY,,CHAMBER ORCHESTRA OF SARASOTA,,,,1709 BONITAS CIR,VENICE,FL,34293-1806,
,,,,,,,,,,,,,,
LORENZO,,MUTI,,LORENZO MUTI,,CHAMBER ORCHESTRA OF THE TRIANGLE,,,,1213 E FRANKLIN ST,CHAPEL HILL,NC,27514-3307,
,,,,,,,,,,,,,,
NICCOLO,,MUTI,,NICCOLO MUTI,,CHAMBER ORCHESTRA OF THE TRIANGLE,,,,1213 E FRANKLIN ST,CHAPEL HILL,NC,27514-3307,
,,,,,,,,,,,,,,
GERRI,,KIRCHNER,,GERRI KIRCHNER,,CHAMPAIGN-URBANA SYMPHONY ORCHESTRA,,,,701 DEVONSHIRE DR STE C24,CHAMPAIGN,IL,61820-7330,
,,,,,,,,,,,,,,
LAURA,,MIHALKA,,LAURA MIHALKA,,CHANNEL ISLANDS CHAMBER ORCHESTRA,,,,PO BOX 2116,VENTURA,CA,93002-2116,
,,,,,,,,,,,,,,
DONALD,L.,OEHLER,,DONALD L. OEHLER,,CHAPEL HILL PHILHARMONIA,,,,PO BOX 2853,CHAPEL HILL,NC,27515-2853,
,,,,,,,,,,,,,,
MICHAEL,,SHAPIRO,,MICHAEL SHAPIRO,,CHAPPAQUA ORCHESTRA,,,,PO BOX 461,CHAPPAQUA,NY,10514-0461,
,,,,,,,,,,,,,,
MITSUKO,,FLYNN,,MITSUKO FLYNN,,CHARLESTON SYMPHONY ORCHESTRA,,,,PO BOX 30818,CHARLESTON,SC,29417-0818,
,,,,,,,,,,,,,,
MICHAEL,,SMITH,,MICHAEL SMITH,,CHARLESTON SYMPHONY ORCHESTRA,,,,PO BOX 30818,CHARLESTON,SC,29417-0818,
,,,,,,,,,,,,,,
KEN,,LAM,,KEN LAM,,CHARLESTON SYMPHONY ORCHESTRA,,,,PO BOX 30818,CHARLESTON,SC,29417-0818,
,,,,,,,,,,,,,,
KELLEN,,GRAY,,KELLEN GRAY,,CHARLESTON SYMPHONY ORCHESTRA,,,,PO BOX 30818,CHARLESTON,SC,29417-0818,
,,,,,,,,,,,,,,
CHRIS,,STONNELL,,CHRIS STONNELL,,CHARLOTTE SYMPHONY,,,,128 S TRYON ST STE 350,CHARLOTTE,NC,28202-3257,
,,,,,,,,,,,,,,
CARRIE,,GRAHAM,,CARRIE GRAHAM,,CHARLOTTE SYMPHONY,,,,426 HILO DR APT A,CHARLOTTE,NC,28206-4923,
,,,,,,,,,,,,,,
JANET,B.,KALTENBACH,,JANET B. KALTENBACH,,CHARLOTTESVILLE SYMPHONY SOCIETY,,,,PO BOX 4206,CHARLOTTESVLE,VA,22905-4206,
,,,,,,,,,,,,,,
LINDSEY,,BIRD-REYNOLDS,,LINDSEY BIRD-REYNOLDS,,CHEYENNE SYMPHONY ORCHESTRA,,,,PO BOX 851,CHEYENNE,WY,82003-0851,
,,,,,,,,,,,,,,
BLAKE-ANTHONY,,JOHNSON,,BLAKE-ANTHONY JOHNSON,,CHICAGO SINFONIETTA,,,,70 E LAKE ST STE 1430,CHICAGO,IL,60601-7449,
,,,,,,,,,,,,,,
TERRANCE,,GRAY,,TERRANCE GRAY,,CHICAGO SINFONIETTA,,,,70 E LAKE ST STE 1430,CHICAGO,IL,60601-7449,
,,,,,,,,,,,,,,
MEI-ANN,,CHEN,,MEI-ANN CHEN,,CHICAGO SINFONIETTA,,,,70 E LAKE ST STE 1430,CHICAGO,IL,60601-7449,
,,,,,,,,,,,,,,
JEFFREY,,HANDLEY,,JEFFREY HANDLEY,,CHICAGO SINFONIETTA,,,,70 E LAKE ST STE 1430,CHICAGO,IL,60601-7449,
,,,,,,,,,,,,,,
JON,,WEBER,,JON WEBER,,CHICAGO SYMPHONY ORCHESTRA,,,,220 S MICHIGAN AVE,CHICAGO,IL,60604-2559,
,,,,,,,,,,,,,,
RANDOLPH,,ELLIOT,,RANDOLPH ELLIOT,,CHICAGO SYMPHONY ORCHESTRA,,,,220 S MICHIGAN AVE,CHICAGO,IL,60604-2559,
,,,,,,,,,,,,,,
JAMES,,FAHEY,,JAMES FAHEY,,CHICAGO SYMPHONY ORCHESTRA,,,,220 S MICHIGAN AVE,CHICAGO,IL,60604-2559,
,,,,,,,,,,,,,,
KATY,,CLUSEN,,KATY CLUSEN,,CHICAGO SYMPHONY ORCHESTRA,,,,220 S MICHIGAN AVE,CHICAGO,IL,60604-2559,
,,,,,,,,,,,,,,
JONATHAN,,MCCORMICK,,JONATHAN MCCORMICK,,CHICAGO SYMPHONY ORCHESTRA,,,,220 S MICHIGAN AVE,CHICAGO,IL,60604-2559,
,,,,,,,,,,,,,,
SUSAN,,LAPE,,SUSAN LAPE,,CHICAGO YOUTH SYMPHONY ORCHESTRAS,,,,410 S MICHIGAN AVE STE 833,CHICAGO,IL,60605-1302,
,,,,,,,,,,,,,,
ALLEN,,TINKHAM,,ALLEN TINKHAM,,CHICAGO YOUTH SYMPHONY ORCHESTRAS,,,,410 S MICHIGAN AVE STE 833,CHICAGO,IL,60605-1302,
,,,,,,,,,,,,,,
NOBUYOSHI,,YASUDA,,NOBUYOSHI YASUDA,,CHIPPEWA VALLEY SYMPHONY ORCHESTRA,,,,402 GRAHAM AVE STE 205,EAU CLAIRE,WI,54701-2633,
,,,,,,,,,,,,,,
RALF,,EHRHARDT,,RALF EHRHARDT,,CINCINNATI CHAMBER ORCHESTRA,,,,650 WALNUT ST,CINCINNATI,OH,45202-2517,
,,,,,,,,,,,,,,
SEONG-KYUNG,,GRAHAM,,SEONG-KYUNG GRAHAM,,CIVIC SYMPHONY OF GREEN BAY,,,,PO BOX 302,GREEN BAY,WI,54305-0302,
,,,,,,,,,,,,,,
PAUL,M.,MONTALVO,,PAUL M. MONTALVO,,CLASSICAL MUSIC INSTITUTE,,,,PO BOX 6846,SAN ANTONIO,TX,78209-0846,
,,,,,,,,,,,,,,
LAURA,,HAMILTON,,LAURA HAMILTON,,CLASSICAL TAHOE,,,,948 INCLINE WAY,INCLINE VLG,NV,89451-9527,
,,,,,,,,,,,,,,
ROBERT,,WHIPPLE,,ROBERT WHIPPLE,,CLINTON SYMPHONY ORCHESTRA,,,,PO BOX 116,CLINTON,IA,52733-0116,
,,,,,,,,,,,,,,
JOHN,MARIO,DICOSTANZO,,JOHN MARIO DICOSTANZO,,COACHELLA VALLEY SYMPHONY,,,,74710 HIGHWAY 111 STE 102,PALM DESERT,CA,92260-3820,
,,,,,,,,,,,,,,
SHARON,,FLORES,,SHARON FLORES,,COASTAL SYMPHONY OF GEORGIA,,,,PO BOX 21733,ST SIMONS IS,GA,31522-0833,
,,,,,,,,,,,,,,
NATHAN,,NEWBROUGH,,NATHAN NEWBROUGH,,COLORADO SPRINGS PHILHARMONIC,,,,PO BOX 1266,COLORADO SPGS,CO,80901-1266,
,,,,,,,,,,,,,,
GARY,,NICHOLSON,,GARY NICHOLSON,,COLORADO SPRINGS PHILHARMONIC,,,,PO BOX 1266,COLORADO SPGS,CO,80901-1266,
,,,,,,,,,,,,,,
JOSEP,,CABALL-DOMENECH,,JOSEP CABALL-DOMENECH,,COLORADO SPRINGS PHILHARMONIC,,,,PO BOX 1266,COLORADO SPGS,CO,80901-1266,
,,,,,,,,,,,,,,
BERNIE,,BRINK,,BERNIE BRINK,,COLORADO SPRINGS PHILHARMONIC,,,,PO BOX 1266,COLORADO SPGS,CO,80901-1266,
,,,,,,,,,,,,,,
HEIDI,,KELLEY,,HEIDI KELLEY,,COLUMBUS INDIANA PHILHARMONIC,,,,315 FRANKLIN ST,COLUMBUS,IN,47201-6731,
,,,,,,,,,,,,,,
DANIEL,,WALSHAW,,DANIEL WALSHAW,,COLUMBUS SYMPHONY ORCHESTRA,,,,1794 OAK ST,COLUMBUS,OH,43205-2239,
,,,,,,,,,,,,,,
DENISE,,REHG,,DENISE REHG,,COLUMBUS SYMPHONY ORCHESTRA,,,,55 E STATE ST,COLUMBUS,OH,43215-4203,
,,,,,,,,,,,,,,
ANDRS,,LOPERA,,ANDRS LOPERA,,COLUMBUS SYMPHONY ORCHESTRA,,,,55 E STATE ST,COLUMBUS,OH,43215-4203,
,,,,,,,,,,,,,,
KATELYN,,RUSH,,KATELYN RUSH,,COLUMBUS SYMPHONY ORCHESTRA,,,,55 E STATE ST,COLUMBUS,OH,43215-4203,
,,,,,,,,,,,,,,
ERIC,,THOMAS,,ERIC THOMAS,,COLUMBUS SYMPHONY ORCHESTRA,,,,PO BOX 1499,COLUMBUS,GA,31902-1499,
,,,,,,,,,,,,,,
GEORGE,,DEL GOBBO,,GEORGE DEL GOBBO,,COLUMBUS SYMPHONY ORCHESTRA,,,,PO BOX 1499,COLUMBUS,GA,31902-1499,
,,,,,,,,,,,,,,
JENNIFER,,GUZMN,,JENNIFER GUZMN,,DALLAS SYMPHONY ORCHESTRA,,,,"2301 FLORA ST, SCHLEGEL ADMIN SUITE 300",DALLAS,TX,75201-2497,
,,,,,,,,,,,,,,
KATIE,,MCGUINNESS,,KATIE MCGUINNESS,,DALLAS SYMPHONY ORCHESTRA,,,,"2301 FLORA STREET, SCHLEGEL ADMINISTRATIVE SUITES, SUITE 300",DALLAS,TX,75201-2497,
,,,,,,,,,,,,,,
NATHAN,,LUTZ,,NATHAN LUTZ,,DALLAS SYMPHONY ORCHESTRA,,,,"2301 FLORA STREET, SCHLEGEL ADMINISTRATIVE SUITES, SUITE 300",DALLAS,TX,75201-2497,
,,,,,,,,,,,,,,
TODD,,JOINER,,TODD JOINER,,DALLAS SYMPHONY ORCHESTRA,,,,"2301 FLORA STREET, SCHLEGEL ADMINISTRATIVE SUITES, SUITE 300",DALLAS,TX,75201-2497,
,,,,,,,,,,,,,,
STEPHEN,MICHAEL,SMITH,,STEPHEN MICHAEL SMITH,,DANBURY SYMPHONY,,,,256 MAIN ST,DANBURY,CT,06810-6635,
,,,,,,,,,,,,,,
CINDY,,NACCO,,CINDY NACCO,,DANVILLE SYMPHONY ORCHESTRA,,,,715 W FAIRCHILD ST,DANVILLE,IL,61832-4703,
,,,,,,,,,,,,,,
JEREMY,,SWERLING,,JEREMY SWERLING,,DANVILLE SYMPHONY ORCHESTRA,,,,715 W FAIRCHILD ST,DANVILLE,IL,61832-4703,
,,,,,,,,,,,,,,
SANDRA,,BUTLER,,SANDRA BUTLER,,DEARBORN SYMPHONY ORCHESTRA,,,,PO BOX 2063,DEARBORN,MI,48123-2063,
,,,,,,,,,,,,,,
STEVEN,,JARVI,,STEVEN JARVI,,DEARBORN SYMPHONY ORCHESTRA,,,,PO BOX 2063,DEARBORN,MI,48123-2063,
,,,,,,,,,,,,,,
J.C.,,BARKER,,J.C. BARKER,,DELAWARE SYMPHONY ORCHESTRA,,,,100 W 10TH ST STE 1003,WILMINGTON,DE,19801-1652,
,,,,,,,,,,,,,,
DAVID,,AMADO,,DAVID AMADO,,DELAWARE SYMPHONY ORCHESTRA,,,,100 W 10TH ST STE 1003,WILMINGTON,DE,19801-1652,
,,,,,,,,,,,,,,
ELIZABETH,,JAFFE,,ELIZABETH JAFFE,,DELAWARE SYMPHONY ORCHESTRA,,,,100 W 10TH ST STE 1003,WILMINGTON,DE,19801-1652,
,,,,,,,,,,,,,,
RICHARD,L.,EARLY,,RICHARD L. EARLY,,DES MOINES SYMPHONY,,,,1011 LOCUST ST STE 200,DES MOINES,IA,50309-2813,
,,,,,,,,,,,,,,
JOSEPH,,GIUNTA,,JOSEPH GIUNTA,,DES MOINES SYMPHONY,,,,1011 LOCUST ST STE 200,DES MOINES,IA,50309-2813,
,,,,,,,,,,,,,,
JOSHUA,ALAN,BARLAGE,,JOSHUA ALAN BARLAGE,,DES MOINES SYMPHONY,,,,1011 LOCUST ST STE 200,DES MOINES,IA,50309-2813,
,,,,,,,,,,,,,,
DEBORAH,,KANG,,DEBORAH KANG,,DETROIT SYMPHONY ORCHESTRA,,,,3711 WOODWARD AVE,DETROIT,MI,48201-2005,
,,,,,,,,,,,,,,
LISA,,BRADLEY,,LISA BRADLEY,,DETROIT SYMPHONY ORCHESTRA,,,,3711 WOODWARD AVE,DETROIT,MI,48201-2005,
,,,,,,,,,,,,,,
CLARE,,VALENTI,,CLARE VALENTI,,DETROIT SYMPHONY ORCHESTRA,,,,3711 WOODWARD AVE,DETROIT,MI,48201-2005,
,,,,,,,,,,,,,,
JESSICA,,RUIZ,,JESSICA RUIZ,,DETROIT SYMPHONY ORCHESTRA,,,,3711 WOODWARD AVE,DETROIT,MI,48201-2005,
,,,,,,,,,,,,,,
MARK,,WAHLERT,,MARK WAHLERT,,DUBUQUE SYMPHONY ORCHESTRA,,,,2728 ASBURY RD STE 900,DUBUQUE,IA,52001-2970,
,,,,,,,,,,,,,,
WILLIAM,,INTRILIGATOR,,WILLIAM INTRILIGATOR,,DUBUQUE SYMPHONY ORCHESTRA,,,,2728 ASBURY RD STE 900,DUBUQUE,IA,52001-2970,
,,,,,,,,,,,,,,
BRANDON,,VANWAEYENBERGHE,,BRANDON VANWAEYENBERGHE,,DULUTH SUPERIOR SYMPHONY ORCHESTRA,,,,130 W SUPERIOR ST STE LL2,DULUTH,MN,55802-4026,
,,,,,,,,,,,,,,
DIRK,O.,MEYER,,DIRK O. MEYER,,DULUTH SUPERIOR SYMPHONY ORCHESTRA,,,,130 W SUPERIOR ST STE LL2,DULUTH,MN,55802-4026,
,,,,,,,,,,,,,,
KRISTIN,L.,CHMIEL,,KRISTIN L. CHMIEL,,DUPAGE SYMPHONY ORCHESTRA,,,,PO BOX 844,NAPERVILLE,IL,60566-0844,
,,,,,,,,,,,,,,
ROBIN,,HAMPTON,,ROBIN HAMPTON,,EAST TEXAS SYMPHONY ORCHESTRA,,,,PO BOX 6323,TYLER,TX,75711-6323,
,,,,,,,,,,,,,,
RICHARD,,LEE,,RICHARD LEE,,EAST TEXAS SYMPHONY ORCHESTRA,,,,PO BOX 6323,TYLER,TX,75711-6323,
,,,,,,,,,,,,,,
CALEB,,BAILEY,,CALEB BAILEY,,"EASTERN CONNECTICUT SYMPHONY ORCHESTRA, INC.",,,,289 STATE ST,NEW LONDON,CT,06320-6300,
,,,,,,,,,,,,,,
RUTH,ELLEN,JACOBSON,,RUTH ELLEN JACOBSON,,EL PASO SYMPHONY ORCHESTRA ASSOCIATION,,,,PO BOX 180,EL PASO,TX,79942-0180,
,,,,,,,,,,,,,,
BOHUSLAV,,RATTAY,,BOHUSLAV RATTAY,,EL PASO SYMPHONY ORCHESTRA ASSOCIATION,,,,PO BOX 180,EL PASO,TX,79942-0180,
,,,,,,,,,,,,,,
STEPHEN,,SQUIRES,,STEPHEN SQUIRES,,ELGIN SYMPHONY ORCHESTRA,,,,20 DU PAGE CT,ELGIN,IL,60120-6424,
,,,,,,,,,,,,,,
ANDREW,,GRAMS,,ANDREW GRAMS,,ELGIN SYMPHONY ORCHESTRA,,,,20 DU PAGE CT,ELGIN,IL,60120-6424,
,,,,,,,,,,,,,,
ERIC,,GASTON,,ERIC GASTON,,ELGIN SYMPHONY ORCHESTRA,,,,20 DU PAGE CT,ELGIN,IL,60120-6424,
,,,,,,,,,,,,,,
SOO,,HAN,,SOO HAN,,ELKHART COUNTY SYMPHONY ORCHESTRA,,,,PO BOX 144,ELKHART,IN,46515-0144,
,,,,,,,,,,,,,,
CYNTHIA,BERGQUIST,KRAINC,,CYNTHIA BERGQUIST KRAINC,,ELMHURST SYMPHONY ORCHESTRA,,,,PO BOX 345,ELMHURST,IL,60126-0345,
,,,,,,,,,,,,,,
STEPHEN,W.,ALLTOP,,STEPHEN W. ALLTOP,,ELMHURST SYMPHONY ORCHESTRA,,,,PO BOX 345,ELMHURST,IL,60126-0345,
,,,,,,,,,,,,,,
STEVE,C.,WEISER,,STEVE C. WEISER,,ERIE PHILHARMONIC ORCHESTRA,,,,23 W 10TH ST STE 3,ERIE,PA,16501-1423,
,,,,,,,,,,,,,,
DANIEL,,MEYER,,DANIEL MEYER,,ERIE PHILHARMONIC ORCHESTRA,,,,23 W 10TH ST STE 3,ERIE,PA,16501-1423,
,,,,,,,,,,,,,,
SCOTT,,FRECK,,SCOTT FRECK,,"EUGENE SYMPHONY ASSOCIATION, INC.",,,,115 W 8TH AVE STE 115,EUGENE,OR,97401-2973,
,,,,,,,,,,,,,,
FRANCESCO,,LECCE-CHONG,,FRANCESCO LECCE-CHONG,,"EUGENE SYMPHONY ASSOCIATION, INC.",,,,115 W 8TH AVE STE 115,EUGENE,OR,97401-2973,
,,,,,,,,,,,,,,
KATY,,VIZDAL,,KATY VIZDAL,,"EUGENE SYMPHONY ASSOCIATION, INC.",,,,115 W 8TH AVE STE 115,EUGENE,OR,97401-2973,
,,,,,,,,,,,,,,
ANDREW,,MELL,,ANDREW MELL,,"EUGENE SYMPHONY ASSOCIATION, INC.",,,,115 W 8TH AVE STE 115,EUGENE,OR,97401-2973,
,,,,,,,,,,,,,,
DAVID,,ELLIS,,DAVID ELLIS,,EVANSTON SYMPHONY ORCHESTRA ASSOCIATION,,,,PO BOX 778,EVANSTON,IL,60204-0778,
,,,,,,,,,,,,,,
LAWRENCE,,ECKERLING,,LAWRENCE ECKERLING,,EVANSTON SYMPHONY ORCHESTRA ASSOCIATION,,,,PO BOX 778,EVANSTON,IL,60204-0778,
,,,,,,,,,,,,,,
BRIAN,,ONDERDONK,,BRIAN ONDERDONK,,EVANSVILLE PHILHARMONIC ORCHESTRA,,,,12041 NUGENT DR,GRANADA HILLS,CA,91344-1935,
,,,,,,,,,,,,,,
KIMBERLY,,BREDEMEIER,,KIMBERLY BREDEMEIER,,EVANSVILLE PHILHARMONIC ORCHESTRA,,,,PO BOX 84,EVANSVILLE,IN,47701-0084,
,,,,,,,,,,,,,,
PAUL-ELLIOTT,,COBBS,,PAUL-ELLIOTT COBBS,,EVERETT PHILHARMONIC ORCHESTRA,,,,PO BOX 1751,EVERETT,WA,98206-1751,
,,,,,,,,,,,,,,
JULIA,,ATKINS,,JULIA ATKINS,,FAYETTEVILLE SYMPHONY ORCHESTRA,,,,PO BOX 302,FAYETTEVILLE,NC,28302-0302,
,,,,,,,,,,,,,,
CARL,,TOPILOW,,CARL TOPILOW,,FIRELANDS SYMPHONY ORCHESTRA,,,,1 UNIVERSITY DR,HURON,OH,44839-9719,
,,,,,,,,,,,,,,
TRICIA,K.,APPLEGATE,,TRICIA K. APPLEGATE,,FIRELANDS SYMPHONY ORCHESTRA,,,,1 UNIVERSITY DR,HURON,OH,44839-9719,
,,,,,,,,,,,,,,
LARRY,H.,LANG,,LARRY H. LANG,,FLAGSTAFF SYMPHONY ORCHESTRA,,,,PO BOX 122,FLAGSTAFF,AZ,86002-0122,
,,,,,,,,,,,,,,
JESSICA,,SAMPSON,,JESSICA SAMPSON,,FLINT SYMPHONY ORCHESTRA,,,,1025 E KEARSLEY ST,FLINT,MI,48503-1922,
,,,,,,,,,,,,,,
ENRIQUE,ARTURO,DIEMECKE,,ENRIQUE ARTURO DIEMECKE,,FLINT SYMPHONY ORCHESTRA,,,,1025 E KEARSLEY ST,FLINT,MI,48503-1922,
,,,,,,,,,,,,,,
DAVIN,PIERSON,TORRE,,DAVIN PIERSON TORRE,,FLINT SYMPHONY ORCHESTRA,,,,1025 E KEARSLEY ST,FLINT,MI,48503-1922,
,,,,,,,,,,,,,,
MARY,,KOPCO,,MARY KOPCO,,FORT COLLINS SYMPHONY ASSOCIATION,,,,PO BOX 1963,FORT COLLINS,CO,80522-1963,
,,,,,,,,,,,,,,
WES,,KENNEY,,WES KENNEY,,FORT COLLINS SYMPHONY ASSOCIATION,,,,PO BOX 1963,FORT COLLINS,CO,80522-1963,
,,,,,,,,,,,,,,
JOHN,,JETER,,JOHN JETER,,"FORT SMITH SYMPHONY ASSOCIATION, INC.",,,,PO BOX 3151,FORT SMITH,AR,72913-3151,
,,,,,,,,,,,,,,
JAMES,,PALERMO,,JAMES PALERMO,,FORT WAYNE PHILHARMONIC,,,,4901 FULLER DR,FORT WAYNE,IN,46835-3277,
,,,,,,,,,,,,,,
ANDREW,,CONSTANTINE,,ANDREW CONSTANTINE,,FORT WAYNE PHILHARMONIC,,,,4901 FULLER DR,FORT WAYNE,IN,46835-3277,
,,,,,,,,,,,,,,
JIM,,MANCUSO,,JIM MANCUSO,,FORT WAYNE PHILHARMONIC,,,,4901 FULLER DR,FORT WAYNE,IN,46835-3277,
,,,,,,,,,,,,,,
KEITH,J.,CERNY,,KEITH J. CERNY,,FORT WORTH SYMPHONY ORCHESTRA,,,,330 E 4TH ST STE 200,FORT WORTH,TX,76102-4019,
,,,,,,,,,,,,,,
TAYLOR,,VOGEL,,TAYLOR VOGEL,,FORT WORTH SYMPHONY ORCHESTRA,,,,330 E 4TH ST STE 200,FORT WORTH,TX,76102-4019,
,,,,,,,,,,,,,,
KELLY,,OTT,,KELLY OTT,,FORT WORTH SYMPHONY ORCHESTRA,,,,1420 COLLEGE AVE APT C,FORT WORTH,TX,76104-4572,
,,,,,,,,,,,,,,
VICTORIA,,PAARUP,,VICTORIA PAARUP,,FORT WORTH SYMPHONY ORCHESTRA,,,,330 E 4TH ST STE 200,FORT WORTH,TX,76102-4019,
,,,,,,,,,,,,,,
JAMIE,,LAFRENIERE,,JAMIE LAFRENIERE,,FOX VALLEY SYMPHONY,,,,10 E COLLEGE AVE STE 207,APPLETON,WI,54911-5757,
,,,,,,,,,,,,,,
KEVIN,F.E.,STTERLIN,,KEVIN F.E. STTERLIN,,FOX VALLEY SYMPHONY,,,,10 E COLLEGE AVE STE 207,APPLETON,WI,54911-5757,
,,,,,,,,,,,,,,
PAUL,,IANNACCONE,,PAUL IANNACCONE,,FREMONT SYMPHONY ORCHESTRA,,,,PO BOX 104,FREMONT,CA,94537-0104,
,,,,,,,,,,,,,,
STEPHEN,,WILSON,,STEPHEN WILSON,,FRESNO PHILHARMONIC ORCHESTRA,,,,726 W BARSTOW AVE STE 106,FRESNO,CA,93704-1955,
,,,,,,,,,,,,,,
REI,,HOTODA,,REI HOTODA,,FRESNO PHILHARMONIC ORCHESTRA,,,,726 W BARSTOW AVE STE 106,FRESNO,CA,93704-1955,
,,,,,,,,,,,,,,
NATHANIEL,,PARKER,,NATHANIEL PARKER,,GEORGIA SYMPHONY ORCHESTRA,,,,PO BOX 791,MARIETTA,GA,30061-0791,
,,,,,,,,,,,,,,
TAYLOR,,RAMBO,,TAYLOR RAMBO,,GEORGIA SYMPHONY ORCHESTRA,,,,PO BOX 791,MARIETTA,GA,30061-0791,
,,,,,,,,,,,,,,
TIMOTHY,,VERVILLE,,TIMOTHY VERVILLE,,GEORGIA SYMPHONY ORCHESTRA,,,,PO BOX 791,MARIETTA,GA,30061-0791,
,,,,,,,,,,,,,,
JOHN,,ZOLTEK,,JOHN ZOLTEK,,GLACIER SYMPHONY,,,,69 N MAIN ST,KALISPELL,MT,59901-4013,
,,,,,,,,,,,,,,
CHARLES,H.,PELTZ,,CHARLES H. PELTZ,,GLENS FALLS SYMPHONY,,,,PO BOX 2036,GLENS FALLS,NY,12801-2036,
,,,,,,,,,,,,,,
JENNIFER,DIANE,BRINK,,JENNIFER DIANE BRINK,,GLENS FALLS SYMPHONY,,,,PO BOX 2036,GLENS FALLS,NY,12801-2036,
,,,,,,,,,,,,,,
VALERIE,,GELLER,,VALERIE GELLER,,GLOBAL HARMONY SYMPHONY,,,,PO BOX 3352,LAGUNA HILLS,CA,92654-3352,
,,,,,,,,,,,,,,
CHARLES,W.,LATSHAW,,CHARLES W. LATSHAW,,GRAND JUNCTION SYMPHONY ORCHESTRA,,,,414 MAIN ST,GRAND JCT,CO,81501-2512,
,,,,,,,,,,,,,,
KELLY,,ANDERSON,,KELLY ANDERSON,,GRAND JUNCTION SYMPHONY ORCHESTRA,,,,414 MAIN ST,GRAND JCT,CO,81501-2512,
,,,,,,,,,,,,,,
MARY,TUUK,KURAS,,MARY TUUK KURAS,,GRAND RAPIDS SYMPHONY,,,,300 OTTAWA AVE NW STE 100,GRAND RAPIDS,MI,49503-2314,
,,,,,,,,,,,,,,
MARCELO,,LEHNINGER,,MARCELO LEHNINGER,,GRAND RAPIDS SYMPHONY,,,,300 OTTAWA AVE NW STE 100,GRAND RAPIDS,MI,49503-2314,
,,,,,,,,,,,,,,
JOHN,,VARINEAU,,JOHN VARINEAU,,GRAND RAPIDS SYMPHONY,,,,300 OTTAWA AVE NW STE 100,GRAND RAPIDS,MI,49503-2314,
,,,,,,,,,,,,,,
EMMA,,KAIL,,EMMA KAIL,,GRAND TETON MUSIC FESTIVAL,,,175 SOUTH KING SUITE 200,PO BOX 9117,JACKSON,WY,83002-9117,
,,,,,,,,,,,,,,
PAUL,R.,WINBERG,,PAUL R. WINBERG,,GRANT PARK MUSIC FESTIVAL,,,,205 E RANDOLPH ST,CHICAGO,IL,60601-6530,
,,,,,,,,,,,,,,
HILARY,,MERCER,,HILARY MERCER,,GRANT PARK MUSIC FESTIVAL,,,,205 E RANDOLPH ST,CHICAGO,IL,60601-6530,
,,,,,,,,,,,,,,
JUDY,,ZORN,,JUDY ZORN,,GREAT LAKES CHAMBER ORCHESTRA,,,,219 E LAKE ST,PETOSKEY,MI,49770-2415,
,,,,,,,,,,,,,,
GLEN,B.,CORTESE,,GLEN B. CORTESE,,GREELEY PHILHARMONIC ORCHESTRA,,,,PO BOX 1535,GREELEY,CO,80632-1535,
,,,,,,,,,,,,,,
LISA,,CRAWFORD,,LISA CRAWFORD,,GREENSBORO SYMPHONY ORCHESTRA,,,,200 N DAVIE ST STE 10,GREENSBORO,NC,27401-2865,
,,,,,,,,,,,,,,
DMITRY,,SITKOVETSKY,,DMITRY SITKOVETSKY,,GREENSBORO SYMPHONY ORCHESTRA,,,,200 N DAVIE ST STE 10,GREENSBORO,NC,27401-2865,
,,,,,,,,,,,,,,
JULIANNE,M.,FISH,,JULIANNE M. FISH,,GREENVILLE SYMPHONY ORCHESTRA,,,,200 S MAIN ST,GREENVILLE,SC,29601-2832,
,,,,,,,,,,,,,,
EDVARD,,TCHIVZHEL,,EDVARD TCHIVZHEL,,GREENVILLE SYMPHONY ORCHESTRA,,,,200 S MAIN ST,GREENVILLE,SC,29601-2832,
,,,,,,,,,,,,,,
BRAXTON,,BALLEW,,BRAXTON BALLEW,,GREENVILLE SYMPHONY ORCHESTRA,,,,200 S MAIN ST,GREENVILLE,SC,29601-2832,
,,,,,,,,,,,,,,
DAVID,,GILBERT,,DAVID GILBERT,,GREENWICH SYMPHONY ORCHESTRA,,,,PO BOX 35,GREENWICH,CT,06836-0035,
,,,,,,,,,,,,,,
MARY,,RADCLIFFE,,MARY RADCLIFFE,,GREENWICH SYMPHONY ORCHESTRA,,,,PO BOX 35,GREENWICH,CT,06836-0035,
,,,,,,,,,,,,,,
BARBARA,A.,YAHR,,BARBARA A. YAHR,,GREENWICH VILLAGE ORCHESTRA,,,,PO BOX 573,NEW YORK,NY,10014-0573,
,,,,,,,,,,,,,,
JORDAN,,WARREN,,JORDAN WARREN,,GULF COAST SYMPHONY ORCHESTRA,,,,11975 SEAWAY RD STE B233,GULFPORT,MS,39503-6091,
,,,,,,,,,,,,,,
PETER,,RUBARDT,,PETER RUBARDT,,GULF COAST SYMPHONY ORCHESTRA,,,,11975 SEAWAY RD STE B233,GULFPORT,MS,39503-6091,
,,,,,,,,,,,,,,
MATTHEW,,HERREN,,MATTHEW HERREN,,HARRISBURG SYMPHONY ASSOCIATION,,,,800 CORPORATE CIR STE 101,HARRISBURG,PA,17110-9346,
,,,,,,,,,,,,,,
GREGORY,,WOODBRIDGE,,GREGORY WOODBRIDGE,,HARRISBURG SYMPHONY ASSOCIATION,,,,800 CORPORATE CIR STE 101,HARRISBURG,PA,17110-9346,
,,,,,,,,,,,,,,
MARK,,HUNSBERGER,,MARK HUNSBERGER,,HARRISBURG SYMPHONY ASSOCIATION,,,,800 CORPORATE CIR STE 101,HARRISBURG,PA,17110-9346,
,,,,,,,,,,,,,,
STEPHEN,,COLLINS,,STEPHEN COLLINS,,HARTFORD SYMPHONY ORCHESTRA,,,,166 CAPITOL AVE,HARTFORD,CT,06106-1621,
,,,,,,,,,,,,,,
CAROLYN,,KUAN,,CAROLYN KUAN,,HARTFORD SYMPHONY ORCHESTRA,,,,166 CAPITOL AVE,HARTFORD,CT,06106-1621,
,,,,,,,,,,,,,,
ADAM,KERRY,BOYLES,,ADAM KERRY BOYLES,,HARTFORD SYMPHONY ORCHESTRA,,,,166 CAPITOL AVE,HARTFORD,CT,06106-1621,
,,,,,,,,,,,,,,
COLETTE,,HALL,,COLETTE HALL,,HARTFORD SYMPHONY ORCHESTRA,,,,166 CAPITOL AVE,HARTFORD,CT,06106-1621,
,,,,,,,,,,,,,,
DAVID,,COMMANDAY,,DAVID COMMANDAY,,HEARTLAND FESTIVAL ORCHESTRA,,,,8500 N KNOXVILLE AVE STE G,PEORIA,IL,61615-2087,
,,,,,,,,,,,,,,
REHANNA,,OLSON,,REHANNA OLSON,,HELENA SYMPHONY,,,,21 N LAST CHANCE GULCH STE 100,HELENA,MT,59601-4199,
,,,,,,,,,,,,,,
ALLAN,,SCOTT,,ALLAN SCOTT,,HELENA SYMPHONY,,,,21 N LAST CHANCE GULCH STE 100,HELENA,MT,59601-4199,
,,,,,,,,,,,,,,
ALEXANDRA,,ARRIECHE,,ALEXANDRA ARRIECHE,,HENDERSON SYMPHONY ORCHESTRA,,,,393 STEPROCK CT,HENDERSON,NV,89014-4550,
,,,,,,,,,,,,,,
MICHAEL,,WEAVER,,MICHAEL WEAVER,,HENDERSONVILLE SYMPHONY ORCHESTRA,,,,PO BOX 1811,HENDERSONVLLE,NC,28793-1811,
,,,,,,,,,,,,,,
ALAN,,JORDAN,,ALAN JORDAN,,HILTON HEAD SYMPHONY ORCHESTRA,,,,7 LAGOON RD UNIT 100,HILTON HEAD,SC,29928-6561,
,,,,,,,,,,,,,,
MONA,,HUFF,,MONA HUFF,,HILTON HEAD SYMPHONY ORCHESTRA,,,,37 ROSE HILL DR,BLUFFTON,SC,29910-4720,
,,,,,,,,,,,,,,
GAYLE,,LANG,,GAYLE LANG,,HILTON HEAD SYMPHONY ORCHESTRA,,,,PO BOX 5757,HILTON HEAD,SC,29938-5757,
,,,,,,,,,,,,,,
JOSEPH,,GIMBEL,,JOSEPH GIMBEL,,HILTON HEAD SYMPHONY ORCHESTRA,,,,PO BOX 5757,HILTON HEAD,SC,29938-5757,
,,,,,,,,,,,,,,
JOHANNES,MULLER,STOSCH,,JOHANNES MULLER STOSCH,,HOLLAND SYMPHONY ORCHESTRA,,,,PO BOX 2685,HOLLAND,MI,49422-2685,
,,,,,,,,,,,,,,
KAY,,WALVOORD,,KAY WALVOORD,,HOLLAND SYMPHONY ORCHESTRA,,,,PO BOX 2685,HOLLAND,MI,49422-2685,
,,,,,,,,,,,,,,
ROVION,,REED,,ROVION REED,,HOUSTON SYMPHONY,,,,615 LOUISIANA ST STE 102,HOUSTON,TX,77002-2715,
,,,,,,,,,,,,,,
ALLISON,,CONLAN,,ALLISON CONLAN,,HOUSTON SYMPHONY,,,,615 LOUISIANA ST STE 102,HOUSTON,TX,77002-2715,
,,,,,,,,,,,,,,
PAM,,BLAINE,,PAM BLAINE,,HOUSTON SYMPHONY,,,,615 LOUISIANA ST STE 102,HOUSTON,TX,77002-2715,
,,,,,,,,,,,,,,
REBECCA,,ZABINSKI,,REBECCA ZABINSKI,,HOUSTON SYMPHONY,,,,615 LOUISIANA ST STE 102,HOUSTON,TX,77002-2715,
,,,,,,,,,,,,,,
JANET,,SKIDMORE,,JANET SKIDMORE,,HUNTSVILLE SYMPHONY ORCHESTRA GUILD,,,,PO BOX 2400,HUNTSVILLE,AL,35804-2400,
,,,,,,,,,,,,,,
ALEKZANDRIA,,PEUGH,,ALEKZANDRIA PEUGH,,IDAHO FALLS SYMPHONY,,,,440 N CAPITAL AVE STE B,IDAHO FALLS,ID,83402-4955,
,,,,,,,,,,,,,,
GEORGE,,ADAMS,,GEORGE ADAMS,,IDAHO STATE-CIVIC SYMPHONY,,,,P.O. BOX 8099,POCATELLO,ID,83209-0001,
,,,,,,,,,,,,,,
RON,,BOLINGER,,RON BOLINGER,,IDAHO STATE-CIVIC SYMPHONY,,,,P.O. BOX 8099,POCATELLO,ID,83209-0001,
,,,,,,,,,,,,,,
CHRISTINA,,SALERNO,,CHRISTINA SALERNO,,ILLINOIS PHILHARMONIC ORCHESTRA,,,,377 ARTISTS WALK,PARK FOREST,IL,60466-2059,
,,,,,,,,,,,,,,
PHILLIP,WOODROW,SERNA,,PHILLIP WOODROW SERNA,,ILLINOIS PHILHARMONIC ORCHESTRA,,,,377 ARTISTS WALK,PARK FOREST,IL,60466-2059,
,,,,,,,,,,,,,,
STILIAN,,KIROV,,STILIAN KIROV,,ILLINOIS PHILHARMONIC ORCHESTRA,,,,377 ARTISTS WALK,PARK FOREST,IL,60466-2059,
,,,,,,,,,,,,,,
ELAINE,,COUSINS,,ELAINE COUSINS,,ILLINOIS SYMPHONY ORCHESTRA,,,,1 ALDER CT,BLOOMINGTON,IL,61704-2834,
,,,,,,,,,,,,,,
MARK,,THIELEN,,MARK THIELEN,,IMPERIAL SYMPHONY ORCHESTRA INC,,,,1035 S FLORIDA AVE STE 205,LAKELAND,FL,33803-1100,
,,,,,,,,,,,,,,
DANA,E.,STONE,,DANA E. STONE,,INDIANAPOLIS CHAMBER ORCHESTRA,,,,4603 CLARENDON RD STE 36,INDIANAPOLIS,IN,46208-6402,
,,,,,,,,,,,,,,
MATTHEW,K.,KRAEMER,,MATTHEW K. KRAEMER,,INDIANAPOLIS CHAMBER ORCHESTRA,,,,4603 CLARENDON RD STE 36,INDIANAPOLIS,IN,46208-6402,
,,,,,,,,,,,,,,
JAMES,M.,JOHNSON,,JAMES M. JOHNSON,,INDIANAPOLIS SYMPHONY ORCHESTRA,,,,32 E WASHINGTON ST STE 600,INDIANAPOLIS,IN,46204-2919,
,,,,,,,,,,,,,,
TY,,JOHNSON,,TY JOHNSON,,INDIANAPOLIS SYMPHONY ORCHESTRA,,,,32 E WASHINGTON ST STE 600,INDIANAPOLIS,IN,46204-2919,
,,,,,,,,,,,,,,
BRANDY,,RODGERS,,BRANDY RODGERS,,INDIANAPOLIS SYMPHONY ORCHESTRA,,,,32 E WASHINGTON ST STE 600,INDIANAPOLIS,IN,46204-2919,
,,,,,,,,,,,,,,
BETTY,,PERRY,,BETTY PERRY,,INDIANAPOLIS SYMPHONY ORCHESTRA,,,,32 E WASHINGTON ST STE 600,INDIANAPOLIS,IN,46204-2919,
,,,,,,,,,,,,,,
MATTHEW,,AUBIN,,MATTHEW AUBIN,,JACKSON SYMPHONY ORCHESTRA,,,,215 W MICHIGAN AVE,JACKSON,MI,49201-2218,
,,,,,,,,,,,,,,
ROSS,,TRINER,,ROSS TRINER,,JACKSONVILLE SYMPHONY,,,,3720 ANTISDALE ST,JACKSONVILLE,FL,32205-5355,
,,,,,,,,,,,,,,
STEVEN,B.,LIBMAN,,STEVEN B. LIBMAN,,JACKSONVILLE SYMPHONY,,,,300 WATER ST STE 200,JACKSONVILLE,FL,32202-4443,
,,,,,,,,,,,,,,
COURTNEY,,LEWIS,,COURTNEY LEWIS,,JACKSONVILLE SYMPHONY,,,,300 WATER ST STE 200,JACKSONVILLE,FL,32202-4443,
,,,,,,,,,,,,,,
MARIANNE,,RICE,,MARIANNE RICE,,JACKSONVILLE SYMPHONY,,,,300 WATER ST STE 200,JACKSONVILLE,FL,32202-4443,
,,,,,,,,,,,,,,
JILL,,WEISBLATT,,JILL WEISBLATT,,JACKSONVILLE SYMPHONY,,,,300 WATER ST STE 200,JACKSONVILLE,FL,32202-4443,
,,,,,,,,,,,,,,
TONY,,NICKLE,,TONY NICKLE,,JACKSONVILLE SYMPHONY,,,,300 WATER ST STE 200,JACKSONVILLE,FL,32202-4443,
,,,,,,,,,,,,,,
KATIE,,HALLENBECK,,KATIE HALLENBECK,,JOHNSON CITY SYMPHONY ORCHESTRA,,,,1907 N ROAN ST STE 403,JOHNSON CITY,TN,37601-3182,
,,,,,,,,,,,,,,
ROBERT,,SEEBACHER,,ROBERT SEEBACHER,,JOHNSON CITY SYMPHONY ORCHESTRA,,,,1907 N ROAN ST STE 403,JOHNSON CITY,TN,37601-3182,
,,,,,,,,,,,,,,
CHARLOTTE,,TRUITT,,CHARLOTTE TRUITT,,JUNEAU SYMPHONY,,,,PO BOX 21236,JUNEAU,AK,99802-1236,
,,,,,,,,,,,,,,
JESSICA,MALLOW,GULLEY,,JESSICA MALLOW GULLEY,,KALAMAZOO SYMPHONY ORCHESTRA,,,,359 S KALAMAZOO MALL STE 100,KALAMAZOO,MI,49007-4843,
,,,,,,,,,,,,,,
DANIEL,,BRIER,,DANIEL BRIER,,KALAMAZOO SYMPHONY ORCHESTRA,,,,359 S KALAMAZOO MALL STE 100,KALAMAZOO,MI,49007-4843,
,,,,,,,,,,,,,,
ELIZABETH,,YOUKER,,ELIZABETH YOUKER,,KALAMAZOO SYMPHONY ORCHESTRA,,,,359 S KALAMAZOO MALL STE 100,KALAMAZOO,MI,49007-4843,
,,,,,,,,,,,,,,
BENJAMIN,,MITCHELL,,BENJAMIN MITCHELL,,KALEIDOSCOPE CHAMBER ORCHESTRA,,,,PO BOX 251801,LOS ANGELES,CA,90025-9167,
,,,,,,,,,,,,,,
JOEL,E.,GIMPEL,,JOEL E. GIMPEL,,KAMUELA PHILHARMONIC ORCHESTRA,,,,PO BOX 2597,KAMUELA,HI,96743-2597,
,,,,,,,,,,,,,,
BRIAN,R.,DOLLINGER,,BRIAN R. DOLLINGER,,KAMUELA PHILHARMONIC ORCHESTRA,,,,PO BOX 2597,KAMUELA,HI,96743-2597,
,,,,,,,,,,,,,,
BRUCE,,SORRELL,,BRUCE SORRELL,,KANSAS CITY CHAMBER ORCHESTRA,,,,205 W 65TH ST,KANSAS CITY,MO,64113-1704,
,,,,,,,,,,,,,,
MARYBETH,,SORRELL,,MARYBETH SORRELL,,KANSAS CITY CHAMBER ORCHESTRA,,,,205 W 65TH ST,KANSAS CITY,MO,64113-1704,
,,,,,,,,,,,,,,
CHRISTOPHER,,KELTS,,CHRISTOPHER KELTS,,KANSAS CITY CIVIC ORCHESTRA,,,,PO BOX 224,SHAWNEE MSN,KS,66201-0224,
,,,,,,,,,,,,,,
STEPHANIE,,BRIMHALL,,STEPHANIE BRIMHALL,,KANSAS CITY SYMPHONY,,,,1644 WYANDOTTE ST,KANSAS CITY,MO,64108-1224,
,,,,,,,,,,,,,,
DANIEL,E.,BECKLEY,,DANIEL E. BECKLEY,,KANSAS CITY SYMPHONY,,,,1644 WYANDOTTE ST,KANSAS CITY,MO,64108-1224,
,,,,,,,,,,,,,,
KATE,,BREYTSPRAAK,,KATE BREYTSPRAAK,,KANSAS CITY SYMPHONY,,,,1644 WYANDOTTE ST,KANSAS CITY,MO,64108-1224,
,,,,,,,,,,,,,,
JUSTIN,,WHITE,,JUSTIN WHITE,,KANSAS CITY SYMPHONY,,,,1644 WYANDOTTE ST,KANSAS CITY,MO,64108-1224,
,,,,,,,,,,,,,,
MICHAEL,,HALL,,MICHAEL HALL,,KENNETT SYMPHONY,,,,PO BOX 72,KENNETT SQ,PA,19348-0072,
,,,,,,,,,,,,,,
MONICA,,BUFFINGTON,,MONICA BUFFINGTON,,KENNETT SYMPHONY,,,,PO BOX 72,KENNETT SQ,PA,19348-0072,
,,,,,,,,,,,,,,
ROBERT,G.,HASTY,,ROBERT G. HASTY,,KENOSHA SYMPHONY ORCHESTRA,,,,624 57TH ST,KENOSHA,WI,53140-4113,
,,,,,,,,,,,,,,
GEOFFREY,B.,GALLEGOS,,GEOFFREY B. GALLEGOS,,KENSINGTON SYMPHONY ORCHESTRA,,,,PO BOX 7124,BERKELEY,CA,94707-0124,
,,,,,,,,,,,,,,
RACHEL,A.,FORD,,RACHEL A. FORD,,KNOXVILLE SYMPHONY ORCHESTRA,,,,100 S GAY ST STE 301,KNOXVILLE,TN,37902-1257,
,,,,,,,,,,,,,,
JAMES,,FELLENBAUM,,JAMES FELLENBAUM,,KNOXVILLE SYMPHONY ORCHESTRA,,,,100 S GAY ST STE 301,KNOXVILLE,TN,37902-1257,
,,,,,,,,,,,,,,
ARAM,,DEMIRJIAN,,ARAM DEMIRJIAN,,KNOXVILLE SYMPHONY ORCHESTRA,,,,100 S GAY ST STE 301,KNOXVILLE,TN,37902-1257,
,,,,,,,,,,,,,,
JENNIFER,BARNETT,HARRELL,,JENNIFER BARNETT HARRELL,,KNOXVILLE SYMPHONY ORCHESTRA,,,,100 S GAY ST STE 301,KNOXVILLE,TN,37902-1257,
,,,,,,,,,,,,,,
DOMINIQUE,,LUECKE,,DOMINIQUE LUECKE,,LA CROSSE SYMPHONY ORCHESTRA,,,,201 MAIN ST STE 230,LA CROSSE,WI,54601-0714,
,,,,,,,,,,,,,,
STEPHANIE,,WEAVER,,STEPHANIE WEAVER,,LA JOLLA SYMPHONY AND CHORUS,,,,9500 GILMAN DRIVE UCSD 0361,LA JOLLA,CA,92093-0361,
,,,,,,,,,,,,,,
TIM,,KING,,TIM KING,,LA PORTE COUNTY SYMPHONY ORCHESTRA,,,,PO BOX 563,LA PORTE,IN,46352-0563,
,,,,,,,,,,,,,,
CAROLYN,,WATSON,,CAROLYN WATSON,,LA PORTE COUNTY SYMPHONY ORCHESTRA,,,,PO BOX 563,LA PORTE,IN,46352-0563,
,,,,,,,,,,,,,,
CHARLES,,STECK,,CHARLES STECK,,LA PORTE COUNTY SYMPHONY ORCHESTRA,,,,PO BOX 563,LA PORTE,IN,46352-0563,
,,,,,,,,,,,,,,
JOS,,VALENCIA,,JOS VALENCIA,,LAFAYETTE SYMPHONY ORCHESTRA,,,,PO BOX 52,LAFAYETTE,IN,47902-0052,
,,,,,,,,,,,,,,
NICHOLAS,,PALMER,,NICHOLAS PALMER,,LAFAYETTE SYMPHONY ORCHESTRA,,,,PO BOX 52,LAFAYETTE,IN,47902-0052,
,,,,,,,,,,,,,,
SARA,,MUMMEY,,SARA MUMMEY,,LAFAYETTE SYMPHONY ORCHESTRA,,,,PO BOX 52,LAFAYETTE,IN,47902-0052,
,,,,,,,,,,,,,,
RAYLENE,MORRIS,CARTER,,RAYLENE MORRIS CARTER,,LAGRANGE SYMPHONY ORCHESTRA,,,,301 CHURCH ST,LAGRANGE,GA,30240-2713,
,,,,,,,,,,,,,,
RICHARD,,PRIOR,,RICHARD PRIOR,,LAGRANGE SYMPHONY ORCHESTRA,,,,301 CHURCH ST,LAGRANGE,GA,30240-2713,
,,,,,,,,,,,,,,
RACHEL,,MILLER,,RACHEL MILLER,,LAKE FOREST SYMPHONY,,,,400 E ILLINOIS RD,LAKE FOREST,IL,60045-2355,
,,,,,,,,,,,,,,
DAVID,,ANDERSON,,DAVID ANDERSON,,"LAKE GENEVA SYMPHONY ORCHESTRA, INC.",,,,PO BOX 92,LAKE GENEVA,WI,53147-0092,
,,,,,,,,,,,,,,
DEBORAH,SUTIN,FITTS,,DEBORAH SUTIN FITTS,,LAKE PLACID SINFONIETTA,,,,PO BOX 1303,LAKE PLACID,NY,12946-5303,
,,,,,,,,,,,,,,
RUSS,,VINICK,,RUSS VINICK,,LAKE SHORE SYMPHONY ORCHESTRA,,,,PO BOX 57237,CHICAGO,IL,60657-7347,
,,,,,,,,,,,,,,
COURTNEY,,MILLBROOK,,COURTNEY MILLBROOK,,LANSING SYMPHONY ORCHESTRA,,,,104 S WASHINGTON SQ STE 300,LANSING,MI,48933-1704,
,,,,,,,,,,,,,,
TIMOTHY,,MUFFITT,,TIMOTHY MUFFITT,,LANSING SYMPHONY ORCHESTRA,,,,104 S WASHINGTON SQ STE 300,LANSING,MI,48933-1704,
,,,,,,,,,,,,,,
BRENDAN,,TOWNSEND,,BRENDAN TOWNSEND,,LAREDO PHILHARMONIC ORCHESTRA,,,,PO BOX 451644,LAREDO,TX,78045-0040,
,,,,,,,,,,,,,,
DEBRA,MEDOFF,MARKS,,DEBRA MEDOFF MARKS,,LAS CRUCES SYMPHONY ORCHESTRA,,,,PO BOX 1622,LAS CRUCES,NM,88004-1622,
,,,,,,,,,,,,,,
SHEA,,ARENDER,,SHEA ARENDER,,LAS VEGAS SYMPHONY ORCHESTRA,,,,4245 S GRAND CANYON DR UNIT 123,LAS VEGAS,NV,89147-7163,
,,,,,,,,,,,,,,
ULI,,GEISSENDOERFER,,ULI GEISSENDOERFER,,LAS VEGAS SYMPHONY ORCHESTRA,,,,4245 S GRAND CANYON DR UNIT 123,LAS VEGAS,NV,89147-7163,
,,,,,,,,,,,,,,
ALLISON,,KAISER,,ALLISON KAISER,,LEXINGTON PHILHARMONIC,,,,161 N MILL ST,LEXINGTON,KY,40507-1125,
,,,,,,,,,,,,,,
EVELYNN,,ESQUIVEL,,EVELYNN ESQUIVEL,,LEXINGTON PHILHARMONIC,,,,161 N MILL ST,LEXINGTON,KY,40507-1125,
,,,,,,,,,,,,,,
ANNE,,HOWARTH,,ANNE HOWARTH,,LEXINGTON SYMPHONY,,,,PO BOX 194,LEXINGTON,MA,02420-0002,
,,,,,,,,,,,,,,
JONATHAN,,MCPHEE,,JONATHAN MCPHEE,,LEXINGTON SYMPHONY,,,,PO BOX 194,LEXINGTON,MA,02420-0002,
,,,,,,,,,,,,,,
ELIZABETH,,BROWN-ELLIS,,ELIZABETH BROWN-ELLIS,,LIMA SYMPHONY ORCHESTRA,,,,1028 W MARKET ST,LIMA,OH,45805-2730,
,,,,,,,,,,,,,,
BARBARA,ZACH,LEE,,BARBARA ZACH LEE,,LINCOLN'S SYMPHONY ORCHESTRA,,,,233 S 13TH ST STE 1702,LINCOLN,NE,68508-2003,
,,,,,,,,,,,,,,
EDWARD,,POLOCHICK,,EDWARD POLOCHICK,,LINCOLN'S SYMPHONY ORCHESTRA,,,,233 S 13TH ST STE 1702,LINCOLN,NE,68508-2003,
,,,,,,,,,,,,,,
KELLY,,LUCERA,,KELLY LUCERA,,LONG BEACH SYMPHONY ORCHESTRA,,,,249 E OCEAN BLVD STE 200,LONG BEACH,CA,90802-4892,
,,,,,,,,,,,,,,
ECKART,,PREU,,ECKART PREU,,LONG BEACH SYMPHONY ORCHESTRA,,,,249 E OCEAN BLVD STE 200,LONG BEACH,CA,90802-4892,
,,,,,,,,,,,,,,
CATHERINE,,BEESON,,CATHERINE BEESON,,LONGMONT SYMPHONY ORCHESTRA,,,,PO BOX 74,LONGMONT,CO,80502-0074,
,,,,,,,,,,,,,,
ELLIOT,,MOORE,,ELLIOT MOORE,,LONGMONT SYMPHONY ORCHESTRA,,,,PO BOX 74,LONGMONT,CO,80502-0074,
,,,,,,,,,,,,,,
ROBERT,H.,OLSON,,ROBERT H. OLSON,,LONGMONT SYMPHONY ORCHESTRA,,,,PO BOX 74,LONGMONT,CO,80502-0074,
,,,,,,,,,,,,,,
BENJAMIN,,CADWALLADER,,BENJAMIN CADWALLADER,,LOS ANGELES CHAMBER ORCHESTRA,,,,510 W 6TH ST STE 1001,LOS ANGELES,CA,90014-1321,
,,,,,,,,,,,,,,
JAIME,,MARTFN,,JAIME MARTFN,,LOS ANGELES CHAMBER ORCHESTRA,,,,510 W 6TH ST STE 1001,LOS ANGELES,CA,90014-1321,
,,,,,,,,,,,,,,
ELSJE,,KIBLER-VERMAAS,,ELSJE KIBLER-VERMAAS,,LOS ANGELES PHILHARMONIC,,,,151 S GRAND AVE,LOS ANGELES,CA,90012-3034,
,,,,,,,,,,,,,,
KRISTEN,,FLOCK-RITCHIE,,KRISTEN FLOCK-RITCHIE,,LOS ANGELES PHILHARMONIC,,,,151 S GRAND AVE,LOS ANGELES,CA,90012-3034,
,,,,,,,,,,,,,,
LAURA,,CONNELLY,,LAURA CONNELLY,,LOS ANGELES PHILHARMONIC,,,,151 S GRAND AVE,LOS ANGELES,CA,90012-3034,
,,,,,,,,,,,,,,
MEGHAN,R.,MARTINEAU,,MEGHAN R. MARTINEAU,,LOS ANGELES PHILHARMONIC,,,,151 S GRAND AVE,LOS ANGELES,CA,90012-3034,
,,,,,,,,,,,,,,
EMILY,,BOURNE,,EMILY BOURNE,,LOS ANGELES PHILHARMONIC,,,,151 S GRAND AVE,LOS ANGELES,CA,90012-3034,
,,,,,,,,,,,,,,
ANWAR,,NASIR,,ANWAR NASIR,,LOUISIANA PHILHARMONIC ORCHESTRA,,,,2533 COLUMBUS ST STE 202,NEW ORLEANS,LA,70119-2388,
,,,,,,,,,,,,,,
CARLOS,MIGUEL,PRIETO,,CARLOS MIGUEL PRIETO,,LOUISIANA PHILHARMONIC ORCHESTRA,,,,2533 COLUMBUS ST STE 202,NEW ORLEANS,LA,70119-2388,
,,,,,,,,,,,,,,
AMANDA,,BOHREN,,AMANDA BOHREN,,LOUISIANA PHILHARMONIC ORCHESTRA,,,,2533 COLUMBUS ST STE 202,NEW ORLEANS,LA,70119-2388,
,,,,,,,,,,,,,,
TONYA,,MCSORLEY,,TONYA MCSORLEY,,LOUISVILLE ORCHESTRA,,,,620 W MAIN ST STE 600,LOUISVILLE,KY,40202-2973,
,,,,,,,,,,,,,,
TEDDY,,ABRAMS,,TEDDY ABRAMS,,LOUISVILLE ORCHESTRA,,,,620 W MAIN ST STE 600,LOUISVILLE,KY,40202-2973,
,,,,,,,,,,,,,,
SARAH,LEMPKE,OHARE,,SARAH LEMPKE OHARE,,LOUISVILLE ORCHESTRA,,,,620 W MAIN ST STE 600,LOUISVILLE,KY,40202-2973,
,,,,,,,,,,,,,,
MATTHEW,L.,FELDMAN,,MATTHEW L. FELDMAN,,LOUISVILLE ORCHESTRA,,,,620 W MAIN ST STE 600,LOUISVILLE,KY,40202-2973,
,,,,,,,,,,,,,,
THOMAS,,KOCIELA,,THOMAS KOCIELA,,LOWELL PHILHARMONIC ORCHESTRA,,,,PO BOX 1403,LOWELL,MA,01853-1403,
,,,,,,,,,,,,,,
GALEN,C.,WIXSON,,GALEN C. WIXSON,,LUBBOCK SYMPHONY ORCHESTRA,,,,601 AVENUE K,LUBBOCK,TX,79401-1842,
,,,,,,,,,,,,,,
DAVID,IN-JAE,CHO,,DAVID IN-JAE CHO,,LUBBOCK SYMPHONY ORCHESTRA,,,,601 AVENUE K,LUBBOCK,TX,79401-1842,
,,,,,,,,,,,,,,
JEANETTE,,MARKEE,,JEANETTE MARKEE,,LUBBOCK SYMPHONY ORCHESTRA,,,,601 AVENUE K,LUBBOCK,TX,79401-1842,
,,,,,,,,,,,,,,
ANN,H.,BOWEN,,ANN H. BOWEN,,MADISON SYMPHONY ORCHESTRA,,,,222 W WASHINGTON AVE STE 460,MADISON,WI,53703-2744,
,,,,,,,,,,,,,,
JOHN,,DEMAIN,,JOHN DEMAIN,,MADISON SYMPHONY ORCHESTRA,,,,222 W WASHINGTON AVE STE 460,MADISON,WI,53703-2744,
,,,,,,,,,,,,,,
KATHRYN,,SCHWARZMANN,,KATHRYN SCHWARZMANN,,MADISON SYMPHONY ORCHESTRA,,,,222 W WASHINGTON AVE STE 460,MADISON,WI,53703-2744,
,,,,,,,,,,,,,,
THEODORE,,HADLEY,,THEODORE HADLEY,,MAGIC VALLEY SYMPHONY ORCHESTRA,,,,PO BOX 1805,TWIN FALLS,ID,83303-1805,
,,,,,,,,,,,,,,
HANNAH,,BRETZ,,HANNAH BRETZ,,MANKATO SYMPHONY ORCHESTRA,,,523 SOUTH SECOND STREET,PO BOX 645,MANKATO,MN,56002-0645,
,,,,,,,,,,,,,,
TOD,,BRODY,,TOD BRODY,,MARIN SYMPHONY ASSOCIATION,,,,4340 REDWOOD HWY STE 409,SAN RAFAEL,CA,94903-2104,
,,,,,,,,,,,,,,
JENNY,,DOUGLASS,,JENNY DOUGLASS,,MARIN SYMPHONY ASSOCIATION,,,,4340 REDWOOD HWY STE 409,SAN RAFAEL,CA,94903-2104,
,,,,,,,,,,,,,,
JONATHAN,,PARRISH,,JONATHAN PARRISH,,MARYLAND SYMPHONY ORCHESTRA,,,,21 S POTOMAC ST FL 2,HAGERSTOWN,MD,21740-5512,
,,,,,,,,,,,,,,
ELIZABETH,,SCHULZE,,ELIZABETH SCHULZE,,MARYLAND SYMPHONY ORCHESTRA,,,,21 S POTOMAC ST FL 2,HAGERSTOWN,MD,21740-5512,
,,,,,,,,,,,,,,
ANNA,,LIPOWITZ,,ANNA LIPOWITZ,,MARYLAND SYMPHONY ORCHESTRA,,,,21 S POTOMAC ST FL 2,HAGERSTOWN,MD,21740-5512,
,,,,,,,,,,,,,,
CHERYL,,LINDLEY,,CHERYL LINDLEY,,MAUI POPS ORCHESTRA,,,,95 MAHALANI ST RM 6,WAILUKU,HI,96793-2521,
,,,,,,,,,,,,,,
JIM,,DURHAM,,JIM DURHAM,,MAUI POPS ORCHESTRA,,,,95 MAHALANI ST RM 6,WAILUKU,HI,96793-2521,
,,,,,,,,,,,,,,
KATY,,COY,,KATY COY,,MCALLEN - VALLEY SYMPHONY ORCHESTRA,,,,PO BOX 2832,MCALLEN,TX,78502-2832,
,,,,,,,,,,,,,,
PETER,,DABROWSKI,,PETER DABROWSKI,,MCALLEN - VALLEY SYMPHONY ORCHESTRA,,,,PO BOX 2832,MCALLEN,TX,78502-2832,
,,,,,,,,,,,,,,
ANTOINE,,PLANTE,,ANTOINE PLANTE,,MERCURY CHAMBER ORCHESTRA,,,,3100 TIMMONS LN STE 201,HOUSTON,TX,77027-5966,
,,,,,,,,,,,,,,
JUDY,,FROW,,JUDY FROW,,MERCURY CHAMBER ORCHESTRA,,,,3100 TIMMONS LN STE 201,HOUSTON,TX,77027-5966,
,,,,,,,,,,,,,,
CARRA,,PURVIS,,CARRA PURVIS,,MERIDIAN SYMPHONY ASSOCIATION,,,,PO BOX 2171,MERIDIAN,MS,39302-2171,
,,,,,,,,,,,,,,
JAMES,,OGLE,,JAMES OGLE,,MERIDIAN SYMPHONY ORCHESTRA,,,,PO BOX 1016,MERIDIAN,ID,83680-1016,
,,,,,,,,,,,,,,
WILLIAM,,SCHRICKEL,,WILLIAM SCHRICKEL,,METROPOLITAN SYMPHONY ORCHESTRA,,,,PO BOX 581213,MINNEAPOLIS,MN,55458-1213,
,,,,,,,,,,,,,,
EDUARDO,,MARTURET,,EDUARDO MARTURET,,MIAMI SYMPHONY ORCHESTRA,,,,3900 N MIAMI AVE FL 1,MIAMI,FL,33127-2918,
,,,,,,,,,,,,,,
MARICARMEN,,TREDUNLO,,MARICARMEN TREDUNLO,,MIAMI SYMPHONY ORCHESTRA,,,,3900 N MIAMI AVE FL 1,MIAMI,FL,33127-2918,
,,,,,,,,,,,,,,
BETH,,STEWART,,BETH STEWART,,MICHIGAN PHILHARMONIC,,,,PO BOX 6379,PLYMOUTH,MI,48170-0300,
,,,,,,,,,,,,,,
NAN,HARRISON,WASHBURN,,NAN HARRISON WASHBURN,,MICHIGAN PHILHARMONIC,,,,PO BOX 6379,PLYMOUTH,MI,48170-0300,
,,,,,,,,,,,,,,
ADRIENNE,,FLETCHER,,ADRIENNE FLETCHER,,MID-COLUMBIA SYMPHONY,,,,1177 JADWIN AVE STE 103,RICHLAND,WA,99352-3404,
,,,,,,,,,,,,,,
KATIE,,CRENSHAW,,KATIE CRENSHAW,,MID-COLUMBIA SYMPHONY,,,,1177 JADWIN AVE STE 103,RICHLAND,WA,99352-3404,
,,,,,,,,,,,,,,
NICHOLAS,,WALLIN,,NICHOLAS WALLIN,,MID-COLUMBIA SYMPHONY,,,,1177 JADWIN AVE STE 103,RICHLAND,WA,99352-3404,
,,,,,,,,,,,,,,
AKIKO,,FUJIMOTO,,AKIKO FUJIMOTO,,"MID-TEXAS SYMPHONY SOCIETY, INC.",,,,1000 W COURT ST UNIT 3216,SEGUIN,TX,78155-5978,
,,,,,,,,,,,,,,
JASON,,IRLE,,JASON IRLE,,"MID-TEXAS SYMPHONY SOCIETY, INC.",,,,1000 W COURT ST UNIT 3216,SEGUIN,TX,78155-5978,
,,,,,,,,,,,,,,
MATTHEW,,TRAVIS,,MATTHEW TRAVIS,,MIDLAND SYMPHONY ORCHESTRA,,,,1801 W SAINT ANDREWS RD,MIDLAND,MI,48640-2656,
,,,,,,,,,,,,,,
ETHAN,,WILLS,,ETHAN WILLS,,MIDLAND-ODESSA SYMPHONY & CHORALE,,,,PO BOX 60658,MIDLAND,TX,79711-0658,
,,,,,,,,,,,,,,
GARY,,LEWIS,,GARY LEWIS,,MIDLAND-ODESSA SYMPHONY & CHORALE,,,,PO BOX 60658,MIDLAND,TX,79711-0658,
,,,,,,,,,,,,,,
MICHELLE,MILLER,BURNS,,MICHELLE MILLER BURNS,,MINNESOTA ORCHESTRA,,,,1111 NICOLLET MALL,MINNEAPOLIS,MN,55403-2477,
,,,,,,,,,,,,,,
MICHAEL,,MOSSAAD,,MICHAEL MOSSAAD,,MINNESOTA ORCHESTRA,,,,1111 NICOLLET MALL,MINNEAPOLIS,MN,55403-2477,
,,,,,,,,,,,,,,
JESSI,,RYAN,,JESSI RYAN,,MINNESOTA ORCHESTRA,,,,1111 NICOLLET MALL,MINNEAPOLIS,MN,55403-2477,
,,,,,,,,,,,,,,
KARI,,MARSHALL,,KARI MARSHALL,,MINNESOTA ORCHESTRA,,,,1111 NICOLLET MALL,MINNEAPOLIS,MN,55403-2477,
,,,,,,,,,,,,,,
EFRAIN,,AMAYA,,EFRAIN AMAYA,,MINOT SYMPHONY ORCHESTRA,,,,500 UNIVERSITY AVE W,MINOT,ND,58707-0001,
,,,,,,,,,,,,,,
JORDAN,,SELBURN,,JORDAN SELBURN,,MISSION CHAMBER ORCHESTRA OF SAN JOSE,,,,PO BOX 32872,SAN JOSE,CA,95152-2872,
,,,,,,,,,,,,,,
DARKO,,BUTORAC,,DARKO BUTORAC,,MISSOULA SYMPHONY ORCHESTRA,,,,PO BOX 8301,MISSOULA,MT,59807-8301,
,,,,,,,,,,,,,,
JO,MAY,SALONEN,,JO MAY SALONEN,,MISSOULA SYMPHONY ORCHESTRA,,,,PO BOX 8301,MISSOULA,MT,59807-8301,
,,,,,,,,,,,,,,
JULIA,,TAI,,JULIA TAI,,MISSOULA SYMPHONY ORCHESTRA,,,,PO BOX 8301,MISSOULA,MT,59807-8301,
,,,,,,,,,,,,,,
KIRK,,TREVOR,,KIRK TREVOR,,MISSOURI SYMPHONY ORCHESTRA,,,,PO BOX 841,COLUMBIA,MO,65205-0841,
,,,,,,,,,,,,,,
TRENT,,RASH,,TRENT RASH,,MISSOURI SYMPHONY ORCHESTRA,,,,PO BOX 841,COLUMBIA,MO,65205-0841,
,,,,,,,,,,,,,,
CELIA,MANN,BAEHR,,CELIA MANN BAEHR,,MOBILE SYMPHONY ORCHESTRA,,,,257 DAUPHIN ST,MOBILE,AL,36602-2719,
,,,,,,,,,,,,,,
SCOTT,,SPECK,,SCOTT SPECK,,MOBILE SYMPHONY ORCHESTRA,,,,257 DAUPHIN ST,MOBILE,AL,36602-2719,
,,,,,,,,,,,,,,
CARMEN,DANIELLE,PARDO,,CARMEN DANIELLE PARDO,,MOBILE SYMPHONY ORCHESTRA,,,,257 DAUPHIN ST,MOBILE,AL,36602-2719,
,,,,,,,,,,,,,,
CAROLINE,,NICKEL,,CAROLINE NICKEL,,MODESTO SYMPHONY ORCHESTRA ASSOCIATION,,,,911 13TH ST,MODESTO,CA,95354-0903,
,,,,,,,,,,,,,,
ANDRE,,WEKER,,ANDRE WEKER,,MONTCLAIR ORCHESTRA,,,,251 PARK ST STE 2,MONTCLAIR,NJ,07043-1798,
,,,,,,,,,,,,,,
DAVID,,CHAN,,DAVID CHAN,,MONTCLAIR ORCHESTRA,,,,251 PARK ST STE 2,MONTCLAIR,NJ,07043-1798,
,,,,,,,,,,,,,,
SCOTT,,WATKINS,,SCOTT WATKINS,,MUNCIE SYMPHONY ORCHESTRA,,,,PO BOX 1236,MUNCIE,IN,47308-1236,
,,,,,,,,,,,,,,
MATTHEW,,KRAEMER,,MATTHEW KRAEMER,,MUNCIE SYMPHONY ORCHESTRA,,,,PO BOX 1236,MUNCIE,IN,47308-1236,
,,,,,,,,,,,,,,
CARMEN,M.,BUGAY,,CARMEN M. BUGAY,,MUSCATINE SYMPHONY ORCHESTRA ASSOCIATION,,,,PO BOX 573,MUSCATINE,IA,52761-0010,
,,,,,,,,,,,,,,
BRIAN,,DOLLINGER,,BRIAN DOLLINGER,,MUSCATINE SYMPHONY ORCHESTRA ASSOCIATION,,,,PO BOX 573,MUSCATINE,IA,52761-0010,
,,,,,,,,,,,,,,
JENNY,,DARLINGTON-PERSON,,JENNY DARLINGTON-PERSON,,MUSIC IN THE MOUNTAINS,,,,131 S AUBURN ST,GRASS VALLEY,CA,95945-6501,
,,,,,,,,,,,,,,
RYAN,,MURRAY,,RYAN MURRAY,,MUSIC IN THE MOUNTAINS,,,,131 S AUBURN ST,GRASS VALLEY,CA,95945-6501,
,,,,,,,,,,,,,,
MARTIN,,HASELBOCK,,MARTIN HASELBOCK,,MUSICA ANGELICA BAROQUE ORCHESTRA,,,,65 PINE AVE PMB 12,LONG BEACH,CA,90802-4718,
,,,,,,,,,,,,,,
JIM,,KELLY,,JIM KELLY,,NATIONAL PHILHARMONIC,,,,5301 TUCKERMAN LN,N BETHESDA,MD,20852-3385,
,,,,,,,,,,,,,,
PIOTR,,GAJEWSKI,,PIOTR GAJEWSKI,,NATIONAL PHILHARMONIC,,,,5301 TUCKERMAN LN,N BETHESDA,MD,20852-3385,
,,,,,,,,,,,,,,
PHYLLIS,,FREEMAN,,PHYLLIS FREEMAN,,NATIONAL PHILHARMONIC,,,,5301 TUCKERMAN LN,N BETHESDA,MD,20852-3385,
,,,,,,,,,,,,,,
TIFFANY,,RICHARDSON,,TIFFANY RICHARDSON,,NATIONAL PHILHARMONIC,,,,5301 TUCKERMAN LN,N BETHESDA,MD,20852-3385,
,,,,,,,,,,,,,,
LAURIE,,LANE,,LAURIE LANE,,NATIONAL PHILHARMONIC,,,,5301 TUCKERMAN LN,N BETHESDA,MD,20852-3385,
,,,,,,,,,,,,,,
DEBBIE,,HIGGS,,DEBBIE HIGGS,,NATIONAL REPERTORY ORCHESTRA,,,,PO BOX 6336,BRECKENRIDGE,CO,80424-6336,
,,,,,,,,,,,,,,
JUSTIN,,ELLIS,,JUSTIN ELLIS,,NATIONAL SYMPHONY ORCHESTRA,,,,JOHN F KENNEDY CENTER FOR THE PERFORMING ARTS 2700 F ST NW,WASHINGTON,DC,20566-0001,
,,,,,,,,,,,,,,
EMILY,,HECKEL,,EMILY HECKEL,,NATIONAL SYMPHONY ORCHESTRA,,,,PO BOX 101510,ARLINGTON,VA,22210-4510,
,,,,,,,,,,,,,,
JENNIFER,M.,BOWMAN,,JENNIFER M. BOWMAN,,NATIONAL SYMPHONY ORCHESTRA,,,,PO BOX 101510,ARLINGTON,VA,22210-4510,
,,,,,,,,,,,,,,
HEATHER,,GARNER,,HEATHER GARNER,,NEW ALBANY SYMPHONY ORCHESTRA,,,,PO BOX 332,NEW ALBANY,OH,43054-0332,
,,,,,,,,,,,,,,
LUIS,G.,BIAVA,,LUIS G. BIAVA,,NEW ALBANY SYMPHONY ORCHESTRA,,,,PO BOX 332,NEW ALBANY,OH,43054-0332,
,,,,,,,,,,,,,,
DAVE,,PRENTISS,,DAVE PRENTISS,,NEW BEDFORD SYMPHONY ORCHESTRA,,,,128 UNION ST STE 204,NEW BEDFORD,MA,02740-6376,
,,,,,,,,,,,,,,
ELAINE,C.,CARROLL,,ELAINE C. CARROLL,,NEW HAVEN SYMPHONY ORCHESTRA,,,,4 HAMILTON ST,NEW HAVEN,CT,06511-5905,
,,,,,,,,,,,,,,
CAITLIN,,DALY-GONZALES,,CAITLIN DALY-GONZALES,,NEW HAVEN SYMPHONY ORCHESTRA,,,,4 HAMILTON ST,NEW HAVEN,CT,06511-5905,
,,,,,,,,,,,,,,
TERRANCE,,THORNHILL,,TERRANCE THORNHILL,,NEW JERSEY SYMPHONY ORCHESTRA,,,,60 PARK PL STE 900,NEWARK,NJ,07102-5507,
,,,,,,,,,,,,,,
MARSHELL,JONES,KUMAHOR,,MARSHELL JONES KUMAHOR,,NEW JERSEY SYMPHONY ORCHESTRA,,,,60 PARK PL STE 900,NEWARK,NJ,07102-5507,
,,,,,,,,,,,,,,
PATRICK,,CHAMBERLAIN,,PATRICK CHAMBERLAIN,,NEW JERSEY SYMPHONY ORCHESTRA,,,,60 PARK PL STE 900,NEWARK,NJ,07102-5507,
,,,,,,,,,,,,,,
KRISTIN,,ORLANDO,,KRISTIN ORLANDO,,NEW JERSEY SYMPHONY ORCHESTRA,,,,60 PARK PL STE 900,NEWARK,NJ,07102-5507,
,,,,,,,,,,,,,,
JUDY,YIN-CHI,LEE,,JUDY YIN-CHI LEE,,NEW JERSEY SYMPHONY ORCHESTRA,,,,60 PARK PL STE 900,NEWARK,NJ,07102-5507,
,,,,,,,,,,,,,,
ADRIENNE,HARTZELL,KNUDSEN,,ADRIENNE HARTZELL KNUDSEN,,NEW PHILHARMONIA ORCHESTRA,,,,PO BOX 610384,NEWTON,MA,02461-0384,
,,,,,,,,,,,,,,
JORGE,,SOTO,,JORGE SOTO,,NEW PHILHARMONIA ORCHESTRA,,,,PO BOX 610384,NEWTON,MA,02461-0384,
,,,,,,,,,,,,,,
KIRK,,MUSPRATT,,KIRK MUSPRATT,,NEW PHILHARMONIC,,,,425 FAWELL BLVD,GLEN ELLYN,IL,60137-6708,
,,,,,,,,,,,,,,
PAULA,,CEBULA,,PAULA CEBULA,,NEW PHILHARMONIC,,,,425 FAWELL BLVD,GLEN ELLYN,IL,60137-6708,
,,,,,,,,,,,,,,
JORDAN,L.,BROWN,,JORDAN L. BROWN,,NEW SUSSEX SYMPHONY,,,,PO BOX 859,NEWTON,NJ,07860-0859,
,,,,,,,,,,,,,,
HOWARD,,HERRING,,HOWARD HERRING,,NEW WORLD SYMPHONY,,,,500 17TH ST,MIAMI BEACH,FL,33139-1862,
,,,,,,,,,,,,,,
MARTIN,L.,SHER,,MARTIN L. SHER,,NEW WORLD SYMPHONY,,,,500 17TH ST,MIAMI BEACH,FL,33139-1862,
,,,,,,,,,,,,,,
WILLIAM,C.,HUNT,,WILLIAM C. HUNT,,NEW WORLD SYMPHONY,,,,500 17TH ST,MIAMI BEACH,FL,33139-1862,
,,,,,,,,,,,,,,
ADAM,,ZEICHNER,,ADAM ZEICHNER,,NEW WORLD SYMPHONY,,,,500 17TH ST,MIAMI BEACH,FL,33139-1862,
,,,,,,,,,,,,,,
GARY,,PADMORE,,GARY PADMORE,,NEW YORK PHILHARMONIC,,,,10 LINCOLN CENTER PLZ,NEW YORK,NY,10023-6970,
,,,,,,,,,,,,,,
AMY,,LEFFERT,,AMY LEFFERT,,NEW YORK PHILHARMONIC,,,,10 LINCOLN CENTER PLZ,NEW YORK,NY,10023-6970,
,,,,,,,,,,,,,,
PATRICK,,CASTELLO,,PATRICK CASTELLO,,NEW YORK PHILHARMONIC,,,,10 LINCOLN CENTER PLZ,NEW YORK,NY,10023-6970,
,,,,,,,,,,,,,,
MEGAN,,HENSCHEL,,MEGAN HENSCHEL,,NEW YORK PHILHARMONIC,,,,10 LINCOLN CENTER PLZ,NEW YORK,NY,10023-6970,
,,,,,,,,,,,,,,
ADAM,,FLATT,,ADAM FLATT,,NEWPORT SYMPHONY ORCHESTRA,,,777 W OLIVE ST,PO BOX 1617,NEWPORT,OR,97365-0118,
,,,,,,,,,,,,,,
DON,,NELSON,,DON NELSON,,NEWPORT SYMPHONY ORCHESTRA,,,777 W OLIVE ST,PO BOX 1617,NEWPORT,OR,97365-0118,
,,,,,,,,,,,,,,
SAMANTHA,,GALLUP,,SAMANTHA GALLUP,,NORTH CAROLINA SYMPHONY,,,,3700 GLENWOOD AVE STE 130,RALEIGH,NC,27612-5530,
,,,,,,,,,,,,,,
JASON,,SPENCER,,JASON SPENCER,,NORTH CAROLINA SYMPHONY,,,,3700 GLENWOOD AVE STE 130,RALEIGH,NC,27612-5530,
,,,,,,,,,,,,,,
ERIN,LUNSFORD,NORTON,,ERIN LUNSFORD NORTON,,NORTH CAROLINA SYMPHONY,,,,3700 GLENWOOD AVE STE 130,RALEIGH,NC,27612-5530,
,,,,,,,,,,,,,,
BETTY,,FLORENCE,,BETTY FLORENCE,,"NORTH GEORGIA CHAMBER SYMPHONY, INC.",,,,587 WHITE PINE DR,DAHLONEGA,GA,30533-2559,
,,,,,,,,,,,,,,
LAURIN,,SMITH,,LAURIN SMITH,,"NORTH GEORGIA CHAMBER SYMPHONY, INC.",,,,587 WHITE PINE DR,DAHLONEGA,GA,30533-2559,
,,,,,,,,,,,,,,
LISA,,MARTIN,,LISA MARTIN,,NORTH MISSISSIPPI SYMPHONY ORCHESTRA,,,,PO BOX 349,TUPELO,MS,38802-0349,
,,,,,,,,,,,,,,
STEVEN,,BYESS,,STEVEN BYESS,,NORTH MISSISSIPPI SYMPHONY ORCHESTRA,,,,PO BOX 349,TUPELO,MS,38802-0349,
,,,,,,,,,,,,,,
KEVIN,,KOZACEK,,KEVIN KOZACEK,,NORTH VALLEY SYMPHONY ORCHESTRA,,,,PO BOX 72231,PHOENIX,AZ,85050-1021,
,,,,,,,,,,,,,,
LYNNE,,FEHRENBACH,,LYNNE FEHRENBACH,,NORTHWEST FLORIDA SYMPHONY ORCHESTRA,,,,100 COLLEGE BLVD E,NICEVILLE,FL,32578-1347,
,,,,,,,,,,,,,,
ANTHONY,J.,SPAIN,,ANTHONY J. SPAIN,,NORTHWEST SYMPHONY ORCHESTRA,,,,PO BOX 46,MT PROSPECT,IL,60056-0046,
,,,,,,,,,,,,,,
DAN,J.,ALLCOTT,,DAN J. ALLCOTT,,OAK RIDGE CIVIC MUSIC ASSOCIATION,,,,118 E DIVISION RD,OAK RIDGE,TN,37830-6906,
,,,,,,,,,,,,,,
LISA,D. MUCI,ECKHOFF,,LISA D. MUCI ECKHOFF,,OAK RIDGE CIVIC MUSIC ASSOCIATION,,,,118 E DIVISION RD,OAK RIDGE,TN,37830-6906,
,,,,,,,,,,,,,,
MIEKO,,HATANO,,MIEKO HATANO,,OAKLAND SYMPHONY,,,,1440 BROADWAY STE 405,OAKLAND,CA,94612-2024,
,,,,,,,,,,,,,,
LYNNE,,MORROW,,LYNNE MORROW,,OAKLAND SYMPHONY,,,,1440 BROADWAY STE 405,OAKLAND,CA,94612-2024,
,,,,,,,,,,,,,,
MATTHEW,,WARDELL,,MATTHEW WARDELL,,OCALA SYMPHONY ORCHESTRA,,,,500 NE 9TH ST,OCALA,FL,34470-5237,
,,,,,,,,,,,,,,
PAMELA,,CALERO,,PAMELA CALERO,,OCALA SYMPHONY ORCHESTRA,,,,500 NE 9TH ST,OCALA,FL,34470-5237,
,,,,,,,,,,,,,,
ROBERTA,,CARPENTER,,ROBERTA CARPENTER,,OCONOMOWOC CHAMBER ORCHESTRA,,,,PO BOX 394,OCONOMOWOC,WI,53066-0394,
,,,,,,,,,,,,,,
AGNIESZKA,,RAKHMATULLAEV,,AGNIESZKA RAKHMATULLAEV,,OKLAHOMA CITY PHILHARMONIC,,,,424 COLCORD DR STE B,OKLAHOMA CITY,OK,73102-2500,
,,,,,,,,,,,,,,
ALEXANDER,,MICKELTHWATE,,ALEXANDER MICKELTHWATE,,OKLAHOMA CITY PHILHARMONIC,,,,424 COLCORD DR STE B,OKLAHOMA CITY,OK,73102-2500,
,,,,,,,,,,,,,,
MATTHEW,THOMAS,TROY,,MATTHEW THOMAS TROY,,OKLAHOMA CITY PHILHARMONIC,,,,549 5TH ST SW,HICKORY,NC,28602-2861,
,,,,,,,,,,,,,,
JENNIFER,,HERMANN,,JENNIFER HERMANN,,OLYMPIA SYMPHONY ORCHESTRA,,,,3400 CAPITOL BLVD SE STE 203,TUMWATER,WA,98501-3351,
,,,,,,,,,,,,,,
JENNIFER,BOOMGAARDEN,DAOUD,,JENNIFER BOOMGAARDEN DAOUD,,OMAHA SYMPHONY,,,,1905 HARNEY ST STE 400,OMAHA,NE,68102-2797,
,,,,,,,,,,,,,,
ANKUSH,KUMAR,BAHL,,ANKUSH KUMAR BAHL,,OMAHA SYMPHONY,,,,1905 HARNEY ST STE 400,OMAHA,NE,68102-2797,
,,,,,,,,,,,,,,
LIZ,KENDALL,WEISSER,,LIZ KENDALL WEISSER,,OMAHA SYMPHONY,,,,1905 HARNEY ST STE 400,OMAHA,NE,68102-2797,
,,,,,,,,,,,,,,
MEG,,SIPPEY,,MEG SIPPEY,,OMAHA SYMPHONY,,,,1905 HARNEY ST STE 400,OMAHA,NE,68102-2797,
,,,,,,,,,,,,,,
DANI,,MEIER,,DANI MEIER,,OMAHA SYMPHONY,,,,1905 HARNEY ST STE 400,OMAHA,NE,68102-2797,
,,,,,,,,,,,,,,
JEFFREY,D.,COLLIER,,JEFFREY D. COLLIER,,ORCHESTRA IOWA,,,,119 3RD AVE SE,CEDAR RAPIDS,IA,52401-1403,
,,,,,,,,,,,,,,
TIMOTHY,J.,HANKEWICH,,TIMOTHY J. HANKEWICH,,ORCHESTRA IOWA,,,,119 3RD AVE SE,CEDAR RAPIDS,IA,52401-1403,
,,,,,,,,,,,,,,
BRUCE,B.,HANGEN,,BRUCE B. HANGEN,,ORCHESTRA OF INDIAN HILL,,,,PO BOX 1484,LITTLETON,MA,01460-4484,
,,,,,,,,,,,,,,
LISA,,FIORENTINO,,LISA FIORENTINO,,ORCHESTRA OF INDIAN HILL,,,,PO BOX 1484,LITTLETON,MA,01460-4484,
,,,,,,,,,,,,,,
JAMES,,ROE,,JAMES ROE,,ORCHESTRA OF ST. LUKE'S,,,,450 W 37TH ST STE 502,NEW YORK,NY,10018-4016,
,,,,,,,,,,,,,,
BERNARD,,LABADIE,,BERNARD LABADIE,,ORCHESTRA OF ST. LUKE'S,,,,450 W 37TH ST STE 502,NEW YORK,NY,10018-4016,
,,,,,,,,,,,,,,
ANDREW,,ROITSTEIN,,ANDREW ROITSTEIN,,ORCHESTRA OF ST. LUKE'S,,,,450 W 37TH ST STE 502,NEW YORK,NY,10018-4016,
,,,,,,,,,,,,,,
ALAN,J.,BENSON,,ALAN J. BENSON,,ORCHESTRA OF ST. LUKE'S,,,,450 W 37TH ST STE 502,NEW YORK,NY,10018-4016,
,,,,,,,,,,,,,,
KAREN,,DUSEK,,KAREN DUSEK,,ORCHESTRA OF THE SOUTHERN FINGER LAKES,,,,PO BOX 15,CORNING,NY,14830-0015,
,,,,,,,,,,,,,,
TOSHIYUKI,,SHIMADA,,TOSHIYUKI SHIMADA,,ORCHESTRA OF THE SOUTHERN FINGER LAKES,,,,PO BOX 15,CORNING,NY,14830-0015,
,,,,,,,,,,,,,,
TOM,,DIGIOVANNI,,TOM DIGIOVANNI,,ORCHESTRA360,,,,211 PAXINOSA RD E,EASTON,PA,18040-1334,
,,,,,,,,,,,,,,
SCOTT,,SHOWALTER,,SCOTT SHOWALTER,,OREGON SYMPHONY,,,,921 SW WASHINGTON ST STE 200,PORTLAND,OR,97205-2800,
,,,,,,,,,,,,,,
CARLOS,,KALMAR,,CARLOS KALMAR,,OREGON SYMPHONY,,,,921 SW WASHINGTON ST STE 200,PORTLAND,OR,97205-2800,
,,,,,,,,,,,,,,
MONICA,,HAYES,,MONICA HAYES,,OREGON SYMPHONY,,,,921 SW WASHINGTON ST STE 200,PORTLAND,OR,97205-2800,
,,,,,,,,,,,,,,
CHARLES,E.,CALMER,,CHARLES E. CALMER,,OREGON SYMPHONY,,,,921 SW WASHINGTON ST STE 200,PORTLAND,OR,97205-2800,
,,,,,,,,,,,,,,
PAUL,A.,HELFRICH,,PAUL A. HELFRICH,,ORLANDO PHILHARMONIC ORCHESTRA,,,,425 N BUMBY AVE,ORLANDO,FL,32803-6027,
,,,,,,,,,,,,,,
AMY,,CONROD,,AMY CONROD,,ORLANDO PHILHARMONIC ORCHESTRA,,,,425 N BUMBY AVE,ORLANDO,FL,32803-6027,
,,,,,,,,,,,,,,
JAMIE,,ERPENBACH,,JAMIE ERPENBACH,,ORLANDO PHILHARMONIC ORCHESTRA,,,,425 N BUMBY AVE,ORLANDO,FL,32803-6027,
,,,,,,,,,,,,,,
ANGELA,,GEHRING,,ANGELA GEHRING,,ORPHEUS CHAMBER ORCHESTRA,,,,490 RIVERSIDE DR FRNT 1,NEW YORK,NY,10027-5706,
,,,,,,,,,,,,,,
JAMES,,WILSON,,JAMES WILSON,,ORPHEUS CHAMBER ORCHESTRA,,,,490 RIVERSIDE DR FRNT 1,NEW YORK,NY,10027-5706,
,,,,,,,,,,,,,,
GWYN,MORRIS,PAYNE,,GWYN MORRIS PAYNE,,"OWENSBORO SYMPHONY ORCHESTRA, INC.",,,,211 E 2ND ST,OWENSBORO,KY,42303-4201,
,,,,,,,,,,,,,,
JOHN,E.,FORSYTE,,JOHN E. FORSYTE,,PACIFIC SYMPHONY,,,,17620 FITCH STE 100,IRVINE,CA,92614-6081,
,,,,,,,,,,,,,,
ROGER,,KALIA,,ROGER KALIA,,PACIFIC SYMPHONY,,,,17620 FITCH STE 100,IRVINE,CA,92614-6081,
,,,,,,,,,,,,,,
SUSAN,MILLER,KOTSES,,SUSAN MILLER KOTSES,,PACIFIC SYMPHONY,,,,17620 FITCH STE 100,IRVINE,CA,92614-6081,
,,,,,,,,,,,,,,
EILEEN,M.,JEANETTE,,EILEEN M. JEANETTE,,PACIFIC SYMPHONY,,,,17620 FITCH STE 100,IRVINE,CA,92614-6081,
,,,,,,,,,,,,,,
RAFFAELE,LIVIO,PONTI,,RAFFAELE LIVIO PONTI,,PADUCAH SYMPHONY ORCHESTRA,,,,222 KENTUCKY AVE STE 10,PADUCAH,KY,42003-1571,
,,,,,,,,,,,,,,
REECE,,KING,,REECE KING,,PADUCAH SYMPHONY ORCHESTRA,,,,222 KENTUCKY AVE STE 10,PADUCAH,KY,42003-1571,
,,,,,,,,,,,,,,
DAVID,,MCCLYMONT,,DAVID MCCLYMONT,,PALM BEACH SYMPHONY,,,,400 HIBISCUS ST STE 100,WEST PALM BCH,FL,33401-5822,
,,,,,,,,,,,,,,
GERARD,,SCHWARZ,,GERARD SCHWARZ,,PALM BEACH SYMPHONY,,,,400 HIBISCUS ST STE 100,WEST PALM BCH,FL,33401-5822,
,,,,,,,,,,,,,,
ALEXANDER,,CHU,,ALEXANDER CHU,,PASADENA SYMPHONY AND POPS,,,,150 S LOS ROBLES AVE STE 460,PASADENA,CA,91101-4619,
,,,,,,,,,,,,,,
CHRISTOPH,,PTACK,,CHRISTOPH PTACK,,PENINSULA MUSIC FESTIVAL,,,10431 N WATER STREET,PO BOX 340,EPHRAIM,WI,54211-0340,
,,,,,,,,,,,,,,
SHERI,,FRUMKIN,,SHERI FRUMKIN,,PENINSULA SYMPHONY,,,,146 MAIN ST STE 102,LOS ALTOS,CA,94022-2925,
,,,,,,,,,,,,,,
ANNA,,SKRUPKY,,ANNA SKRUPKY,,PENNSYLVANIA CHAMBER ORCHESTRA,,,,119 S FRASER ST STE D,STATE COLLEGE,PA,16801-3886,
,,,,,,,,,,,,,,
BRET,,BARROW,,BRET BARROW,,PENSACOLA SYMPHONY ORCHESTRA,,,,PO BOX 1752,PENSACOLA,FL,32591-1752,
,,,,,,,,,,,,,,
SUSAN,G.,HOFFMAN,,SUSAN G. HOFFMAN,,PEORIA SYMPHONY ORCHESTRA,,,,101 STATE ST,PEORIA,IL,61602-1547,
,,,,,,,,,,,,,,
GEORGE,E.,STELLUTO,,GEORGE E. STELLUTO,,PEORIA SYMPHONY ORCHESTRA,,,,101 STATE ST,PEORIA,IL,61602-1547,
,,,,,,,,,,,,,,
ULYSSES,,KIRKSEY,,ULYSSES KIRKSEY,,PETERSBURG SYMPHONY ORCHESTRA,,,,PO BOX 2146,PETERSBURG,VA,23804-1446,
,,,,,,,,,,,,,,
COURTNEY,,BECK,,COURTNEY BECK,,PHILHARMONIA BAROQUE ORCHESTRA,,,,414 MASON ST STE 400,SAN FRANCISCO,CA,94102-1716,
,,,,,,,,,,,,,,
RICHARD,,EGARR,,RICHARD EGARR,,PHILHARMONIA BAROQUE ORCHESTRA,,,,414 MASON ST STE 400,SAN FRANCISCO,CA,94102-1716,
,,,,,,,,,,,,,,
LISA,,GRODIN,,LISA GRODIN,,PHILHARMONIA BAROQUE ORCHESTRA,,,,414 MASON ST STE 400,SAN FRANCISCO,CA,94102-1716,
,,,,,,,,,,,,,,
JEFFREY,D.,PHILLIPS,,JEFFREY D. PHILLIPS,,PHILHARMONIA BAROQUE ORCHESTRA,,,,414 MASON ST STE 400,SAN FRANCISCO,CA,94102-1716,
,,,,,,,,,,,,,,
SEAN,,WAUGH,,SEAN WAUGH,,PHILHARMONIA BAROQUE ORCHESTRA,,,,414 MASON ST STE 400,SAN FRANCISCO,CA,94102-1716,
,,,,,,,,,,,,,,
MELIA,P.,TOURANGEAU,,MELIA P. TOURANGEAU,,PITTSBURGH SYMPHONY ORCHESTRA,,,,600 PENN AVE STE 1,PITTSBURGH,PA,15222-3209,
,,,,,,,,,,,,,,
MANFRED,,HONECK,,MANFRED HONECK,,PITTSBURGH SYMPHONY ORCHESTRA,,,,600 PENN AVE STE 1,PITTSBURGH,PA,15222-3209,
,,,,,,,,,,,,,,
JESSE,,MONTGOMERY,,JESSE MONTGOMERY,,PITTSBURGH SYMPHONY ORCHESTRA,,,,600 PENN AVE STE 1,PITTSBURGH,PA,15222-3209,
,,,,,,,,,,,,,,
CHARLES,,PRINCE,,CHARLES PRINCE,,PLAINFIELD SYMPHONY ORCHESTRA,,,,PO BOX 5093,PLAINFIELD,NJ,07061-5093,
,,,,,,,,,,,,,,
ROBERT,ALAN,REED,,ROBERT ALAN REED,,PLANO SYMPHONY ORCHESTRA,,,,1635 DORCHESTER DR,PLANO,TX,75075-6443,
,,,,,,,,,,,,,,
JENNIFER,,WHEELER,,JENNIFER WHEELER,,PLANO SYMPHONY ORCHESTRA,,,,1635 DORCHESTER DR,PLANO,TX,75075-6443,
,,,,,,,,,,,,,,
KIM,,CORBEN,,KIM CORBEN,,PLYMOUTH PHILHARMONIC ORCHESTRA,,,,PO BOX 3174,PLYMOUTH,MA,02361-3174,
,,,,,,,,,,,,,,
STEVEN,,KARIDOYANES,,STEVEN KARIDOYANES,,PLYMOUTH PHILHARMONIC ORCHESTRA,,,,PO BOX 3174,PLYMOUTH,MA,02361-3174,
,,,,,,,,,,,,,,
ROBERT,,BITTER,,ROBERT BITTER,,PORTLAND CHAMBER ORCHESTRA,,,,PO BOX 9024,PORTLAND,OR,97207-9024,
,,,,,,,,,,,,,,
SUSANNE,,POWERS,,SUSANNE POWERS,,PORTSMOUTH SYMPHONY ORCHESTRA,,,,PO BOX 8391,PORTSMOUTH,NH,03802-8391,
,,,,,,,,,,,,,,
MARC,,UYS,,MARC UYS,,PRINCETON SYMPHONY ORCHESTRA,,,,PO BOX 250,PRINCETON,NJ,08542-0250,
,,,,,,,,,,,,,,
ROSSEN,,MILANOV,,ROSSEN MILANOV,,PRINCETON SYMPHONY ORCHESTRA,,,,PO BOX 250,PRINCETON,NJ,08542-0250,
,,,,,,,,,,,,,,
KATHERINE,,CURATOLO,,KATHERINE CURATOLO,,PRINCETON SYMPHONY ORCHESTRA,,,,PO BOX 250,PRINCETON,NJ,08542-0250,
,,,,,,,,,,,,,,
CYNTHIA,,KATSARELIS,,CYNTHIA KATSARELIS,,PRO MUSICA COLORADO CHAMBER ORCHESTRA,,,,PO BOX 3148,BOULDER,CO,80307-3148,
,,,,,,,,,,,,,,
PATTI,,GRAETZ,,PATTI GRAETZ,,PROMUSICA ARIZONA CHORALE & ORCHESTRA,,,,PO BOX 74386,PHOENIX,AZ,85087-1007,
,,,,,,,,,,,,,,
JANET,,CHEN,,JANET CHEN,,PROMUSICA CHAMBER ORCHESTRA,,,,620 E BROAD ST STE 300,COLUMBUS,OH,43215-4037,
,,,,,,,,,,,,,,
MARK,,SHOLL,,MARK SHOLL,,PROMUSICA CHAMBER ORCHESTRA,,,,620 E BROAD ST STE 300,COLUMBUS,OH,43215-4037,
,,,,,,,,,,,,,,
DAVID,,DANZMAYR,,DAVID DANZMAYR,,PROMUSICA CHAMBER ORCHESTRA,,,,620 E BROAD ST STE 300,COLUMBUS,OH,43215-4037,
,,,,,,,,,,,,,,
VADIM,,GLUZMAN,,VADIM GLUZMAN,,PROMUSICA CHAMBER ORCHESTRA,,,,3065 PHEASANT CREEK DR,NORTHBROOK,IL,60062-3320,
,,,,,,,,,,,,,,
JACOB,,CHI,,JACOB CHI,,PUEBLO SYMPHONY ASSOCIATION,,,,301 N MAIN ST STE 106,PUEBLO,CO,81003-3298,
,,,,,,,,,,,,,,
JUNE,,KING,,JUNE KING,,PUEBLO SYMPHONY ASSOCIATION,,,,301 N MAIN ST STE 106,PUEBLO,CO,81003-3298,
,,,,,,,,,,,,,,
CARLOS,R. RUZ,CORTS,,CARLOS R. RUZ CORTS,,PUERTO RICO SYMPHONY ORCHESTRA,,,,PO BOX 41227,SAN JUAN,PR,00940-1227,
,,,,,,,,,,,,,,
CRAIG,,BADINGER,,CRAIG BADINGER,,PUNTA GORDA SYMPHONY,,,,6210 SCOTT ST UNIT 213,PUNTA GORDA,FL,33950-3901,
,,,,,,,,,,,,,,
BRIAN,T.,BAXTER,,BRIAN T. BAXTER,,QUAD CITY SYMPHONY ORCHESTRA,,,,327 BRADY ST,DAVENPORT,IA,52801-1508,
,,,,,,,,,,,,,,
MARC,,ZYLA,,MARC ZYLA,,QUAD CITY SYMPHONY ORCHESTRA,,,,327 BRADY ST,DAVENPORT,IA,52801-1508,
,,,,,,,,,,,,,,
ERNESTO,,ESTIGARRIBIA,,ERNESTO ESTIGARRIBIA,,QUAD CITY SYMPHONY ORCHESTRA,,,,327 BRADY ST,DAVENPORT,IA,52801-1508,
,,,,,,,,,,,,,,
BRUCE,C.,BRINEY,,BRUCE C. BRINEY,,QUINCY SYMPHONY ORCHESTRA ASSOCIATION,,,,1026 MAINE ST,QUINCY,IL,62301-4039,
,,,,,,,,,,,,,,
JANE,,POLETT,,JANE POLETT,,QUINCY SYMPHONY ORCHESTRA ASSOCIATION,,,,1026 MAINE ST,QUINCY,IL,62301-4039,
,,,,,,,,,,,,,,
JONATHAN,,WINKLE,,JONATHAN WINKLE,,RACINE SYMPHONY ORCHESTRA,,,,PO BOX 1874,RACINE,WI,53401-1874,
,,,,,,,,,,,,,,
PASQUALE,,LAURINO,,PASQUALE LAURINO,,RACINE SYMPHONY ORCHESTRA,,,,PO BOX 1874,RACINE,WI,53401-1874,
,,,,,,,,,,,,,,
JEFF,,LUND,,JEFF LUND,,RAINIER SYMPHONY,,,,PO BOX 58182,SEATTLE,WA,98138-1182,
,,,,,,,,,,,,,,
ERIK,,SODERSTROM,,ERIK SODERSTROM,,RAVINIA FESTIVAL,,,,418 SHERIDAN RD,HIGHLAND PARK,IL,60035-5031,
,,,,,,,,,,,,,,
ERIC,,KUJAWSKY,,ERIC KUJAWSKY,,REDWOOD SYMPHONY,,,,1031 16TH AVE,REDWOOD CITY,CA,94063-4406,
,,,,,,,,,,,,,,
THOM,,MAYES,,THOM MAYES,,RENO CHAMBER ORCHESTRA,,,,925 RIVERSIDE DR STE 5,RENO,NV,89503-5575,
,,,,,,,,,,,,,,
TIMOTHY,P.,YOUNG,,TIMOTHY P. YOUNG,,RENO PHILHARMONIC ORCHESTRA,,,,925 RIVERSIDE DR STE 3,RENO,NV,89503-5566,
,,,,,,,,,,,,,,
LAURA,,JACKSON,,LAURA JACKSON,,RENO PHILHARMONIC ORCHESTRA,,,,925 RIVERSIDE DR STE 3,RENO,NV,89503-5566,
,,,,,,,,,,,,,,
HEATHER,,GAGE,,HEATHER GAGE,,RENO PHILHARMONIC ORCHESTRA,,,,925 RIVERSIDE DR STE 3,RENO,NV,89503-5566,
,,,,,,,,,,,,,,
KASEY,,SMITH,,KASEY SMITH,,RENO PHILHARMONIC ORCHESTRA,,,,925 RIVERSIDE DR STE 3,RENO,NV,89503-5566,
,,,,,,,,,,,,,,
DAVID,,BEAUCHESNE,,DAVID BEAUCHESNE,,RHODE ISLAND PHILHARMONIC ORCHESTRA & MUSIC SCHOOL,,,,667 WATERMAN AVE,E PROVIDENCE,RI,02914-1712,
,,,,,,,,,,,,,,
FRANCISCO,,NOYA,,FRANCISCO NOYA,,RHODE ISLAND PHILHARMONIC ORCHESTRA & MUSIC SCHOOL,,,,667 WATERMAN AVE,E PROVIDENCE,RI,02914-1712,
,,,,,,,,,,,,,,
BRAMWELL,,TOVEY,,BRAMWELL TOVEY,,RHODE ISLAND PHILHARMONIC ORCHESTRA & MUSIC SCHOOL,,,,667 WATERMAN AVE,E PROVIDENCE,RI,02914-1712,
,,,,,,,,,,,,,,
ANNETTE,,MOZZONI,,ANNETTE MOZZONI,,RHODE ISLAND PHILHARMONIC ORCHESTRA & MUSIC SCHOOL,,,,667 WATERMAN AVE,E PROVIDENCE,RI,02914-1712,
,,,,,,,,,,,,,,
DAVID,W.,GASPER,,DAVID W. GASPER,,RHODE ISLAND PHILHARMONIC ORCHESTRA & MUSIC SCHOOL,,,,201 WOODWARD RD,PROVIDENCE,RI,02904-1725,
,,,,,,,,,,,,,,
DAVID,L.,DAVIS,,DAVID L. DAVIS,,"RICHMOND PHILHARMONIC, INC.",,,,9702 GAYTON RD PMB 301,RICHMOND,VA,23238-4907,
,,,,,,,,,,,,,,
LACEY,M.,HUSZCZA,,LACEY M. HUSZCZA,,RICHMOND SYMPHONY,,,,612 E GRACE ST STE 401,RICHMOND,VA,23219-1892,
,,,,,,,,,,,,,,
CHIA-HSUAN,,LIN,,CHIA-HSUAN LIN,,RICHMOND SYMPHONY,,,,612 E GRACE ST STE 401,RICHMOND,VA,23219-1892,
,,,,,,,,,,,,,,
WALTER,,BITNER,,WALTER BITNER,,RICHMOND SYMPHONY,,,,612 E GRACE ST STE 401,RICHMOND,VA,23219-1892,
,,,,,,,,,,,,,,
JENNIFER,,TOBIN,,JENNIFER TOBIN,,RICHMOND SYMPHONY,,,,612 E GRACE ST STE 401,RICHMOND,VA,23219-1892,
,,,,,,,,,,,,,,
BARBARA,,BAKER,,BARBARA BAKER,,RICHMOND SYMPHONY,,,,612 E GRACE ST STE 401,RICHMOND,VA,23219-1892,
,,,,,,,,,,,,,,
GUY,VICTOR,BORDO,,GUY VICTOR BORDO,,RICHMOND SYMPHONY ORCHESTRA,,,,PO BOX 982,RICHMOND,IN,47375-0982,
,,,,,,,,,,,,,,
DAVID,,CRANE,,DAVID CRANE,,ROANOKE SYMPHONY ORCHESTRA,,,,1125 1ST ST SW,ROANOKE,VA,24016-4701,
,,,,,,,,,,,,,,
CURTIS,S.,LONG,,CURTIS S. LONG,,ROCHESTER PHILHARMONIC ORCHESTRA,,,,255 EAST AVE BSMT 2,ROCHESTER,NY,14604-2626,
,,,,,,,,,,,,,,
MICHAEL,,BUTTERMAN,,MICHAEL BUTTERMAN,,ROCHESTER PHILHARMONIC ORCHESTRA,,,,255 EAST AVE BSMT 2,ROCHESTER,NY,14604-2626,
,,,,,,,,,,,,,,
BARBARA,,BROWN,,BARBARA BROWN,,ROCHESTER PHILHARMONIC ORCHESTRA,,,,255 EAST AVE BSMT 2,ROCHESTER,NY,14604-2626,
,,,,,,,,,,,,,,
JAMES,,BARRY,,JAMES BARRY,,ROCHESTER PHILHARMONIC ORCHESTRA,,,,255 EAST AVE BSMT 2,ROCHESTER,NY,14604-2626,
,,,,,,,,,,,,,,
AMY,,LINDSTROM,,AMY LINDSTROM,,ROCHESTER SYMPHONY ORCHESTRA & CHORALE,,,,1530 GREENVIEW DR SW STE 120,ROCHESTER,MN,55902-1080,
,,,,,,,,,,,,,,
JERE,,LANTZ,,JERE LANTZ,,ROCHESTER SYMPHONY ORCHESTRA & CHORALE,,,,1530 GREENVIEW DR SW STE 120,ROCHESTER,MN,55902-1080,
,,,,,,,,,,,,,,
JULIE,,THOMAS,,JULIE THOMAS,,ROCKFORD SYMPHONY ORCHESTRA,,,,711 N MAIN ST,ROCKFORD,IL,61103-6982,
,,,,,,,,,,,,,,
STEVEN,,LARSEN,,STEVEN LARSEN,,ROCKFORD SYMPHONY ORCHESTRA,,,,711 N MAIN ST,ROCKFORD,IL,61103-6982,
,,,,,,,,,,,,,,
JOELLE,,GRAVES,,JOELLE GRAVES,,ROGUE VALLEY SYMPHONY,,,,33 N 1ST ST STE 1,ASHLAND,OR,97520-1930,
,,,,,,,,,,,,,,
MARTIN,,MAJKUT,,MARTIN MAJKUT,,ROGUE VALLEY SYMPHONY,,,,33 N 1ST ST STE 1,ASHLAND,OR,97520-1930,
,,,,,,,,,,,,,,
JEFFREY,SEAN,DOKKEN,,JEFFREY SEAN DOKKEN,,ROME SYMPHONY ORCHESTRA,,,,PO BOX 533,ROME,GA,30162-0533,
,,,,,,,,,,,,,,
ALICE,,SAURO,,ALICE SAURO,,SACRAMENTO PHILHARMONIC & OPERA,,,,1110 2ND ST,SACRAMENTO,CA,95814-3204,
,,,,,,,,,,,,,,
MEGAN,,SWAN,,MEGAN SWAN,,SACRAMENTO PHILHARMONIC & OPERA,,,,1110 2ND ST,SACRAMENTO,CA,95814-3204,
,,,,,,,,,,,,,,
BONNIE,,VANVOORHEES,,BONNIE VANVOORHEES,,SAGINAW BAY SYMPHONY ORCHESTRA,,,,PO BOX 3226,SAGINAW,MI,48605-3226,
,,,,,,,,,,,,,,
FOUAD,,FAKHOURI,,FOUAD FAKHOURI,,SAGINAW BAY SYMPHONY ORCHESTRA,,,,PO BOX 3226,SAGINAW,MI,48605-3226,
,,,,,,,,,,,,,,
LORI,,MCALISTER,,LORI MCALISTER,,SAINT JOSEPH SYMPHONY,,,,120 S 8TH ST,SAINT JOSEPH,MO,64501-2231,
,,,,,,,,,,,,,,
ADRIENNE,,ALLEN,,ADRIENNE ALLEN,,SALINA SYMPHONY,,,,PO BOX 792,SALINA,KS,67402-0792,
,,,,,,,,,,,,,,
DAVID,,LITTRELL,,DAVID LITTRELL,,SALINA SYMPHONY,,,,PO BOX 792,SALINA,KS,67402-0792,
,,,,,,,,,,,,,,
DAVID,,HAGY,,DAVID HAGY,,SALISBURY SYMPHONY ORCHESTRA,,,,204 E INNES ST STE 260,SALISBURY,NC,28144-5191,
,,,,,,,,,,,,,,
HUNTER,SCOTT,SAFRIT,,HUNTER SCOTT SAFRIT,,SALISBURY SYMPHONY ORCHESTRA,,,,204 E INNES ST STE 260,SALISBURY,NC,28144-5191,
,,,,,,,,,,,,,,
COURTNEY,,MAHAFFEY,,COURTNEY MAHAFFEY,,SAN ANGELO SYMPHONY ORCHESTRA,,,,PO BOX 5922,SAN ANGELO,TX,76902-5922,
,,,,,,,,,,,,,,
HECTOR,,GUZMAN,,HECTOR GUZMAN,,SAN ANGELO SYMPHONY ORCHESTRA,,,,PO BOX 5922,SAN ANGELO,TX,76902-5922,
,,,,,,,,,,,,,,
MARTHA,A.,GILMER,,MARTHA A. GILMER,,SAN DIEGO SYMPHONY,,,,1245 7TH AVE,SAN DIEGO,CA,92101-4398,
,,,,,,,,,,,,,,
JESSE,,SCHIFFMAN,,JESSE SCHIFFMAN,,SAN DIEGO SYMPHONY,,,,1245 7TH AVE,SAN DIEGO,CA,92101-4398,
,,,,,,,,,,,,,,
LEA,S.,SLUSHER,,LEA S. SLUSHER,,SAN DIEGO SYMPHONY,,,,1245 7TH AVE,SAN DIEGO,CA,92101-4398,
,,,,,,,,,,,,,,
BARBARA,DAY,TURNER,,BARBARA DAY TURNER,,SAN JOS CHAMBER ORCHESTRA,,,,1034 BENNETT WAY,SAN JOSE,CA,95125-2501,
,,,,,,,,,,,,,,
ARTHUR,J.,POST,,ARTHUR J. POST,,SAN JUAN SYMPHONY,,,,PO BOX 1073,DURANGO,CO,81302-1073,
,,,,,,,,,,,,,,
KATHY,,MYRICK,,KATHY MYRICK,,SAN JUAN SYMPHONY,,,,PO BOX 1073,DURANGO,CO,81302-1073,
,,,,,,,,,,,,,,
THOMAS,,HEUSER,,THOMAS HEUSER,,SAN JUAN SYMPHONY,,,,PO BOX 1073,DURANGO,CO,81302-1073,
,,,,,,,,,,,,,,
ANNA,JAMES,MILLER,,ANNA JAMES MILLER,,SAN LUIS OBISPO SYMPHONY,,,,75 HIGUERA ST STE 160,SN LUIS OBISP,CA,93401-5401,
,,,,,,,,,,,,,,
KATHRYN,R.,MARTIN,,KATHRYN R. MARTIN,,SANTA BARBARA SYMPHONY ORCHESTRA ASSOCIATION,,,,1330 STATE ST STE 102,SANTA BARBARA,CA,93101-2680,
,,,,,,,,,,,,,,
ANDREW,,RADFORD,,ANDREW RADFORD,,SANTA BARBARA SYMPHONY ORCHESTRA ASSOCIATION,,,,1330 STATE ST STE 102,SANTA BARBARA,CA,93101-2680,
,,,,,,,,,,,,,,
NICHOLAS,,FUENTES,,NICHOLAS FUENTES,,SANTA BARBARA SYMPHONY ORCHESTRA ASSOCIATION,,,,1330 STATE ST STE 102,SANTA BARBARA,CA,93101-2680,
,,,,,,,,,,,,,,
SUSAN,,ANDERSON,,SUSAN ANDERSON,,SANTA BARBARA SYMPHONY ORCHESTRA ASSOCIATION,,,,1301 STATE ST,SANTA BARBARA,CA,93101-2609,
,,,,,,,,,,,,,,
GARY,,REECE,,GARY REECE,,SANTA CRUZ COUNTY SYMPHONY ASSOCIATION INC.,,,,307 CHURCH ST,SANTA CRUZ,CA,95060-3811,
,,,,,,,,,,,,,,
DANIEL,,STEWART,,DANIEL STEWART,,SANTA CRUZ COUNTY SYMPHONY ASSOCIATION INC.,,,,307 CHURCH ST,SANTA CRUZ,CA,95060-3811,
,,,,,,,,,,,,,,
KATE,,CHORNOMAZ,,KATE CHORNOMAZ,,SANTA CRUZ COUNTY SYMPHONY ASSOCIATION INC.,,,,307 CHURCH ST,SANTA CRUZ,CA,95060-3811,
,,,,,,,,,,,,,,
ALAN,,SILOW,,ALAN SILOW,,SANTA ROSA SYMPHONY,,,,50 SANTA ROSA AVE STE 410,SANTA ROSA,CA,95404-4951,
,,,,,,,,,,,,,,
TIMOTHY,L.,BESWICK,,TIMOTHY L. BESWICK,,SANTA ROSA SYMPHONY,,,,50 SANTA ROSA AVE STE 410,SANTA ROSA,CA,95404-4951,
,,,,,,,,,,,,,,
JOSEPH,,MCKENNA,,JOSEPH MCKENNA,,SARASOTA ORCHESTRA,,,,709 N TAMIAMI TRL,SARASOTA,FL,34236-4047,
,,,,,,,,,,,,,,
BRANDON,,DINH,,BRANDON DINH,,SARASOTA ORCHESTRA,,,,709 N TAMIAMI TRL,SARASOTA,FL,34236-4047,
,,,,,,,,,,,,,,
KERRY,,SMITH,,KERRY SMITH,,SARASOTA ORCHESTRA,,,,709 N TAMIAMI TRL,SARASOTA,FL,34236-4047,
,,,,,,,,,,,,,,
AMY,,WILLIAMS,,AMY WILLIAMS,,SAVANNAH PHILHARMONIC,,,,PO BOX 11323,SAVANNAH,GA,31412-1523,
,,,,,,,,,,,,,,
KEITARO,,HARADA,,KEITARO HARADA,,SAVANNAH PHILHARMONIC,,,,PO BOX 11323,SAVANNAH,GA,31412-1523,
,,,,,,,,,,,,,,
BRADLEY,,BEHR,,BRADLEY BEHR,,SAVANNAH PHILHARMONIC,,,,1515 ABERCORN ST,SAVANNAH,GA,31401-7338,
,,,,,,,,,,,,,,
SINISA,,CIRIC,,SINISA CIRIC,,SAVANNAH PHILHARMONIC,,,,1515 ABERCORN ST,SAVANNAH,GA,31401-7338,
,,,,,,,,,,,,,,
DOUGLAS,F.,KING,,DOUGLAS F. KING,,SEATTLE SYMPHONY,,,,PO BOX 21906,SEATTLE,WA,98111-3906,
,,,,,,,,,,,,,,
JEREMY,,JOLLEY,,JEREMY JOLLEY,,SEATTLE SYMPHONY,,,,PO BOX 21906,SEATTLE,WA,98111-3906,
,,,,,,,,,,,,,,
RAFF,,WILSON,,RAFF WILSON,,SEATTLE SYMPHONY,,,,PO BOX 21906,SEATTLE,WA,98111-3906,
,,,,,,,,,,,,,,
SARAH,,BESKE,,SARAH BESKE,,SEATTLE SYMPHONY,,,,PO BOX 21906,SEATTLE,WA,98111-3906,
,,,,,,,,,,,,,,
PAIGE,,GILBERT,,PAIGE GILBERT,,SEATTLE SYMPHONY,,,,PO BOX 21906,SEATTLE,WA,98111-3906,
,,,,,,,,,,,,,,
JOSHUA,,HERNDAY,,JOSHUA HERNDAY,,SHEBOYGAN SYMPHONY ORCHESTRA,,,,830 N 8TH ST,SHEBOYGAN,WI,53081-4021,
,,,,,,,,,,,,,,
KEVIN,,MCMAHON,,KEVIN MCMAHON,,SHEBOYGAN SYMPHONY ORCHESTRA,,,,830 N 8TH ST,SHEBOYGAN,WI,53081-4021,
,,,,,,,,,,,,,,
LOIS,,ROBINSON,,LOIS ROBINSON,,SHREVEPORT SYMPHONY ORCHESTRA,,,,PO BOX 205,SHREVEPORT,LA,71162-0205,
,,,,,,,,,,,,,,
MICHAEL,,BUTTERMAN,,MICHAEL BUTTERMAN,,SHREVEPORT SYMPHONY ORCHESTRA,,,,PO BOX 205,SHREVEPORT,LA,71162-0205,
,,,,,,,,,,,,,,
BRETT,,ANDREWS,,BRETT ANDREWS,,SHREVEPORT SYMPHONY ORCHESTRA,,,,PO BOX 205,SHREVEPORT,LA,71162-0205,
,,,,,,,,,,,,,,
SUSAN,,MARTIN,,SUSAN MARTIN,,SIGNATURE SYMPHONY AT TCC,,,,10300 E 81ST ST STE 6356,TULSA,OK,74133-4500,
,,,,,,,,,,,,,,
RICHARD,,STEINBACH,,RICHARD STEINBACH,,SIOUX CITY SYMPHONY ORCHESTRA ASSOCIATION,,,,518 PIERCE ST,SIOUX CITY,IA,51101-1204,
,,,,,,,,,,,,,,
RYAN,S.,HASKINS,,RYAN S. HASKINS,,SIOUX CITY SYMPHONY ORCHESTRA ASSOCIATION,,,,518 PIERCE ST,SIOUX CITY,IA,51101-1204,
,,,,,,,,,,,,,,
KERMIT,,POLING,,KERMIT POLING,,SOUTH ARKANSAS SYMPHONY ORCHESTRA,,,,314 E OAK ST,EL DORADO,AR,71730-5834,
,,,,,,,,,,,,,,
SARA,,COFFMAN,,SARA COFFMAN,,SOUTH ARKANSAS SYMPHONY ORCHESTRA,,,,314 E OAK ST,EL DORADO,AR,71730-5834,
,,,,,,,,,,,,,,
JUSTUS,,ZIMMERMAN,,JUSTUS ZIMMERMAN,,SOUTH BEND SYMPHONY ORCHESTRA,,,,127 N MICHIGAN ST,SOUTH BEND,IN,46601-1603,
,,,,,,,,,,,,,,
ALASTAIR,,WILLIS,,ALASTAIR WILLIS,,SOUTH BEND SYMPHONY ORCHESTRA,,,,127 N MICHIGAN ST,SOUTH BEND,IN,46601-1603,
,,,,,,,,,,,,,,
CHRISTINA,,GIBSON,,CHRISTINA GIBSON,,SOUTH BEND SYMPHONY ORCHESTRA,,,,127 N MICHIGAN ST,SOUTH BEND,IN,46601-1603,
,,,,,,,,,,,,,,
RHONDA,P.,HUNSINGER,,RHONDA P. HUNSINGER,,SOUTH CAROLINA PHILHARMONIC,,,,1704 MAIN ST STE 1,COLUMBIA,SC,29201-5814,
,,,,,,,,,,,,,,
BARRY,,SILVERMAN,,BARRY SILVERMAN,,SOUTH COAST SYMPHONY,,,,13642 WINTHROPE ST,SANTA ANA,CA,92705-2705,
,,,,,,,,,,,,,,
JENNIFER,,TEISINGER,,JENNIFER TEISINGER,,SOUTH DAKOTA SYMPHONY ORCHESTRA,,,,301 S MAIN AVE,SIOUX FALLS,SD,57104-6311,
,,,,,,,,,,,,,,
DELTA,DAVID,GIER,,DELTA DAVID GIER,,SOUTH DAKOTA SYMPHONY ORCHESTRA,,,,301 S MAIN AVE,SIOUX FALLS,SD,57104-6311,
,,,,,,,,,,,,,,
JESS,,JOHANNSEN,,JESS JOHANNSEN,,SOUTH DAKOTA SYMPHONY ORCHESTRA,,,,301 S MAIN AVE,SIOUX FALLS,SD,57104-6311,
,,,,,,,,,,,,,,
PETER,,TUFF,,PETER TUFF,,SOUTH DAKOTA SYMPHONY ORCHESTRA,,,,301 S MAIN AVE,SIOUX FALLS,SD,57104-6311,
,,,,,,,,,,,,,,
JACQUELINE,,LORBER,,JACQUELINE LORBER,,SOUTH FLORIDA SYMPHONY ORCHESTRA,,,,2201 WILTON DR STE 12,WILTON MANORS,FL,33305-2131,
,,,,,,,,,,,,,,
SEBRINA,MARA,ALFONSO,,SEBRINA MARA ALFONSO,,SOUTH FLORIDA SYMPHONY ORCHESTRA,,,,2201 WILTON DR STE 12,WILTON MANORS,FL,33305-2131,
,,,,,,,,,,,,,,
JEFFREY,,PHILLIPS,,JEFFREY PHILLIPS,,SOUTHEAST IOWA SYMPHONY ORCHESTRA,,,,601 N MAIN ST,MT PLEASANT,IA,52641-1348,
,,,,,,,,,,,,,,
ROBERT,,MCCONNELL,,ROBERT MCCONNELL,,SOUTHEAST IOWA SYMPHONY ORCHESTRA,,,,601 N MAIN ST,MT PLEASANT,IA,52641-1348,
,,,,,,,,,,,,,,
LAURA,E.,SCHUMANN,,LAURA E. SCHUMANN,,SOUTHEASTERN OHIO SYMPHONY ORCHESTRA,,,,PO BOX 42,NEW CONCORD,OH,43762-0042,
,,,,,,,,,,,,,,
LINUS,,LERNER,,LINUS LERNER,,SOUTHERN ARIZONA SYMPHONY ORCHESTRA,,,,PO BOX 43131,TUCSON,AZ,85733-3131,
,,,,,,,,,,,,,,
AMY,,GINSBURG,,AMY GINSBURG,,SOUTHWEST FLORIDA SYMPHONY,,,,7500 COLLEGE PKWY STE 200,FORT MYERS,FL,33907-5536,
,,,,,,,,,,,,,,
NIR,,KABARETTI,,NIR KABARETTI,,SOUTHWEST FLORIDA SYMPHONY,,,,7500 COLLEGE PKWY STE 200,FORT MYERS,FL,33907-5536,
,,,,,,,,,,,,,,
KARA,,GRIFFITH,,KARA GRIFFITH,,SOUTHWEST FLORIDA SYMPHONY,,,,7500 COLLEGE PKWY STE 200,FORT MYERS,FL,33907-5536,
,,,,,,,,,,,,,,
SUE,,KELLOGG,,SUE KELLOGG,,SOUTHWEST MICHIGAN SYMPHONY ORCHESTRA,,,,513 SHIP ST,SAINT JOSEPH,MI,49085-1118,
,,,,,,,,,,,,,,
ALYCE,STEVENS,GARDNER,,ALYCE STEVENS GARDNER,,SOUTHWEST SYMPHONY ORCHESTRA,,,,PO BOX 423,ST GEORGE,UT,84771-0423,
,,,,,,,,,,,,,,
LUCAS,,DARGER,,LUCAS DARGER,,SOUTHWEST SYMPHONY ORCHESTRA,,,,PO BOX 423,ST GEORGE,UT,84771-0423,
,,,,,,,,,,,,,,
DEB,,WALKER,,DEB WALKER,,"SOUTHWEST SYMPHONY, INC.",,,,PO BOX 101,HOBBS,NM,88241-0101,
,,,,,,,,,,,,,,
MARK,R.,JELINEK,,MARK R. JELINEK,,"SOUTHWEST SYMPHONY, INC.",,,,PO BOX 101,HOBBS,NM,88241-0101,
,,,,,,,,,,,,,,
CHRISTINE,,FLASCH,,CHRISTINE FLASCH,,SOUTHWESTERN SUBURBAN SYMPHONY,,,,11220 W CARROLL CIR,FRANKLIN,WI,53132-1128,
,,,,,,,,,,,,,,
KATHRYN,H.,BOUCHER,,KATHRYN H. BOUCHER,,SPARTANBURG PHILHARMONIC,,,,200 E SAINT JOHN ST,SPARTANBURG,SC,29306-5124,
,,,,,,,,,,,,,,
JEFFREY,VOM,SAAL,,JEFFREY VOM SAAL,,SPOKANE SYMPHONY,,,,PO BOX 365,SPOKANE,WA,99210-0365,
,,,,,,,,,,,,,,
JAMES,,LOWE,,JAMES LOWE,,SPOKANE SYMPHONY,,,,PO BOX 365,SPOKANE,WA,99210-0365,
,,,,,,,,,,,,,,
MORIHIKO,,NAKAHARA,,MORIHIKO NAKAHARA,,SPOKANE SYMPHONY,,,,PO BOX 365,SPOKANE,WA,99210-0365,
,,,,,,,,,,,,,,
LOUIS,,ROSS,,LOUIS ROSS,,SPRINGFIELD SYMPHONY,,,,1441 MAIN ST STE 121,SPRINGFIELD,MA,01103-1419,
,,,,,,,,,,,,,,
LOU,,ROSS,,LOU ROSS,,SPRINGFIELD SYMPHONY ORCHESTRA,,,,PO BOX 1374,SPRINGFIELD,OH,45501-1374,
,,,,,,,,,,,,,,
PETER,STAFFORD,WILSON,,PETER STAFFORD WILSON,,SPRINGFIELD SYMPHONY ORCHESTRA,,,,PO BOX 1374,SPRINGFIELD,OH,45501-1374,
,,,,,,,,,,,,,,
JENNIFER,,COTNER-JONES,,JENNIFER COTNER-JONES,,SPRINGFIELD SYMPHONY ORCHESTRA,,,,411 N SHERMAN PKWY,SPRINGFIELD,MO,65802-3652,
,,,,,,,,,,,,,,
KYLE,WILEY,PICKETT,,KYLE WILEY PICKETT,,SPRINGFIELD SYMPHONY ORCHESTRA,,,,411 N SHERMAN PKWY,SPRINGFIELD,MO,65802-3652,
,,,,,,,,,,,,,,
RUSSELL,A.,JONES,,RUSSELL A. JONES,,STAMFORD SYMPHONY,,,,263 TRESSER BLVD,STAMFORD,CT,06901-3237,
,,,,,,,,,,,,,,
NICOLAS,,GONZALEZ,,NICOLAS GONZALEZ,,STAMFORD SYMPHONY,,,,263 TRESSER BLVD,STAMFORD,CT,06901-3237,
,,,,,,,,,,,,,,
PHILIP,,WEST,,PHILIP WEST,,STOCKTON SYMPHONY,,,,4629 QUAIL LAKES DR,STOCKTON,CA,95207-5258,
,,,,,,,,,,,,,,
PETER,,JAFFE,,PETER JAFFE,,STOCKTON SYMPHONY,,,,4629 QUAIL LAKES DR,STOCKTON,CA,95207-5258,
,,,,,,,,,,,,,,
DANIEL,WILLIAM,BOOTHE,,DANIEL WILLIAM BOOTHE,,SYMPHONICITY,,,,"291 INDEPENDENCE BOULEVARD PEMBROKE FOUR, SUITE 421",VIRGINIA BCH,VA,23462-5474,
,,,,,,,,,,,,,,
LYNETTE,,ANDREWS,,LYNETTE ANDREWS,,SYMPHONICITY,,,,"291 INDEPENDENCE BOULEVARD PEMBROKE FOUR, SUITE 421",VIRGINIA BCH,VA,23462-5474,
,,,,,,,,,,,,,,
PAMELA,,BRANT,,PAMELA BRANT,,SYMPHONY IN C,,,576 HADDON AVENUE,PO BOX 8610,COLLINGSWOOD,NJ,08108-8610,
,,,,,,,,,,,,,,
RUTH,,MOLLMAN,,RUTH MOLLMAN,,SYMPHONY IN THE VALLEY,,,,PO BOX 1831,GLENWOOD SPGS,CO,81602-1831,
,,,,,,,,,,,,,,
KELLY,,THOMPSON,,KELLY THOMPSON,,SYMPHONY IN THE VALLEY,,,,PO BOX 1831,GLENWOOD SPGS,CO,81602-1831,
,,,,,,,,,,,,,,
DEANNA,,HOYING,,DEANNA HOYING,,SYMPHONY NH,,,,PO BOX 1350,NASHUA,NH,03061-1350,
,,,,,,,,,,,,,,
D.,RILEY,NICHOLSON,,D. RILEY NICHOLSON,,SYMPHONY OF NORTHWEST ARKANSAS,,,,PO BOX 1243,FAYETTEVILLE,AR,72702-1243,
,,,,,,,,,,,,,,
PAUL,,HAAS,,PAUL HAAS,,SYMPHONY OF NORTHWEST ARKANSAS,,,,PO BOX 1243,FAYETTEVILLE,AR,72702-1243,
,,,,,,,,,,,,,,
EUGENE,,DOWDY,,EUGENE DOWDY,,"SYMPHONY OF THE HILLS ASSOCIATION, INC.",,,,PO BOX 294703,KERRVILLE,TX,78029-4703,
,,,,,,,,,,,,,,
MARGIE,L.,SCHWARTZ,,MARGIE L. SCHWARTZ,,"SYMPHONY OF THE HILLS ASSOCIATION, INC.",,,,PO BOX 294703,KERRVILLE,TX,78029-4703,
,,,,,,,,,,,,,,
JOEL,,LAZAR,,JOEL LAZAR,,SYMPHONY OF THE POTOMAC,,,,PO BOX 717,GLEN ECHO,MD,20812-0717,
,,,,,,,,,,,,,,
ANDREW,,BALES,,ANDREW BALES,,SYMPHONY SILICON VALLEY,,,,PO BOX 790,SAN JOSE,CA,95106-0790,
,,,,,,,,,,,,,,
KARINA,,BHARNE,,KARINA BHARNE,,SYMPHONY TACOMA,,,,901 BROADWAY STE 600,TACOMA,WA,98402-4432,
,,,,,,,,,,,,,,
SARAH,,IOANNIDES,,SARAH IOANNIDES,,SYMPHONY TACOMA,,,,901 BROADWAY STE 600,TACOMA,WA,98402-4432,
,,,,,,,,,,,,,,
GEOFFREY,PAUL,BOERS,,GEOFFREY PAUL BOERS,,SYMPHONY TACOMA,,,,1518 HEMLOCK CT,MILTON,WA,98354-9530,
,,,,,,,,,,,,,,
AMANDA,,STRINGER,,AMANDA STRINGER,,TALLAHASSEE SYMPHONY ORCHESTRA,,,,515 E PARK AVE,TALLAHASSEE,FL,32301-2524,
,,,,,,,,,,,,,,
MARK,,SFORZINI,,MARK SFORZINI,,"TAMPA BAY SYMPHONY, INC.",,,,PO BOX 4653,CLEARWATER,FL,33758-4653,
,,,,,,,,,,,,,,
DAVID,L.,BOWDEN,,DAVID L. BOWDEN,,TERRE HAUTE SYMPHONY ASSOCIATION,,,,25 N 6TH ST,TERRE HAUTE,IN,47807-3123,
,,,,,,,,,,,,,,
PHILIP,,MANN,,PHILIP MANN,,TEXARKANA SYMPHONY ORCHESTRA,,,,421 HICKORY ST,TEXARKANA,AR,71854-5448,
,,,,,,,,,,,,,,
R.,ANDREW,CLARK,,R. ANDREW CLARK,,TEXARKANA SYMPHONY ORCHESTRA,,,,421 HICKORY ST,TEXARKANA,AR,71854-5448,
,,,,,,,,,,,,,,
PAUL,,SCHWENDENER,,PAUL SCHWENDENER,,THE ALL-STAR ORCHESTRA,,,,27 EDGEWOOD AVE,LARCHMONT,NY,10538-2302,
,,,,,,,,,,,,,,
DWAYNE,S.,MILBURN,,DWAYNE S. MILBURN,,THE CHAMBER ORCHESTRA AT ST. MATTHEW'S,,,,1031 BIENVENEDA AVE,PACIFIC PLSDS,CA,90272-2314,
,,,,,,,,,,,,,,
THOMAS,,NEENAN,,THOMAS NEENAN,,THE CHAMBER ORCHESTRA AT ST. MATTHEW'S,,,,1031 BIENVENEDA AVE,PACIFIC PLSDS,CA,90272-2314,
,,,,,,,,,,,,,,
ANNE,,HAGAN,,ANNE HAGAN,,THE CHAMBER ORCHESTRA OF PHILADELPHIA,,,,1520 LOCUST ST STE 500,PHILADELPHIA,PA,19102-4400,
,,,,,,,,,,,,,,
DIRK,,BROSS,,DIRK BROSS,,THE CHAMBER ORCHESTRA OF PHILADELPHIA,,,,1520 LOCUST ST STE 500,PHILADELPHIA,PA,19102-4400,
,,,,,,,,,,,,,,
SHIRLEY,,MORGENSTERN,,SHIRLEY MORGENSTERN,,THE CLEVELAND POPS ORCHESTRA,,,,24000 MERCANTILE RD STE 8,BEACHWOOD,OH,44122-5913,
,,,,,,,,,,,,,,
JASON,,LOVE,,JASON LOVE,,THE COLUMBIA ORCHESTRA,,,,8510 HIGH RIDGE RD,ELLICOTT CITY,MD,21043-3308,
,,,,,,,,,,,,,,
KATHERINE,,KEEFE,,KATHERINE KEEFE,,THE COLUMBIA ORCHESTRA,,,,8510 HIGH RIDGE RD,ELLICOTT CITY,MD,21043-3308,
,,,,,,,,,,,,,,
MICHAEL,,FRANCIS,,MICHAEL FRANCIS,,THE FLORIDA ORCHESTRA,,,,244 2ND AVE N STE 420,ST PETERSBURG,FL,33701-3306,
,,,,,,,,,,,,,,
CORI,,LINT,,CORI LINT,,THE FLORIDA ORCHESTRA,,,,244 2ND AVE N STE 420,ST PETERSBURG,FL,33701-3306,
,,,,,,,,,,,,,,
GREG,J.,JOHNSON,,GREG J. JOHNSON,,THE GAINESVILLE ORCHESTRA,,,,PO BOX 357011,GAINESVILLE,FL,32635-7011,
,,,,,,,,,,,,,,
PETER,,SHANNON,,PETER SHANNON,,THE JACKSON SYMPHONY,,,,207 E LAFAYETTE ST,JACKSON,TN,38301-6217,
,,,,,,,,,,,,,,
SHERRY,,FREEMAN,,SHERRY FREEMAN,,THE JACKSON SYMPHONY,,,,207 E LAFAYETTE ST,JACKSON,TN,38301-6217,
,,,,,,,,,,,,,,
ANNE,,BERQUIST,,ANNE BERQUIST,,THE LAS VEGAS PHILHARMONIC,,,,2451 S BUFFALO DR STE 142,LAS VEGAS,NV,89117-2749,
,,,,,,,,,,,,,,
DONATO,,CABRERA,,DONATO CABRERA,,THE LAS VEGAS PHILHARMONIC,,,,2451 S BUFFALO DR STE 142,LAS VEGAS,NV,89117-2749,
,,,,,,,,,,,,,,
CHARLES,JONES,EVANS,,CHARLES JONES EVANS,,THE LONG BAY SYMPHONY,,,,1107 48TH AVE N STE 310E,MYRTLE BEACH,SC,29577-5443,
,,,,,,,,,,,,,,
SHANNON,,FARRO,,SHANNON FARRO,,THE LONG BAY SYMPHONY,,,,1107 48TH AVE N STE 310E,MYRTLE BEACH,SC,29577-5443,
,,,,,,,,,,,,,,
STEVEN,,REINEKE,,STEVEN REINEKE,,THE NEW YORK POPS,,,,39 BROADWAY RM 1150,NEW YORK,NY,10006-3116,
,,,,,,,,,,,,,,
KATHRYN,,DEL GUIDICE,,KATHRYN DEL GUIDICE,,THE ORCHESTRA OF NORTHERN NEW YORK,,,,PO BOX 488,POTSDAM,NY,13676-0488,
,,,,,,,,,,,,,,
KENNETH,,ANDREWS,,KENNETH ANDREWS,,THE ORCHESTRA OF NORTHERN NEW YORK,,,,PO BOX 488,POTSDAM,NY,13676-0488,
,,,,,,,,,,,,,,
DAVID,,BERNARD,,DAVID BERNARD,,THE PARK AVENUE CHAMBER SYMPHONY,,,,875 5TH AVE STE 8D,NEW YORK,NY,10065-4952,
,,,,,,,,,,,,,,
JEREMY,,ROTHMAN,,JEREMY ROTHMAN,,THE PHILADELPHIA ORCHESTRA,,,,1 S BROAD ST STE 1400,PHILADELPHIA,PA,19107-3401,
,,,,,,,,,,,,,,
DANIELLE,,ALLEN,,DANIELLE ALLEN,,THE PHILADELPHIA ORCHESTRA,,,,1 S BROAD ST STE 1400,PHILADELPHIA,PA,19107-3401,
,,,,,,,,,,,,,,
TANYA,,DERKSEN,,TANYA DERKSEN,,THE PHILADELPHIA ORCHESTRA,,,,1 S BROAD ST STE 1400,PHILADELPHIA,PA,19107-3401,
,,,,,,,,,,,,,,
MAKIKO,H.,FREEMAN,,MAKIKO H. FREEMAN,,THE PHILADELPHIA ORCHESTRA,,,,1 S BROAD ST STE 1400,PHILADELPHIA,PA,19107-3401,
,,,,,,,,,,,,,,
FRANK,,GIORDANO,,FRANK GIORDANO,,THE PHILLY POPS,,,,1518 WALNUT ST STE 1706,PHILADELPHIA,PA,19102-3409,
,,,,,,,,,,,,,,
DAVID,CHARLES,ABELL,,DAVID CHARLES ABELL,,THE PHILLY POPS,,,,1518 WALNUT ST STE 1706,PHILADELPHIA,PA,19102-3409,
,,,,,,,,,,,,,,
SUZANNE,,WILSON,,SUZANNE WILSON,,THE PHOENIX SYMPHONY,,,,1 N 1ST ST STE 200,PHOENIX,AZ,85004-2538,
,,,,,,,,,,,,,,
TITO,,MUOZ,,TITO MUOZ,,THE PHOENIX SYMPHONY,,,,1 N 1ST ST STE 200,PHOENIX,AZ,85004-2538,
,,,,,,,,,,,,,,
VALERIE,,BONTRAGER,,VALERIE BONTRAGER,,THE PHOENIX SYMPHONY,,,,1 N 1ST ST STE 200,PHOENIX,AZ,85004-2538,
,,,,,,,,,,,,,,
ALEXANDRA,,BLACK,,ALEXANDRA BLACK,,THE PHOENIX SYMPHONY,,,,2327 W MONTEBELLO AVE,PHOENIX,AZ,85015-2242,
,,,,,,,,,,,,,,
EMMA,,SCHERER,,EMMA SCHERER,,THE SANTA FE SYMPHONY ORCHESTRA & CHORUS,,,,PO BOX 9692,SANTA FE,NM,87504-9692,
,,,,,,,,,,,,,,
CHELSEA,,TIPTON,,CHELSEA TIPTON,,THE SYMPHONY OF SOUTHEAST TEXAS,,,,4345 PHELAN BLVD STE 105,BEAUMONT,TX,77707-2157,
,,,,,,,,,,,,,,
DOUGLAS,,FAIR,,DOUGLAS FAIR,,THE SYMPHONY OF SOUTHEAST TEXAS,,,,4345 PHELAN BLVD STE 105,BEAUMONT,TX,77707-2157,
,,,,,,,,,,,,,,
CHRISTINE,,KASTEN,,CHRISTINE KASTEN,,THE VENICE SYMPHONY,,,,PO BOX 1561,VENICE,FL,34284-1561,
,,,,,,,,,,,,,,
TROY,,QUINN,,TROY QUINN,,THE VENICE SYMPHONY,,,,PO BOX 1561,VENICE,FL,34284-1561,
,,,,,,,,,,,,,,
TIM,,FERGUSON,,TIM FERGUSON,,THE VENICE SYMPHONY,,,,3156 WILLOW SPRINGS CIR,VENICE,FL,34293-1448,
,,,,,,,,,,,,,,
DANA,,KIMBLE,,DANA KIMBLE,,THE VENICE SYMPHONY,,,,PO BOX 1561,VENICE,FL,34284-1561,
,,,,,,,,,,,,,,
DANH,T.,PHAM,,DANH T. PHAM,,THE WASHINGTON IDAHO SYMPHONY,,,,PO BOX 9185,MOSCOW,ID,83843-1685,
,,,,,,,,,,,,,,
CAROLYN,,KEURAJIAN,,CAROLYN KEURAJIAN,,THE WILLIAMSBURG SYMPHONY ORCHESTRA,,,,PO BOX 400,WILLIAMSBURG,VA,23187-0400,
,,,,,,,,,,,,,,
SALLY,M.,LUNDE,,SALLY M. LUNDE,,THE WISCONSIN PHILHARMONIC,,,,PO BOX 531,WAUKESHA,WI,53187-0531,
,,,,,,,,,,,,,,
ZAK,,VASSAR,,ZAK VASSAR,,TOLEDO SYMPHONY,,,,PO BOX 407,TOLEDO,OH,43697-0407,
,,,,,,,,,,,,,,
ALAIN,,TRUDEL,,ALAIN TRUDEL,,TOLEDO SYMPHONY,,,,PO BOX 407,TOLEDO,OH,43697-0407,
,,,,,,,,,,,,,,
RACHEL,,SCHULTZ,,RACHEL SCHULTZ,,TOLEDO SYMPHONY,,,,PO BOX 407,TOLEDO,OH,43697-0407,
,,,,,,,,,,,,,,
MERWIN,,SIU,,MERWIN SIU,,TOLEDO SYMPHONY,,,,PO BOX 407,TOLEDO,OH,43697-0407,
,,,,,,,,,,,,,,
KATHY,,MAAG,,KATHY MAAG,,TOPEKA SYMPHONY ORCHESTRA,,,,PO BOX 2206,TOPEKA,KS,66601-2206,
,,,,,,,,,,,,,,
KEDRIK,,MERWIN,,KEDRIK MERWIN,,TRAVERSE SYMPHONY ORCHESTRA,,,,300 E FRONT ST STE 230,TRAVERSE CITY,MI,49684-5773,
,,,,,,,,,,,,,,
PAUL,,MEECHAM,,PAUL MEECHAM,,TUCSON SYMPHONY ORCHESTRA,,,,2175 N 6TH AVE,TUCSON,AZ,85705-5606,
,,,,,,,,,,,,,,
JOS,LUIS,GOMEZ,,JOS LUIS GOMEZ,,TUCSON SYMPHONY ORCHESTRA,,,,2175 N 6TH AVE,TUCSON,AZ,85705-5606,
,,,,,,,,,,,,,,
ALANA,,RICHARDSON,,ALANA RICHARDSON,,TUCSON SYMPHONY ORCHESTRA,,,,2175 N 6TH AVE,TUCSON,AZ,85705-5606,
,,,,,,,,,,,,,,
PATRICIA,,JOSLYN,,PATRICIA JOSLYN,,TUCSON SYMPHONY ORCHESTRA,,,,2175 N 6TH AVE,TUCSON,AZ,85705-5606,
,,,,,,,,,,,,,,
KEITH,,ELDER,,KEITH ELDER,,"TULSA SYMPHONY ORCHESTRA, INC.",,,,117 N BOSTON AVE STE 201,TULSA,OK,74103-2039,
,,,,,,,,,,,,,,
REBEKAH,,GEISELMAN,,REBEKAH GEISELMAN,,"TULSA SYMPHONY ORCHESTRA, INC.",,,,117 N BOSTON AVE STE 201,TULSA,OK,74103-2039,
,,,,,,,,,,,,,,
JENNY,,MANN,,JENNY MANN,,TUSCALOOSA SYMPHONY ORCHESTRA,,,,PO BOX 20001,TUSCALOOSA,AL,35402-0001,
,,,,,,,,,,,,,,
KIM,,NORWOOD,,KIM NORWOOD,,"UNION SYMPHONY SOCIETY, INC.",,,,103 CASTLESTONE LN,MATTHEWS,NC,28104-7277,
,,,,,,,,,,,,,,
TOBY,,TOLOKAN,,TOBY TOLOKAN,,UTAH SYMPHONY | UTAH OPERA,,,,123 W SOUTH TEMPLE,SALT LAKE CTY,UT,84101-1403,
,,,,,,,,,,,,,,
CONNER,GRAY,COVINGTON,,CONNER GRAY COVINGTON,,UTAH SYMPHONY | UTAH OPERA,,,,123 W SOUTH TEMPLE,SALT LAKE CTY,UT,84101-1403,
,,,,,,,,,,,,,,
PAULA,,FOWLER,,PAULA FOWLER,,UTAH SYMPHONY | UTAH OPERA,,,,123 W SOUTH TEMPLE,SALT LAKE CTY,UT,84101-1403,
,,,,,,,,,,,,,,
KYLEENE,,JOHNSON,,KYLEENE JOHNSON,,UTAH SYMPHONY | UTAH OPERA,,,,123 W SOUTH TEMPLE,SALT LAKE CTY,UT,84101-1403,
,,,,,,,,,,,,,,
DOUG,,FARWELL,,DOUG FARWELL,,VALDOSTA SYMPHONY ORCHESTRA,,,,C/O DEPT OF MUSICVALDOSTA STATE U 1500 PATTERSON STREET,VALDOSTA,GA,31698-0001,
,,,,,,,,,,,,,,
HOWARD,,HSU,,HOWARD HSU,,VALDOSTA SYMPHONY ORCHESTRA,,,,C/O DEPT OF MUSICVALDOSTA STATE U 1500 PATTERSON STREET,VALDOSTA,GA,31698-0001,
,,,,,,,,,,,,,,
JIM,,GARDIA,,JIM GARDIA,,VALLEJO SYMPHONY,,,,PO BOX 568,VALLEJO,CA,94590-0056,
,,,,,,,,,,,,,,
MARC,,TADDEI,,MARC TADDEI,,VALLEJO SYMPHONY,,,,PO BOX 568,VALLEJO,CA,94590-0056,
,,,,,,,,,,,,,,
OTTO,,TAUSK,,OTTO TAUSK,,VANCOUVER SYMPHONY ORCHESTRA,,,,PO BOX 525,VANCOUVER,WA,98666-0525,
,,,,,,,,,,,,,,
NANCY,,BROWN,,NANCY BROWN,,VERDE VALLEY SINFONIETTA,,,,PO BOX 4672,SEDONA,AZ,86340-4672,
,,,,,,,,,,,,,,
DAVID,,LUDWIG,,DAVID LUDWIG,,VERMONT SYMPHONY ORCHESTRA,,,,425 W 50TH ST APT 15E,NEW YORK,NY,10019-7645,
,,,,,,,,,,,,,,
ELISE,,BRUNELLE,,ELISE BRUNELLE,,VERMONT SYMPHONY ORCHESTRA,,,,2 CHURCH ST STE 3B,BURLINGTON,VT,05401-4457,
,,,,,,,,,,,,,,
DARRYL,,ONE,,DARRYL ONE,,VICTORIA SYMPHONY ORCHESTRA,,,,405 E LOMA VISTA AVE,VICTORIA,TX,77901-4825,
,,,,,,,,,,,,,,
MICHELLE,E.,HALL,,MICHELLE E. HALL,,VICTORIA SYMPHONY ORCHESTRA,,,,405 E LOMA VISTA AVE,VICTORIA,TX,77901-4825,
,,,,,,,,,,,,,,
KAREN,,PHILION,,KAREN PHILION,,VIRGINIA SYMPHONY ORCHESTRA,,,,150 BOUSH ST STE 201,NORFOLK,VA,23510-1626,
,,,,,,,,,,,,,,
BENJAMIN,,ROUS,,BENJAMIN ROUS,,VIRGINIA SYMPHONY ORCHESTRA,,,,150 BOUSH ST STE 201,NORFOLK,VA,23510-1626,
,,,,,,,,,,,,,,
RODNEY,,MARTELL,,RODNEY MARTELL,,VIRGINIA SYMPHONY ORCHESTRA,,,,150 BOUSH ST STE 201,NORFOLK,VA,23510-1626,
,,,,,,,,,,,,,,
CAROLYN,KANNWISCHER,BESS,,CAROLYN KANNWISCHER BESS,,WACO SYMPHONY ORCHESTRA,,,,PO BOX 1201,WACO,TX,76703-1201,
,,,,,,,,,,,,,,
STEPHEN,M.,HEYDE,,STEPHEN M. HEYDE,,WACO SYMPHONY ORCHESTRA,,,,PO BOX 1201,WACO,TX,76703-1201,
,,,,,,,,,,,,,,
LEAH,,WILSON-VELASCO,,LEAH WILSON-VELASCO,,WALLA WALLA SYMPHONY,,,,PO BOX 92,WALLA WALLA,WA,99362-0003,
,,,,,,,,,,,,,,
YAACOV,,BERGMAN,,YAACOV BERGMAN,,WALLA WALLA SYMPHONY,,,,PO BOX 92,WALLA WALLA,WA,99362-0003,
,,,,,,,,,,,,,,
AMY,,JONES,,AMY JONES,,WATERBURY SYMPHONY ORCHESTRA,,,,61 LITCHFIELD RD,UNIONVILLE,CT,06085-1320,
,,,,,,,,,,,,,,
JASON,ANDREW,WEINBERGER,,JASON ANDREW WEINBERGER,,WATERLOO-CEDAR FALLS SYMPHONY,,,,8201 DAKOTA ST # 17 GALLAGHERBLUEDORN PAC,CEDAR FALLS,IA,50614-0803,
,,,,,,,,,,,,,,
RICHARD,A.,FREVERT,,RICHARD A. FREVERT,,WATERLOO-CEDAR FALLS SYMPHONY,,,,8201 DAKOTA ST # 17 GALLAGHERBLUEDORN PAC,CEDAR FALLS,IA,50614-0803,
,,,,,,,,,,,,,,
PETRA,,SWIDLER,,PETRA SWIDLER,,WENATCHEE VALLEY SYMPHONY,,,,PO BOX 3423,WENATCHEE,WA,98807-3423,
,,,,,,,,,,,,,,
RON,,BERMINGHAM,,RON BERMINGHAM,,WENATCHEE VALLEY SYMPHONY ORCHESTRA,,,,1494 COPPER LOOP,E WENATCHEE,WA,98802-5598,
,,,,,,,,,,,,,,
ANDREW,C.,BUELOW,,ANDREW C. BUELOW,,WEST MICHIGAN SYMPHONY,,,,360 W WESTERN AVE STE 200,MUSKEGON,MI,49440-1268,
,,,,,,,,,,,,,,
PETER,,LIPARI,,PETER LIPARI,,WEST SUBURBAN SYMPHONY SOCIETY,,,,PO BOX 565,HINSDALE,IL,60522-0565,
,,,,,,,,,,,,,,
CAL,STEWART,KELLOGG,,CAL STEWART KELLOGG,,WEST VALLEY SYMPHONY ASSOCIATION,,,,PO BOX 7328,SURPRISE,AZ,85374-0105,
,,,,,,,,,,,,,,
MONA,,MYHRE,,MONA MYHRE,,WEST VALLEY SYMPHONY ASSOCIATION,,,,PO BOX 7328,SURPRISE,AZ,85374-0105,
,,,,,,,,,,,,,,
JOE,,TACKETT,,JOE TACKETT,,WEST VIRGINIA SYMPHONY ORCHESTRA,,,,PO BOX 2292,CHARLESTON,WV,25328-2292,
,,,,,,,,,,,,,,
LAWRENCE,,LOH,,LAWRENCE LOH,,WEST VIRGINIA SYMPHONY ORCHESTRA,,,,PO BOX 2292,CHARLESTON,WV,25328-2292,
,,,,,,,,,,,,,,
BETTY,,KING,,BETTY KING,,WEST VIRGINIA SYMPHONY ORCHESTRA,,,,PO BOX 2292,CHARLESTON,WV,25328-2292,
,,,,,,,,,,,,,,
MATTHEW,,TROY,,MATTHEW TROY,,WESTERN PIEDMONT SYMPHONY,,,,243 3RD AVE NE STE 1N,HICKORY,NC,28601-5168,
,,,,,,,,,,,,,,
INGRID,ANNA-LISA,KELLER,,INGRID ANNA-LISA KELLER,,WESTERN PIEDMONT SYMPHONY,,,,243 3RD AVE NE STE 1N,HICKORY,NC,28601-5168,
,,,,,,,,,,,,,,
BRYAN,,BRAUNLICH,,BRYAN BRAUNLICH,,WHEELING SYMPHONY,,,,1025 MAIN ST STE 811,WHEELING,WV,26003-2724,
,,,,,,,,,,,,,,
JOHN,,DEVLIN,,JOHN DEVLIN,,WHEELING SYMPHONY,,,,1025 MAIN ST STE 811,WHEELING,WV,26003-2724,
,,,,,,,,,,,,,,
LAUREN,E.,CAREY,,LAUREN E. CAREY,,WHEELING SYMPHONY,,,,1025 MAIN ST STE 811,WHEELING,WV,26003-2724,
,,,,,,,,,,,,,,
EMILY,,PROCHASKA,,EMILY PROCHASKA,,WHEELING SYMPHONY,,,,1025 MAIN ST STE 811,WHEELING,WV,26003-2724,
,,,,,,,,,,,,,,
ALICIA,,DEGES,,ALICIA DEGES,,WICHITA FALLS SYMPHONY ORCHESTRA,,,,1300 LAMAR ST,WICHITA FALLS,TX,76301-7031,
,,,,,,,,,,,,,,
DONALD,,REINHOLD,,DONALD REINHOLD,,WICHITA SYMPHONY ORCHESTRA,,,,225 W DOUGLAS AVE STE 207,WICHITA,KS,67202-3100,
,,,,,,,,,,,,,,
DANIEL,,HEGE,,DANIEL HEGE,,WICHITA SYMPHONY ORCHESTRA,,,,225 W DOUGLAS AVE STE 207,WICHITA,KS,67202-3100,
,,,,,,,,,,,,,,
HIND,,JABBOUR,,HIND JABBOUR,,WILLIAMSPORT SYMPHONY ORCHESTRA,,,,220 W 4TH ST FL 3,WILLIAMSPORT,PA,17701-6102,
,,,,,,,,,,,,,,
LIZ,,SCANLON,,LIZ SCANLON,,WILMINGTON SYMPHONY,,,,5032 RANDALL PKWY,WILMINGTON,NC,28403-2829,
,,,,,,,,,,,,,,
STEVEN,,ERRANTE,,STEVEN ERRANTE,,WILMINGTON SYMPHONY ORCHESTRA,,,,5032 RANDALL PKWY,WILMINGTON,NC,28403-2829,
,,,,,,,,,,,,,,
ANDREW,,SEWELL,,ANDREW SEWELL,,WISCONSIN CHAMBER ORCHESTRA,,,,321 E MAIN ST,MADISON,WI,53703-2813,
,,,,,,,,,,,,,,
DAVID,W.,ROGERS,,DAVID W. ROGERS,,YAKIMA SYMPHONY ORCHESTRA,,,,32 N 3RD ST STE 333,YAKIMA,WA,98901-2730,
,,,,,,,,,,,,,,
BETSY,,MCCANN,,BETSY MCCANN,,YAKIMA SYMPHONY ORCHESTRA,,,,201 N 37TH AVE,YAKIMA,WA,98902-2229,
,,,,,,,,,,,,,,
MICHAEL,,REICHMAN,,MICHAEL REICHMAN,,YORK SYMPHONY ORCHESTRA,,,,50 N GEORGE ST,YORK,PA,17401-1214,
,,,,,,,,,,,,,,
RICHARD,,BROWN,,RICHARD BROWN,,YORK SYMPHONY ORCHESTRA,,,,50 N GEORGE ST,YORK,PA,17401-1214,
,,,,,,,,,,,,,,
MICHAEL,D.,GELFAND,,MICHAEL D. GELFAND,,YOUNGSTOWN SYMPHONY ORCHESTRA,,,,260 W FEDERAL ST,YOUNGSTOWN,OH,44503-1206,
,,,,,,,,,,,,,,
ANDREW,,O'NEAL,,ANDREW O'NEAL,,TUCSON SYMPHONY ORCHESTRA,,,,2175 N 6TH AVE,TUCSON,AZ,85705-5606,
,,,,,,,,,,,,,,
DEMETRIUS,,FULLER,,DEMETRIUS FULLER,,SINFONIA GULF COAST,,,,4608 OPA LOCKA LN STE 100,DESTIN,FL,32541-0745,
